{
"type": "FeatureCollection",
"name": "tile_extents",
"features": [
{ "type": "Feature", "properties": { "id": 1, "name": "N70_W180" }, "geometry": { "type": "Polygon", "coordinates": [ [ [ -180.0004159, 70.002066666666664 ], [ -170.00124923333334, 70.002066666666664 ], [ -170.00124923333334, 60.0029 ], [ -180.0004159, 60.0029 ], [ -180.0004159, 70.002066666666664 ] ] ] } },
{ "type": "Feature", "properties": { "id": 2, "name": "N80_W170" }, "geometry": { "type": "Polygon", "coordinates": [ [ [ -170.001249205557883, 80.001233333333332 ], [ -160.002082538891216, 80.001233333333332 ], [ -160.002082538891216, 70.002066666666664 ], [ -170.001249205557883, 70.002066666666664 ], [ -170.001249205557883, 80.001233333333332 ] ] ] } },
{ "type": "Feature", "properties": { "id": 3, "name": "N70_W170" }, "geometry": { "type": "Polygon", "coordinates": [ [ [ -170.001249205557883, 70.002066666666664 ], [ -160.002082538891216, 70.002066666666664 ], [ -160.002082538891216, 60.0029 ], [ -170.001249205557883, 60.0029 ], [ -170.001249205557883, 70.002066666666664 ] ] ] } },
{ "type": "Feature", "properties": { "id": 4, "name": "N60_W170" }, "geometry": { "type": "Polygon", "coordinates": [ [ [ -170.001249205557883, 60.0029 ], [ -160.002082538891216, 60.0029 ], [ -160.002082538891216, 50.003733333333329 ], [ -170.001249205557883, 50.003733333333329 ], [ -170.001249205557883, 60.0029 ] ] ] } },
{ "type": "Feature", "properties": { "id": 5, "name": "N80_W160" }, "geometry": { "type": "Polygon", "coordinates": [ [ [ -160.002082511115759, 80.001233333333332 ], [ -150.002915844449092, 80.001233333333332 ], [ -150.002915844449092, 70.002066666666664 ], [ -160.002082511115759, 70.002066666666664 ], [ -160.002082511115759, 80.001233333333332 ] ] ] } },
{ "type": "Feature", "properties": { "id": 6, "name": "N70_W160" }, "geometry": { "type": "Polygon", "coordinates": [ [ [ -160.002082511115759, 70.002066666666664 ], [ -150.002915844449092, 70.002066666666664 ], [ -150.002915844449092, 60.0029 ], [ -160.002082511115759, 60.0029 ], [ -160.002082511115759, 70.002066666666664 ] ] ] } },
{ "type": "Feature", "properties": { "id": 7, "name": "N60_W160" }, "geometry": { "type": "Polygon", "coordinates": [ [ [ -160.002082511115759, 60.0029 ], [ -150.002915844449092, 60.0029 ], [ -150.002915844449092, 50.003733333333329 ], [ -160.002082511115759, 50.003733333333329 ], [ -160.002082511115759, 60.0029 ] ] ] } },
{ "type": "Feature", "properties": { "id": 8, "name": "N80_W150" }, "geometry": { "type": "Polygon", "coordinates": [ [ [ -150.002915816673578, 80.001233333333332 ], [ -140.003749150006911, 80.001233333333332 ], [ -140.003749150006911, 70.002066666666664 ], [ -150.002915816673578, 70.002066666666664 ], [ -150.002915816673578, 80.001233333333332 ] ] ] } },
{ "type": "Feature", "properties": { "id": 9, "name": "N70_W150" }, "geometry": { "type": "Polygon", "coordinates": [ [ [ -150.002915816673578, 70.002066666666664 ], [ -140.003749150006911, 70.002066666666664 ], [ -140.003749150006911, 60.0029 ], [ -150.002915816673578, 60.0029 ], [ -150.002915816673578, 70.002066666666664 ] ] ] } },
{ "type": "Feature", "properties": { "id": 10, "name": "N60_W150" }, "geometry": { "type": "Polygon", "coordinates": [ [ [ -150.002915816673578, 60.0029 ], [ -140.003749150006911, 60.0029 ], [ -140.003749150006911, 50.003733333333329 ], [ -150.002915816673578, 50.003733333333329 ], [ -150.002915816673578, 60.0029 ] ] ] } },
{ "type": "Feature", "properties": { "id": 11, "name": "N80_W140" }, "geometry": { "type": "Polygon", "coordinates": [ [ [ -140.003749122231454, 80.001233333333332 ], [ -130.004582455564787, 80.001233333333332 ], [ -130.004582455564787, 70.002066666666664 ], [ -140.003749122231454, 70.002066666666664 ], [ -140.003749122231454, 80.001233333333332 ] ] ] } },
{ "type": "Feature", "properties": { "id": 12, "name": "N70_W140" }, "geometry": { "type": "Polygon", "coordinates": [ [ [ -140.003749122231454, 70.002066666666664 ], [ -130.004582455564787, 70.002066666666664 ], [ -130.004582455564787, 60.0029 ], [ -140.003749122231454, 60.0029 ], [ -140.003749122231454, 70.002066666666664 ] ] ] } },
{ "type": "Feature", "properties": { "id": 13, "name": "N60_W140" }, "geometry": { "type": "Polygon", "coordinates": [ [ [ -140.003749122231454, 60.0029 ], [ -130.004582455564787, 60.0029 ], [ -130.004582455564787, 50.003733333333329 ], [ -140.003749122231454, 50.003733333333329 ], [ -140.003749122231454, 60.0029 ] ] ] } },
{ "type": "Feature", "properties": { "id": 14, "name": "N80_W130" }, "geometry": { "type": "Polygon", "coordinates": [ [ [ -130.00458242778933, 80.001233333333332 ], [ -120.005415761122663, 80.001233333333332 ], [ -120.005415761122663, 70.002066666666664 ], [ -130.00458242778933, 70.002066666666664 ], [ -130.00458242778933, 80.001233333333332 ] ] ] } },
{ "type": "Feature", "properties": { "id": 15, "name": "N70_W130" }, "geometry": { "type": "Polygon", "coordinates": [ [ [ -130.00458242778933, 70.002066666666664 ], [ -120.005415761122663, 70.002066666666664 ], [ -120.005415761122663, 60.0029 ], [ -130.00458242778933, 60.0029 ], [ -130.00458242778933, 70.002066666666664 ] ] ] } },
{ "type": "Feature", "properties": { "id": 16, "name": "N60_W130" }, "geometry": { "type": "Polygon", "coordinates": [ [ [ -130.00458242778933, 60.0029 ], [ -120.005415761122663, 60.0029 ], [ -120.005415761122663, 50.003733333333329 ], [ -130.00458242778933, 50.003733333333329 ], [ -130.00458242778933, 60.0029 ] ] ] } },
{ "type": "Feature", "properties": { "id": 17, "name": "N50_W130" }, "geometry": { "type": "Polygon", "coordinates": [ [ [ -130.00458242778933, 50.003733333333329 ], [ -120.005415761122663, 50.003733333333329 ], [ -120.005415761122663, 40.004566666666662 ], [ -130.00458242778933, 40.004566666666662 ], [ -130.00458242778933, 50.003733333333329 ] ] ] } },
{ "type": "Feature", "properties": { "id": 18, "name": "N40_W130" }, "geometry": { "type": "Polygon", "coordinates": [ [ [ -130.00458242778933, 40.004566666666662 ], [ -120.005415761122663, 40.004566666666662 ], [ -120.005415761122663, 30.0054 ], [ -130.00458242778933, 30.0054 ], [ -130.00458242778933, 40.004566666666662 ] ] ] } },
{ "type": "Feature", "properties": { "id": 19, "name": "N80_W120" }, "geometry": { "type": "Polygon", "coordinates": [ [ [ -120.00541573334722, 80.001233333333332 ], [ -110.006249066680553, 80.001233333333332 ], [ -110.006249066680553, 70.002066666666664 ], [ -120.00541573334722, 70.002066666666664 ], [ -120.00541573334722, 80.001233333333332 ] ] ] } },
{ "type": "Feature", "properties": { "id": 20, "name": "N70_W120" }, "geometry": { "type": "Polygon", "coordinates": [ [ [ -120.00541573334722, 70.002066666666664 ], [ -110.006249066680553, 70.002066666666664 ], [ -110.006249066680553, 60.0029 ], [ -120.00541573334722, 60.0029 ], [ -120.00541573334722, 70.002066666666664 ] ] ] } },
{ "type": "Feature", "properties": { "id": 21, "name": "N60_W120" }, "geometry": { "type": "Polygon", "coordinates": [ [ [ -120.00541573334722, 60.0029 ], [ -110.006249066680553, 60.0029 ], [ -110.006249066680553, 50.003733333333329 ], [ -120.00541573334722, 50.003733333333329 ], [ -120.00541573334722, 60.0029 ] ] ] } },
{ "type": "Feature", "properties": { "id": 22, "name": "N50_W120" }, "geometry": { "type": "Polygon", "coordinates": [ [ [ -120.00541573334722, 50.003733333333329 ], [ -110.006249066680553, 50.003733333333329 ], [ -110.006249066680553, 40.004566666666662 ], [ -120.00541573334722, 40.004566666666662 ], [ -120.00541573334722, 50.003733333333329 ] ] ] } },
{ "type": "Feature", "properties": { "id": 23, "name": "N40_W120" }, "geometry": { "type": "Polygon", "coordinates": [ [ [ -120.00541573334722, 40.004566666666662 ], [ -110.006249066680553, 40.004566666666662 ], [ -110.006249066680553, 30.0054 ], [ -120.00541573334722, 30.0054 ], [ -120.00541573334722, 40.004566666666662 ] ] ] } },
{ "type": "Feature", "properties": { "id": 24, "name": "N30_W120" }, "geometry": { "type": "Polygon", "coordinates": [ [ [ -120.00541573334722, 30.0054 ], [ -110.006249066680553, 30.0054 ], [ -110.006249066680553, 20.006233333333327 ], [ -120.00541573334722, 20.006233333333327 ], [ -120.00541573334722, 30.0054 ] ] ] } },
{ "type": "Feature", "properties": { "id": 25, "name": "N80_W110" }, "geometry": { "type": "Polygon", "coordinates": [ [ [ -110.006249038905082, 80.001233333333332 ], [ -100.007082372238415, 80.001233333333332 ], [ -100.007082372238415, 70.002066666666664 ], [ -110.006249038905082, 70.002066666666664 ], [ -110.006249038905082, 80.001233333333332 ] ] ] } },
{ "type": "Feature", "properties": { "id": 26, "name": "N70_W110" }, "geometry": { "type": "Polygon", "coordinates": [ [ [ -110.006249038905082, 70.002066666666664 ], [ -100.007082372238415, 70.002066666666664 ], [ -100.007082372238415, 60.0029 ], [ -110.006249038905082, 60.0029 ], [ -110.006249038905082, 70.002066666666664 ] ] ] } },
{ "type": "Feature", "properties": { "id": 27, "name": "N60_W110" }, "geometry": { "type": "Polygon", "coordinates": [ [ [ -110.006249038905082, 60.0029 ], [ -100.007082372238415, 60.0029 ], [ -100.007082372238415, 50.003733333333329 ], [ -110.006249038905082, 50.003733333333329 ], [ -110.006249038905082, 60.0029 ] ] ] } },
{ "type": "Feature", "properties": { "id": 28, "name": "N50_W110" }, "geometry": { "type": "Polygon", "coordinates": [ [ [ -110.006249038905082, 50.003733333333329 ], [ -100.007082372238415, 50.003733333333329 ], [ -100.007082372238415, 40.004566666666662 ], [ -110.006249038905082, 40.004566666666662 ], [ -110.006249038905082, 50.003733333333329 ] ] ] } },
{ "type": "Feature", "properties": { "id": 29, "name": "N40_W110" }, "geometry": { "type": "Polygon", "coordinates": [ [ [ -110.006249038905082, 40.004566666666662 ], [ -100.007082372238415, 40.004566666666662 ], [ -100.007082372238415, 30.0054 ], [ -110.006249038905082, 30.0054 ], [ -110.006249038905082, 40.004566666666662 ] ] ] } },
{ "type": "Feature", "properties": { "id": 30, "name": "N30_W110" }, "geometry": { "type": "Polygon", "coordinates": [ [ [ -110.006249038905082, 30.0054 ], [ -100.007082372238415, 30.0054 ], [ -100.007082372238415, 20.006233333333327 ], [ -110.006249038905082, 20.006233333333327 ], [ -110.006249038905082, 30.0054 ] ] ] } },
{ "type": "Feature", "properties": { "id": 31, "name": "N20_W110" }, "geometry": { "type": "Polygon", "coordinates": [ [ [ -110.006249038905082, 20.006233333333327 ], [ -100.007082372238415, 20.006233333333327 ], [ -100.007082372238415, 10.00706666666666 ], [ -110.006249038905082, 10.00706666666666 ], [ -110.006249038905082, 20.006233333333327 ] ] ] } },
{ "type": "Feature", "properties": { "id": 32, "name": "N90_W100" }, "geometry": { "type": "Polygon", "coordinates": [ [ [ -100.007082344462958, 90.0004 ], [ -90.007915677796291, 90.0004 ], [ -90.007915677796291, 80.001233333333332 ], [ -100.007082344462958, 80.001233333333332 ], [ -100.007082344462958, 90.0004 ] ] ] } },
{ "type": "Feature", "properties": { "id": 33, "name": "N80_W100" }, "geometry": { "type": "Polygon", "coordinates": [ [ [ -100.007082344462958, 80.001233333333332 ], [ -90.007915677796291, 80.001233333333332 ], [ -90.007915677796291, 70.002066666666664 ], [ -100.007082344462958, 70.002066666666664 ], [ -100.007082344462958, 80.001233333333332 ] ] ] } },
{ "type": "Feature", "properties": { "id": 34, "name": "N70_W100" }, "geometry": { "type": "Polygon", "coordinates": [ [ [ -100.007082344462958, 70.002066666666664 ], [ -90.007915677796291, 70.002066666666664 ], [ -90.007915677796291, 60.0029 ], [ -100.007082344462958, 60.0029 ], [ -100.007082344462958, 70.002066666666664 ] ] ] } },
{ "type": "Feature", "properties": { "id": 35, "name": "N60_W100" }, "geometry": { "type": "Polygon", "coordinates": [ [ [ -100.007082344462958, 60.0029 ], [ -90.007915677796291, 60.0029 ], [ -90.007915677796291, 50.003733333333329 ], [ -100.007082344462958, 50.003733333333329 ], [ -100.007082344462958, 60.0029 ] ] ] } },
{ "type": "Feature", "properties": { "id": 36, "name": "N50_W100" }, "geometry": { "type": "Polygon", "coordinates": [ [ [ -100.007082344462958, 50.003733333333329 ], [ -90.007915677796291, 50.003733333333329 ], [ -90.007915677796291, 40.004566666666662 ], [ -100.007082344462958, 40.004566666666662 ], [ -100.007082344462958, 50.003733333333329 ] ] ] } },
{ "type": "Feature", "properties": { "id": 37, "name": "N40_W100" }, "geometry": { "type": "Polygon", "coordinates": [ [ [ -100.007082344462958, 40.004566666666662 ], [ -90.007915677796291, 40.004566666666662 ], [ -90.007915677796291, 30.0054 ], [ -100.007082344462958, 30.0054 ], [ -100.007082344462958, 40.004566666666662 ] ] ] } },
{ "type": "Feature", "properties": { "id": 38, "name": "N30_W100" }, "geometry": { "type": "Polygon", "coordinates": [ [ [ -100.007082344462958, 30.0054 ], [ -90.007915677796291, 30.0054 ], [ -90.007915677796291, 20.006233333333327 ], [ -100.007082344462958, 20.006233333333327 ], [ -100.007082344462958, 30.0054 ] ] ] } },
{ "type": "Feature", "properties": { "id": 39, "name": "N20_W100" }, "geometry": { "type": "Polygon", "coordinates": [ [ [ -100.007082344462958, 20.006233333333327 ], [ -90.007915677796291, 20.006233333333327 ], [ -90.007915677796291, 10.00706666666666 ], [ -100.007082344462958, 10.00706666666666 ], [ -100.007082344462958, 20.006233333333327 ] ] ] } },
{ "type": "Feature", "properties": { "id": 40, "name": "N90_W90" }, "geometry": { "type": "Polygon", "coordinates": [ [ [ -90.00791565002082, 90.0004 ], [ -80.008748983354153, 90.0004 ], [ -80.008748983354153, 80.001233333333332 ], [ -90.00791565002082, 80.001233333333332 ], [ -90.00791565002082, 90.0004 ] ] ] } },
{ "type": "Feature", "properties": { "id": 41, "name": "N80_W90" }, "geometry": { "type": "Polygon", "coordinates": [ [ [ -90.00791565002082, 80.001233333333332 ], [ -80.008748983354153, 80.001233333333332 ], [ -80.008748983354153, 70.002066666666664 ], [ -90.00791565002082, 70.002066666666664 ], [ -90.00791565002082, 80.001233333333332 ] ] ] } },
{ "type": "Feature", "properties": { "id": 42, "name": "N70_W90" }, "geometry": { "type": "Polygon", "coordinates": [ [ [ -90.00791565002082, 70.002066666666664 ], [ -80.008748983354153, 70.002066666666664 ], [ -80.008748983354153, 60.0029 ], [ -90.00791565002082, 60.0029 ], [ -90.00791565002082, 70.002066666666664 ] ] ] } },
{ "type": "Feature", "properties": { "id": 43, "name": "N60_W90" }, "geometry": { "type": "Polygon", "coordinates": [ [ [ -90.00791565002082, 60.0029 ], [ -80.008748983354153, 60.0029 ], [ -80.008748983354153, 50.003733333333329 ], [ -90.00791565002082, 50.003733333333329 ], [ -90.00791565002082, 60.0029 ] ] ] } },
{ "type": "Feature", "properties": { "id": 44, "name": "N50_W90" }, "geometry": { "type": "Polygon", "coordinates": [ [ [ -90.00791565002082, 50.003733333333329 ], [ -80.008748983354153, 50.003733333333329 ], [ -80.008748983354153, 40.004566666666662 ], [ -90.00791565002082, 40.004566666666662 ], [ -90.00791565002082, 50.003733333333329 ] ] ] } },
{ "type": "Feature", "properties": { "id": 45, "name": "N40_W90" }, "geometry": { "type": "Polygon", "coordinates": [ [ [ -90.00791565002082, 40.004566666666662 ], [ -80.008748983354153, 40.004566666666662 ], [ -80.008748983354153, 30.0054 ], [ -90.00791565002082, 30.0054 ], [ -90.00791565002082, 40.004566666666662 ] ] ] } },
{ "type": "Feature", "properties": { "id": 46, "name": "N30_W90" }, "geometry": { "type": "Polygon", "coordinates": [ [ [ -90.00791565002082, 30.0054 ], [ -80.008748983354153, 30.0054 ], [ -80.008748983354153, 20.006233333333327 ], [ -90.00791565002082, 20.006233333333327 ], [ -90.00791565002082, 30.0054 ] ] ] } },
{ "type": "Feature", "properties": { "id": 47, "name": "N20_W90" }, "geometry": { "type": "Polygon", "coordinates": [ [ [ -90.00791565002082, 20.006233333333327 ], [ -80.008748983354153, 20.006233333333327 ], [ -80.008748983354153, 10.00706666666666 ], [ -90.00791565002082, 10.00706666666666 ], [ -90.00791565002082, 20.006233333333327 ] ] ] } },
{ "type": "Feature", "properties": { "id": 48, "name": "N10_W90" }, "geometry": { "type": "Polygon", "coordinates": [ [ [ -90.00791565002082, 10.00706666666666 ], [ -80.008748983354153, 10.00706666666666 ], [ -80.008748983354153, 0.0079 ], [ -90.00791565002082, 0.0079 ], [ -90.00791565002082, 10.00706666666666 ] ] ] } },
{ "type": "Feature", "properties": { "id": 49, "name": "N0_W90" }, "geometry": { "type": "Polygon", "coordinates": [ [ [ -90.00791565002082, 0.0079 ], [ -80.008748983354153, 0.0079 ], [ -80.008748983354153, -9.991266666666675 ], [ -90.00791565002082, -9.991266666666675 ], [ -90.00791565002082, 0.0079 ] ] ] } },
{ "type": "Feature", "properties": { "id": 50, "name": "N90_W80" }, "geometry": { "type": "Polygon", "coordinates": [ [ [ -80.008748955578696, 90.0004 ], [ -70.009582288912029, 90.0004 ], [ -70.009582288912029, 80.001233333333332 ], [ -80.008748955578696, 80.001233333333332 ], [ -80.008748955578696, 90.0004 ] ] ] } },
{ "type": "Feature", "properties": { "id": 51, "name": "N80_W80" }, "geometry": { "type": "Polygon", "coordinates": [ [ [ -80.008748955578696, 80.001233333333332 ], [ -70.009582288912029, 80.001233333333332 ], [ -70.009582288912029, 70.002066666666664 ], [ -80.008748955578696, 70.002066666666664 ], [ -80.008748955578696, 80.001233333333332 ] ] ] } },
{ "type": "Feature", "properties": { "id": 52, "name": "N70_W80" }, "geometry": { "type": "Polygon", "coordinates": [ [ [ -80.008748955578696, 70.002066666666664 ], [ -70.009582288912029, 70.002066666666664 ], [ -70.009582288912029, 60.0029 ], [ -80.008748955578696, 60.0029 ], [ -80.008748955578696, 70.002066666666664 ] ] ] } },
{ "type": "Feature", "properties": { "id": 53, "name": "N60_W80" }, "geometry": { "type": "Polygon", "coordinates": [ [ [ -80.008748955578696, 60.0029 ], [ -70.009582288912029, 60.0029 ], [ -70.009582288912029, 50.003733333333329 ], [ -80.008748955578696, 50.003733333333329 ], [ -80.008748955578696, 60.0029 ] ] ] } },
{ "type": "Feature", "properties": { "id": 54, "name": "N50_W80" }, "geometry": { "type": "Polygon", "coordinates": [ [ [ -80.008748955578696, 50.003733333333329 ], [ -70.009582288912029, 50.003733333333329 ], [ -70.009582288912029, 40.004566666666662 ], [ -80.008748955578696, 40.004566666666662 ], [ -80.008748955578696, 50.003733333333329 ] ] ] } },
{ "type": "Feature", "properties": { "id": 55, "name": "N40_W80" }, "geometry": { "type": "Polygon", "coordinates": [ [ [ -80.008748955578696, 40.004566666666662 ], [ -70.009582288912029, 40.004566666666662 ], [ -70.009582288912029, 30.0054 ], [ -80.008748955578696, 30.0054 ], [ -80.008748955578696, 40.004566666666662 ] ] ] } },
{ "type": "Feature", "properties": { "id": 56, "name": "N30_W80" }, "geometry": { "type": "Polygon", "coordinates": [ [ [ -80.008748955578696, 30.0054 ], [ -70.009582288912029, 30.0054 ], [ -70.009582288912029, 20.006233333333327 ], [ -80.008748955578696, 20.006233333333327 ], [ -80.008748955578696, 30.0054 ] ] ] } },
{ "type": "Feature", "properties": { "id": 57, "name": "N20_W80" }, "geometry": { "type": "Polygon", "coordinates": [ [ [ -80.008748955578696, 20.006233333333327 ], [ -70.009582288912029, 20.006233333333327 ], [ -70.009582288912029, 10.00706666666666 ], [ -80.008748955578696, 10.00706666666666 ], [ -80.008748955578696, 20.006233333333327 ] ] ] } },
{ "type": "Feature", "properties": { "id": 58, "name": "N10_W80" }, "geometry": { "type": "Polygon", "coordinates": [ [ [ -80.008748955578696, 10.00706666666666 ], [ -70.009582288912029, 10.00706666666666 ], [ -70.009582288912029, 0.0079 ], [ -80.008748955578696, 0.0079 ], [ -80.008748955578696, 10.00706666666666 ] ] ] } },
{ "type": "Feature", "properties": { "id": 59, "name": "N0_W80" }, "geometry": { "type": "Polygon", "coordinates": [ [ [ -80.008748955578696, 0.0079 ], [ -70.009582288912029, 0.0079 ], [ -70.009582288912029, -9.991266666666675 ], [ -80.008748955578696, -9.991266666666675 ], [ -80.008748955578696, 0.0079 ] ] ] } },
{ "type": "Feature", "properties": { "id": 60, "name": "S10_W80" }, "geometry": { "type": "Polygon", "coordinates": [ [ [ -80.008748955578696, -9.991266666666675 ], [ -70.009582288912029, -9.991266666666675 ], [ -70.009582288912029, -19.990433333333343 ], [ -80.008748955578696, -19.990433333333343 ], [ -80.008748955578696, -9.991266666666675 ] ] ] } },
{ "type": "Feature", "properties": { "id": 61, "name": "S20_W80" }, "geometry": { "type": "Polygon", "coordinates": [ [ [ -80.008748955578696, -19.990433333333343 ], [ -70.009582288912029, -19.990433333333343 ], [ -70.009582288912029, -29.9896 ], [ -80.008748955578696, -29.9896 ], [ -80.008748955578696, -19.990433333333343 ] ] ] } },
{ "type": "Feature", "properties": { "id": 62, "name": "S30_W80" }, "geometry": { "type": "Polygon", "coordinates": [ [ [ -80.008748955578696, -29.9896 ], [ -70.009582288912029, -29.9896 ], [ -70.009582288912029, -39.988766666666677 ], [ -80.008748955578696, -39.988766666666677 ], [ -80.008748955578696, -29.9896 ] ] ] } },
{ "type": "Feature", "properties": { "id": 63, "name": "S40_W80" }, "geometry": { "type": "Polygon", "coordinates": [ [ [ -80.008748955578696, -39.988766666666677 ], [ -70.009582288912029, -39.988766666666677 ], [ -70.009582288912029, -49.987933333333345 ], [ -80.008748955578696, -49.987933333333345 ], [ -80.008748955578696, -39.988766666666677 ] ] ] } },
{ "type": "Feature", "properties": { "id": 64, "name": "S50_W80" }, "geometry": { "type": "Polygon", "coordinates": [ [ [ -80.008748955578696, -49.987933333333345 ], [ -70.009582288912029, -49.987933333333345 ], [ -70.009582288912029, -59.9871 ], [ -80.008748955578696, -59.9871 ], [ -80.008748955578696, -49.987933333333345 ] ] ] } },
{ "type": "Feature", "properties": { "id": 65, "name": "N90_W70" }, "geometry": { "type": "Polygon", "coordinates": [ [ [ -70.009582261136558, 90.0004 ], [ -60.01041559446989, 90.0004 ], [ -60.01041559446989, 80.001233333333332 ], [ -70.009582261136558, 80.001233333333332 ], [ -70.009582261136558, 90.0004 ] ] ] } },
{ "type": "Feature", "properties": { "id": 66, "name": "N80_W70" }, "geometry": { "type": "Polygon", "coordinates": [ [ [ -70.009582261136558, 80.001233333333332 ], [ -60.01041559446989, 80.001233333333332 ], [ -60.01041559446989, 70.002066666666664 ], [ -70.009582261136558, 70.002066666666664 ], [ -70.009582261136558, 80.001233333333332 ] ] ] } },
{ "type": "Feature", "properties": { "id": 67, "name": "N70_W70" }, "geometry": { "type": "Polygon", "coordinates": [ [ [ -70.009582261136558, 70.002066666666664 ], [ -60.01041559446989, 70.002066666666664 ], [ -60.01041559446989, 60.0029 ], [ -70.009582261136558, 60.0029 ], [ -70.009582261136558, 70.002066666666664 ] ] ] } },
{ "type": "Feature", "properties": { "id": 68, "name": "N60_W70" }, "geometry": { "type": "Polygon", "coordinates": [ [ [ -70.009582261136558, 60.0029 ], [ -60.01041559446989, 60.0029 ], [ -60.01041559446989, 50.003733333333329 ], [ -70.009582261136558, 50.003733333333329 ], [ -70.009582261136558, 60.0029 ] ] ] } },
{ "type": "Feature", "properties": { "id": 69, "name": "N50_W70" }, "geometry": { "type": "Polygon", "coordinates": [ [ [ -70.009582261136558, 50.003733333333329 ], [ -60.01041559446989, 50.003733333333329 ], [ -60.01041559446989, 40.004566666666662 ], [ -70.009582261136558, 40.004566666666662 ], [ -70.009582261136558, 50.003733333333329 ] ] ] } },
{ "type": "Feature", "properties": { "id": 70, "name": "N20_W70" }, "geometry": { "type": "Polygon", "coordinates": [ [ [ -70.009582261136558, 20.006233333333327 ], [ -60.01041559446989, 20.006233333333327 ], [ -60.01041559446989, 10.00706666666666 ], [ -70.009582261136558, 10.00706666666666 ], [ -70.009582261136558, 20.006233333333327 ] ] ] } },
{ "type": "Feature", "properties": { "id": 71, "name": "N10_W70" }, "geometry": { "type": "Polygon", "coordinates": [ [ [ -70.009582261136558, 10.00706666666666 ], [ -60.01041559446989, 10.00706666666666 ], [ -60.01041559446989, 0.0079 ], [ -70.009582261136558, 0.0079 ], [ -70.009582261136558, 10.00706666666666 ] ] ] } },
{ "type": "Feature", "properties": { "id": 72, "name": "N0_W70" }, "geometry": { "type": "Polygon", "coordinates": [ [ [ -70.009582261136558, 0.0079 ], [ -60.01041559446989, 0.0079 ], [ -60.01041559446989, -9.991266666666675 ], [ -70.009582261136558, -9.991266666666675 ], [ -70.009582261136558, 0.0079 ] ] ] } },
{ "type": "Feature", "properties": { "id": 73, "name": "S10_W70" }, "geometry": { "type": "Polygon", "coordinates": [ [ [ -70.009582261136558, -9.991266666666675 ], [ -60.01041559446989, -9.991266666666675 ], [ -60.01041559446989, -19.990433333333343 ], [ -70.009582261136558, -19.990433333333343 ], [ -70.009582261136558, -9.991266666666675 ] ] ] } },
{ "type": "Feature", "properties": { "id": 74, "name": "S20_W70" }, "geometry": { "type": "Polygon", "coordinates": [ [ [ -70.009582261136558, -19.990433333333343 ], [ -60.01041559446989, -19.990433333333343 ], [ -60.01041559446989, -29.9896 ], [ -70.009582261136558, -29.9896 ], [ -70.009582261136558, -19.990433333333343 ] ] ] } },
{ "type": "Feature", "properties": { "id": 75, "name": "S30_W70" }, "geometry": { "type": "Polygon", "coordinates": [ [ [ -70.009582261136558, -29.9896 ], [ -60.01041559446989, -29.9896 ], [ -60.01041559446989, -39.988766666666677 ], [ -70.009582261136558, -39.988766666666677 ], [ -70.009582261136558, -29.9896 ] ] ] } },
{ "type": "Feature", "properties": { "id": 76, "name": "S40_W70" }, "geometry": { "type": "Polygon", "coordinates": [ [ [ -70.009582261136558, -39.988766666666677 ], [ -60.01041559446989, -39.988766666666677 ], [ -60.01041559446989, -49.987933333333345 ], [ -70.009582261136558, -49.987933333333345 ], [ -70.009582261136558, -39.988766666666677 ] ] ] } },
{ "type": "Feature", "properties": { "id": 77, "name": "S50_W70" }, "geometry": { "type": "Polygon", "coordinates": [ [ [ -70.009582261136558, -49.987933333333345 ], [ -60.01041559446989, -49.987933333333345 ], [ -60.01041559446989, -59.9871 ], [ -70.009582261136558, -59.9871 ], [ -70.009582261136558, -49.987933333333345 ] ] ] } },
{ "type": "Feature", "properties": { "id": 78, "name": "N80_W60" }, "geometry": { "type": "Polygon", "coordinates": [ [ [ -60.010415566694434, 80.001233333333332 ], [ -50.011248900027766, 80.001233333333332 ], [ -50.011248900027766, 70.002066666666664 ], [ -60.010415566694434, 70.002066666666664 ], [ -60.010415566694434, 80.001233333333332 ] ] ] } },
{ "type": "Feature", "properties": { "id": 79, "name": "N70_W60" }, "geometry": { "type": "Polygon", "coordinates": [ [ [ -60.010415566694434, 70.002066666666664 ], [ -50.011248900027766, 70.002066666666664 ], [ -50.011248900027766, 60.0029 ], [ -60.010415566694434, 60.0029 ], [ -60.010415566694434, 70.002066666666664 ] ] ] } },
{ "type": "Feature", "properties": { "id": 80, "name": "N60_W60" }, "geometry": { "type": "Polygon", "coordinates": [ [ [ -60.010415566694434, 60.0029 ], [ -50.011248900027766, 60.0029 ], [ -50.011248900027766, 50.003733333333329 ], [ -60.010415566694434, 50.003733333333329 ], [ -60.010415566694434, 60.0029 ] ] ] } },
{ "type": "Feature", "properties": { "id": 81, "name": "N50_W60" }, "geometry": { "type": "Polygon", "coordinates": [ [ [ -60.010415566694434, 50.003733333333329 ], [ -50.011248900027766, 50.003733333333329 ], [ -50.011248900027766, 40.004566666666662 ], [ -60.010415566694434, 40.004566666666662 ], [ -60.010415566694434, 50.003733333333329 ] ] ] } },
{ "type": "Feature", "properties": { "id": 82, "name": "N10_W60" }, "geometry": { "type": "Polygon", "coordinates": [ [ [ -60.010415566694434, 10.00706666666666 ], [ -50.011248900027766, 10.00706666666666 ], [ -50.011248900027766, 0.0079 ], [ -60.010415566694434, 0.0079 ], [ -60.010415566694434, 10.00706666666666 ] ] ] } },
{ "type": "Feature", "properties": { "id": 83, "name": "N0_W60" }, "geometry": { "type": "Polygon", "coordinates": [ [ [ -60.010415566694434, 0.0079 ], [ -50.011248900027766, 0.0079 ], [ -50.011248900027766, -9.991266666666675 ], [ -60.010415566694434, -9.991266666666675 ], [ -60.010415566694434, 0.0079 ] ] ] } },
{ "type": "Feature", "properties": { "id": 84, "name": "S10_W60" }, "geometry": { "type": "Polygon", "coordinates": [ [ [ -60.010415566694434, -9.991266666666675 ], [ -50.011248900027766, -9.991266666666675 ], [ -50.011248900027766, -19.990433333333343 ], [ -60.010415566694434, -19.990433333333343 ], [ -60.010415566694434, -9.991266666666675 ] ] ] } },
{ "type": "Feature", "properties": { "id": 85, "name": "S20_W60" }, "geometry": { "type": "Polygon", "coordinates": [ [ [ -60.010415566694434, -19.990433333333343 ], [ -50.011248900027766, -19.990433333333343 ], [ -50.011248900027766, -29.9896 ], [ -60.010415566694434, -29.9896 ], [ -60.010415566694434, -19.990433333333343 ] ] ] } },
{ "type": "Feature", "properties": { "id": 86, "name": "S30_W60" }, "geometry": { "type": "Polygon", "coordinates": [ [ [ -60.010415566694434, -29.9896 ], [ -50.011248900027766, -29.9896 ], [ -50.011248900027766, -39.988766666666677 ], [ -60.010415566694434, -39.988766666666677 ], [ -60.010415566694434, -29.9896 ] ] ] } },
{ "type": "Feature", "properties": { "id": 87, "name": "N80_W50" }, "geometry": { "type": "Polygon", "coordinates": [ [ [ -50.011248872252295, 80.001233333333332 ], [ -40.012082205585628, 80.001233333333332 ], [ -40.012082205585628, 70.002066666666664 ], [ -50.011248872252295, 70.002066666666664 ], [ -50.011248872252295, 80.001233333333332 ] ] ] } },
{ "type": "Feature", "properties": { "id": 88, "name": "N70_W50" }, "geometry": { "type": "Polygon", "coordinates": [ [ [ -50.011248872252295, 70.002066666666664 ], [ -40.012082205585628, 70.002066666666664 ], [ -40.012082205585628, 60.0029 ], [ -50.011248872252295, 60.0029 ], [ -50.011248872252295, 70.002066666666664 ] ] ] } },
{ "type": "Feature", "properties": { "id": 89, "name": "N60_W50" }, "geometry": { "type": "Polygon", "coordinates": [ [ [ -50.011248872252295, 60.0029 ], [ -40.012082205585628, 60.0029 ], [ -40.012082205585628, 50.003733333333329 ], [ -50.011248872252295, 50.003733333333329 ], [ -50.011248872252295, 60.0029 ] ] ] } },
{ "type": "Feature", "properties": { "id": 90, "name": "N10_W50" }, "geometry": { "type": "Polygon", "coordinates": [ [ [ -50.011248872252295, 10.00706666666666 ], [ -40.012082205585628, 10.00706666666666 ], [ -40.012082205585628, 0.0079 ], [ -50.011248872252295, 0.0079 ], [ -50.011248872252295, 10.00706666666666 ] ] ] } },
{ "type": "Feature", "properties": { "id": 91, "name": "N0_W50" }, "geometry": { "type": "Polygon", "coordinates": [ [ [ -50.011248872252295, 0.0079 ], [ -40.012082205585628, 0.0079 ], [ -40.012082205585628, -9.991266666666675 ], [ -50.011248872252295, -9.991266666666675 ], [ -50.011248872252295, 0.0079 ] ] ] } },
{ "type": "Feature", "properties": { "id": 92, "name": "S10_W50" }, "geometry": { "type": "Polygon", "coordinates": [ [ [ -50.011248872252295, -9.991266666666675 ], [ -40.012082205585628, -9.991266666666675 ], [ -40.012082205585628, -19.990433333333343 ], [ -50.011248872252295, -19.990433333333343 ], [ -50.011248872252295, -9.991266666666675 ] ] ] } },
{ "type": "Feature", "properties": { "id": 93, "name": "S20_W50" }, "geometry": { "type": "Polygon", "coordinates": [ [ [ -50.011248872252295, -19.990433333333343 ], [ -40.012082205585628, -19.990433333333343 ], [ -40.012082205585628, -29.9896 ], [ -50.011248872252295, -29.9896 ], [ -50.011248872252295, -19.990433333333343 ] ] ] } },
{ "type": "Feature", "properties": { "id": 94, "name": "N80_W40" }, "geometry": { "type": "Polygon", "coordinates": [ [ [ -40.012082177810171, 80.001233333333332 ], [ -30.012915511143504, 80.001233333333332 ], [ -30.012915511143504, 70.002066666666664 ], [ -40.012082177810171, 70.002066666666664 ], [ -40.012082177810171, 80.001233333333332 ] ] ] } },
{ "type": "Feature", "properties": { "id": 95, "name": "N70_W40" }, "geometry": { "type": "Polygon", "coordinates": [ [ [ -40.012082177810171, 70.002066666666664 ], [ -30.012915511143504, 70.002066666666664 ], [ -30.012915511143504, 60.0029 ], [ -40.012082177810171, 60.0029 ], [ -40.012082177810171, 70.002066666666664 ] ] ] } },
{ "type": "Feature", "properties": { "id": 96, "name": "N0_W40" }, "geometry": { "type": "Polygon", "coordinates": [ [ [ -40.012082177810171, 0.0079 ], [ -30.012915511143504, 0.0079 ], [ -30.012915511143504, -9.991266666666675 ], [ -40.012082177810171, -9.991266666666675 ], [ -40.012082177810171, 0.0079 ] ] ] } },
{ "type": "Feature", "properties": { "id": 97, "name": "S10_W40" }, "geometry": { "type": "Polygon", "coordinates": [ [ [ -40.012082177810171, -9.991266666666675 ], [ -30.012915511143504, -9.991266666666675 ], [ -30.012915511143504, -19.990433333333343 ], [ -40.012082177810171, -19.990433333333343 ], [ -40.012082177810171, -9.991266666666675 ] ] ] } },
{ "type": "Feature", "properties": { "id": 98, "name": "N80_W30" }, "geometry": { "type": "Polygon", "coordinates": [ [ [ -30.012915483368047, 80.001233333333332 ], [ -20.01374881670138, 80.001233333333332 ], [ -20.01374881670138, 70.002066666666664 ], [ -30.012915483368047, 70.002066666666664 ], [ -30.012915483368047, 80.001233333333332 ] ] ] } },
{ "type": "Feature", "properties": { "id": 99, "name": "N70_W30" }, "geometry": { "type": "Polygon", "coordinates": [ [ [ -30.012915483368047, 70.002066666666664 ], [ -20.01374881670138, 70.002066666666664 ], [ -20.01374881670138, 60.0029 ], [ -30.012915483368047, 60.0029 ], [ -30.012915483368047, 70.002066666666664 ] ] ] } },
{ "type": "Feature", "properties": { "id": 100, "name": "N80_W20" }, "geometry": { "type": "Polygon", "coordinates": [ [ [ -20.013748788925923, 80.001233333333332 ], [ -10.014582122259256, 80.001233333333332 ], [ -10.014582122259256, 70.002066666666664 ], [ -20.013748788925923, 70.002066666666664 ], [ -20.013748788925923, 80.001233333333332 ] ] ] } },
{ "type": "Feature", "properties": { "id": 101, "name": "N70_W20" }, "geometry": { "type": "Polygon", "coordinates": [ [ [ -20.013748788925923, 70.002066666666664 ], [ -10.014582122259256, 70.002066666666664 ], [ -10.014582122259256, 60.0029 ], [ -20.013748788925923, 60.0029 ], [ -20.013748788925923, 70.002066666666664 ] ] ] } },
{ "type": "Feature", "properties": { "id": 102, "name": "N60_W20" }, "geometry": { "type": "Polygon", "coordinates": [ [ [ -20.013748788925923, 60.0029 ], [ -10.014582122259256, 60.0029 ], [ -10.014582122259256, 50.003733333333329 ], [ -20.013748788925923, 50.003733333333329 ], [ -20.013748788925923, 60.0029 ] ] ] } },
{ "type": "Feature", "properties": { "id": 103, "name": "N30_W20" }, "geometry": { "type": "Polygon", "coordinates": [ [ [ -20.013748788925923, 30.0054 ], [ -10.014582122259256, 30.0054 ], [ -10.014582122259256, 20.006233333333327 ], [ -20.013748788925923, 20.006233333333327 ], [ -20.013748788925923, 30.0054 ] ] ] } },
{ "type": "Feature", "properties": { "id": 104, "name": "N20_W20" }, "geometry": { "type": "Polygon", "coordinates": [ [ [ -20.013748788925923, 20.006233333333327 ], [ -10.014582122259256, 20.006233333333327 ], [ -10.014582122259256, 10.00706666666666 ], [ -20.013748788925923, 10.00706666666666 ], [ -20.013748788925923, 20.006233333333327 ] ] ] } },
{ "type": "Feature", "properties": { "id": 105, "name": "N10_W20" }, "geometry": { "type": "Polygon", "coordinates": [ [ [ -20.013748788925923, 10.00706666666666 ], [ -10.014582122259256, 10.00706666666666 ], [ -10.014582122259256, 0.0079 ], [ -20.013748788925923, 0.0079 ], [ -20.013748788925923, 10.00706666666666 ] ] ] } },
{ "type": "Feature", "properties": { "id": 106, "name": "N60_W10" }, "geometry": { "type": "Polygon", "coordinates": [ [ [ -10.014582094483771, 60.0029 ], [ -0.015415427817103, 60.0029 ], [ -0.015415427817103, 50.003733333333329 ], [ -10.014582094483771, 50.003733333333329 ], [ -10.014582094483771, 60.0029 ] ] ] } },
{ "type": "Feature", "properties": { "id": 107, "name": "N50_W10" }, "geometry": { "type": "Polygon", "coordinates": [ [ [ -10.014582094483771, 50.003733333333329 ], [ -0.015415427817103, 50.003733333333329 ], [ -0.015415427817103, 40.004566666666662 ], [ -10.014582094483771, 40.004566666666662 ], [ -10.014582094483771, 50.003733333333329 ] ] ] } },
{ "type": "Feature", "properties": { "id": 108, "name": "N40_W10" }, "geometry": { "type": "Polygon", "coordinates": [ [ [ -10.014582094483771, 40.004566666666662 ], [ -0.015415427817103, 40.004566666666662 ], [ -0.015415427817103, 30.0054 ], [ -10.014582094483771, 30.0054 ], [ -10.014582094483771, 40.004566666666662 ] ] ] } },
{ "type": "Feature", "properties": { "id": 109, "name": "N30_W10" }, "geometry": { "type": "Polygon", "coordinates": [ [ [ -10.014582094483771, 30.0054 ], [ -0.015415427817103, 30.0054 ], [ -0.015415427817103, 20.006233333333327 ], [ -10.014582094483771, 20.006233333333327 ], [ -10.014582094483771, 30.0054 ] ] ] } },
{ "type": "Feature", "properties": { "id": 110, "name": "N20_W10" }, "geometry": { "type": "Polygon", "coordinates": [ [ [ -10.014582094483771, 20.006233333333327 ], [ -0.015415427817103, 20.006233333333327 ], [ -0.015415427817103, 10.00706666666666 ], [ -10.014582094483771, 10.00706666666666 ], [ -10.014582094483771, 20.006233333333327 ] ] ] } },
{ "type": "Feature", "properties": { "id": 111, "name": "N10_W10" }, "geometry": { "type": "Polygon", "coordinates": [ [ [ -10.014582094483771, 10.00706666666666 ], [ -0.015415427817103, 10.00706666666666 ], [ -0.015415427817103, 0.0079 ], [ -10.014582094483771, 0.0079 ], [ -10.014582094483771, 10.00706666666666 ] ] ] } },
{ "type": "Feature", "properties": { "id": 112, "name": "N70_W0" }, "geometry": { "type": "Polygon", "coordinates": [ [ [ -0.015415400041647, 70.002066666666664 ], [ 9.983751266625021, 70.002066666666664 ], [ 9.983751266625021, 60.0029 ], [ -0.015415400041647, 60.0029 ], [ -0.015415400041647, 70.002066666666664 ] ] ] } },
{ "type": "Feature", "properties": { "id": 113, "name": "N60_W0" }, "geometry": { "type": "Polygon", "coordinates": [ [ [ -0.015415400041647, 60.0029 ], [ 9.983751266625021, 60.0029 ], [ 9.983751266625021, 50.003733333333329 ], [ -0.015415400041647, 50.003733333333329 ], [ -0.015415400041647, 60.0029 ] ] ] } },
{ "type": "Feature", "properties": { "id": 114, "name": "N50_W0" }, "geometry": { "type": "Polygon", "coordinates": [ [ [ -0.015415400041647, 50.003733333333329 ], [ 9.983751266625021, 50.003733333333329 ], [ 9.983751266625021, 40.004566666666662 ], [ -0.015415400041647, 40.004566666666662 ], [ -0.015415400041647, 50.003733333333329 ] ] ] } },
{ "type": "Feature", "properties": { "id": 115, "name": "N40_W0" }, "geometry": { "type": "Polygon", "coordinates": [ [ [ -0.015415400041647, 40.004566666666662 ], [ 9.983751266625021, 40.004566666666662 ], [ 9.983751266625021, 30.0054 ], [ -0.015415400041647, 30.0054 ], [ -0.015415400041647, 40.004566666666662 ] ] ] } },
{ "type": "Feature", "properties": { "id": 116, "name": "N30_W0" }, "geometry": { "type": "Polygon", "coordinates": [ [ [ -0.015415400041647, 30.0054 ], [ 9.983751266625021, 30.0054 ], [ 9.983751266625021, 20.006233333333327 ], [ -0.015415400041647, 20.006233333333327 ], [ -0.015415400041647, 30.0054 ] ] ] } },
{ "type": "Feature", "properties": { "id": 117, "name": "N20_W0" }, "geometry": { "type": "Polygon", "coordinates": [ [ [ -0.015415400041647, 20.006233333333327 ], [ 9.983751266625021, 20.006233333333327 ], [ 9.983751266625021, 10.00706666666666 ], [ -0.015415400041647, 10.00706666666666 ], [ -0.015415400041647, 20.006233333333327 ] ] ] } },
{ "type": "Feature", "properties": { "id": 118, "name": "N10_W0" }, "geometry": { "type": "Polygon", "coordinates": [ [ [ -0.015415400041647, 10.00706666666666 ], [ 9.983751266625021, 10.00706666666666 ], [ 9.983751266625021, 0.0079 ], [ -0.015415400041647, 0.0079 ], [ -0.015415400041647, 10.00706666666666 ] ] ] } },
{ "type": "Feature", "properties": { "id": 119, "name": "N0_W0" }, "geometry": { "type": "Polygon", "coordinates": [ [ [ -0.015415400041647, 0.0079 ], [ 9.983751266625021, 0.0079 ], [ 9.983751266625021, -9.991266666666675 ], [ -0.015415400041647, -9.991266666666675 ], [ -0.015415400041647, 0.0079 ] ] ] } },
{ "type": "Feature", "properties": { "id": 120, "name": "N70_E10" }, "geometry": { "type": "Polygon", "coordinates": [ [ [ 9.983751294400477, 70.002066666666664 ], [ 19.982917961067145, 70.002066666666664 ], [ 19.982917961067145, 60.0029 ], [ 9.983751294400477, 60.0029 ], [ 9.983751294400477, 70.002066666666664 ] ] ] } },
{ "type": "Feature", "properties": { "id": 121, "name": "N60_E10" }, "geometry": { "type": "Polygon", "coordinates": [ [ [ 9.983751294400477, 60.0029 ], [ 19.982917961067145, 60.0029 ], [ 19.982917961067145, 50.003733333333329 ], [ 9.983751294400477, 50.003733333333329 ], [ 9.983751294400477, 60.0029 ] ] ] } },
{ "type": "Feature", "properties": { "id": 122, "name": "N50_E10" }, "geometry": { "type": "Polygon", "coordinates": [ [ [ 9.983751294400477, 50.003733333333329 ], [ 19.982917961067145, 50.003733333333329 ], [ 19.982917961067145, 40.004566666666662 ], [ 9.983751294400477, 40.004566666666662 ], [ 9.983751294400477, 50.003733333333329 ] ] ] } },
{ "type": "Feature", "properties": { "id": 123, "name": "N40_E10" }, "geometry": { "type": "Polygon", "coordinates": [ [ [ 9.983751294400477, 40.004566666666662 ], [ 19.982917961067145, 40.004566666666662 ], [ 19.982917961067145, 30.0054 ], [ 9.983751294400477, 30.0054 ], [ 9.983751294400477, 40.004566666666662 ] ] ] } },
{ "type": "Feature", "properties": { "id": 124, "name": "N30_E10" }, "geometry": { "type": "Polygon", "coordinates": [ [ [ 9.983751294400477, 30.0054 ], [ 19.982917961067145, 30.0054 ], [ 19.982917961067145, 20.006233333333327 ], [ 9.983751294400477, 20.006233333333327 ], [ 9.983751294400477, 30.0054 ] ] ] } },
{ "type": "Feature", "properties": { "id": 125, "name": "N20_E10" }, "geometry": { "type": "Polygon", "coordinates": [ [ [ 9.983751294400477, 20.006233333333327 ], [ 19.982917961067145, 20.006233333333327 ], [ 19.982917961067145, 10.00706666666666 ], [ 9.983751294400477, 10.00706666666666 ], [ 9.983751294400477, 20.006233333333327 ] ] ] } },
{ "type": "Feature", "properties": { "id": 126, "name": "N10_E10" }, "geometry": { "type": "Polygon", "coordinates": [ [ [ 9.983751294400477, 10.00706666666666 ], [ 19.982917961067145, 10.00706666666666 ], [ 19.982917961067145, 0.0079 ], [ 9.983751294400477, 0.0079 ], [ 9.983751294400477, 10.00706666666666 ] ] ] } },
{ "type": "Feature", "properties": { "id": 127, "name": "N0_E10" }, "geometry": { "type": "Polygon", "coordinates": [ [ [ 9.983751294400477, 0.0079 ], [ 19.982917961067145, 0.0079 ], [ 19.982917961067145, -9.991266666666675 ], [ 9.983751294400477, -9.991266666666675 ], [ 9.983751294400477, 0.0079 ] ] ] } },
{ "type": "Feature", "properties": { "id": 128, "name": "S10_E10" }, "geometry": { "type": "Polygon", "coordinates": [ [ [ 9.983751294400477, -9.991266666666675 ], [ 19.982917961067145, -9.991266666666675 ], [ 19.982917961067145, -19.990433333333343 ], [ 9.983751294400477, -19.990433333333343 ], [ 9.983751294400477, -9.991266666666675 ] ] ] } },
{ "type": "Feature", "properties": { "id": 129, "name": "S20_E10" }, "geometry": { "type": "Polygon", "coordinates": [ [ [ 9.983751294400477, -19.990433333333343 ], [ 19.982917961067145, -19.990433333333343 ], [ 19.982917961067145, -29.9896 ], [ 9.983751294400477, -29.9896 ], [ 9.983751294400477, -19.990433333333343 ] ] ] } },
{ "type": "Feature", "properties": { "id": 130, "name": "S30_E10" }, "geometry": { "type": "Polygon", "coordinates": [ [ [ 9.983751294400477, -29.9896 ], [ 19.982917961067145, -29.9896 ], [ 19.982917961067145, -39.988766666666677 ], [ 9.983751294400477, -39.988766666666677 ], [ 9.983751294400477, -29.9896 ] ] ] } },
{ "type": "Feature", "properties": { "id": 131, "name": "N80_E20" }, "geometry": { "type": "Polygon", "coordinates": [ [ [ 19.982917988842601, 80.001233333333332 ], [ 29.982084655509269, 80.001233333333332 ], [ 29.982084655509269, 70.002066666666664 ], [ 19.982917988842601, 70.002066666666664 ], [ 19.982917988842601, 80.001233333333332 ] ] ] } },
{ "type": "Feature", "properties": { "id": 132, "name": "N70_E20" }, "geometry": { "type": "Polygon", "coordinates": [ [ [ 19.982917988842601, 70.002066666666664 ], [ 29.982084655509269, 70.002066666666664 ], [ 29.982084655509269, 60.0029 ], [ 19.982917988842601, 60.0029 ], [ 19.982917988842601, 70.002066666666664 ] ] ] } },
{ "type": "Feature", "properties": { "id": 133, "name": "N60_E20" }, "geometry": { "type": "Polygon", "coordinates": [ [ [ 19.982917988842601, 60.0029 ], [ 29.982084655509269, 60.0029 ], [ 29.982084655509269, 50.003733333333329 ], [ 19.982917988842601, 50.003733333333329 ], [ 19.982917988842601, 60.0029 ] ] ] } },
{ "type": "Feature", "properties": { "id": 134, "name": "N50_E20" }, "geometry": { "type": "Polygon", "coordinates": [ [ [ 19.982917988842601, 50.003733333333329 ], [ 29.982084655509269, 50.003733333333329 ], [ 29.982084655509269, 40.004566666666662 ], [ 19.982917988842601, 40.004566666666662 ], [ 19.982917988842601, 50.003733333333329 ] ] ] } },
{ "type": "Feature", "properties": { "id": 135, "name": "N40_E20" }, "geometry": { "type": "Polygon", "coordinates": [ [ [ 19.982917988842601, 40.004566666666662 ], [ 29.982084655509269, 40.004566666666662 ], [ 29.982084655509269, 30.0054 ], [ 19.982917988842601, 30.0054 ], [ 19.982917988842601, 40.004566666666662 ] ] ] } },
{ "type": "Feature", "properties": { "id": 136, "name": "N30_E20" }, "geometry": { "type": "Polygon", "coordinates": [ [ [ 19.982917988842601, 30.0054 ], [ 29.982084655509269, 30.0054 ], [ 29.982084655509269, 20.006233333333327 ], [ 19.982917988842601, 20.006233333333327 ], [ 19.982917988842601, 30.0054 ] ] ] } },
{ "type": "Feature", "properties": { "id": 137, "name": "N20_E20" }, "geometry": { "type": "Polygon", "coordinates": [ [ [ 19.982917988842601, 20.006233333333327 ], [ 29.982084655509269, 20.006233333333327 ], [ 29.982084655509269, 10.00706666666666 ], [ 19.982917988842601, 10.00706666666666 ], [ 19.982917988842601, 20.006233333333327 ] ] ] } },
{ "type": "Feature", "properties": { "id": 138, "name": "N10_E20" }, "geometry": { "type": "Polygon", "coordinates": [ [ [ 19.982917988842601, 10.00706666666666 ], [ 29.982084655509269, 10.00706666666666 ], [ 29.982084655509269, 0.0079 ], [ 19.982917988842601, 0.0079 ], [ 19.982917988842601, 10.00706666666666 ] ] ] } },
{ "type": "Feature", "properties": { "id": 139, "name": "N0_E20" }, "geometry": { "type": "Polygon", "coordinates": [ [ [ 19.982917988842601, 0.0079 ], [ 29.982084655509269, 0.0079 ], [ 29.982084655509269, -9.991266666666675 ], [ 19.982917988842601, -9.991266666666675 ], [ 19.982917988842601, 0.0079 ] ] ] } },
{ "type": "Feature", "properties": { "id": 140, "name": "S10_E20" }, "geometry": { "type": "Polygon", "coordinates": [ [ [ 19.982917988842601, -9.991266666666675 ], [ 29.982084655509269, -9.991266666666675 ], [ 29.982084655509269, -19.990433333333343 ], [ 19.982917988842601, -19.990433333333343 ], [ 19.982917988842601, -9.991266666666675 ] ] ] } },
{ "type": "Feature", "properties": { "id": 141, "name": "S20_E20" }, "geometry": { "type": "Polygon", "coordinates": [ [ [ 19.982917988842601, -19.990433333333343 ], [ 29.982084655509269, -19.990433333333343 ], [ 29.982084655509269, -29.9896 ], [ 19.982917988842601, -29.9896 ], [ 19.982917988842601, -19.990433333333343 ] ] ] } },
{ "type": "Feature", "properties": { "id": 142, "name": "S30_E20" }, "geometry": { "type": "Polygon", "coordinates": [ [ [ 19.982917988842601, -29.9896 ], [ 29.982084655509269, -29.9896 ], [ 29.982084655509269, -39.988766666666677 ], [ 19.982917988842601, -39.988766666666677 ], [ 19.982917988842601, -29.9896 ] ] ] } },
{ "type": "Feature", "properties": { "id": 143, "name": "N80_E30" }, "geometry": { "type": "Polygon", "coordinates": [ [ [ 29.982084683284725, 80.001233333333332 ], [ 39.981251349951393, 80.001233333333332 ], [ 39.981251349951393, 70.002066666666664 ], [ 29.982084683284725, 70.002066666666664 ], [ 29.982084683284725, 80.001233333333332 ] ] ] } },
{ "type": "Feature", "properties": { "id": 144, "name": "N70_E30" }, "geometry": { "type": "Polygon", "coordinates": [ [ [ 29.982084683284725, 70.002066666666664 ], [ 39.981251349951393, 70.002066666666664 ], [ 39.981251349951393, 60.0029 ], [ 29.982084683284725, 60.0029 ], [ 29.982084683284725, 70.002066666666664 ] ] ] } },
{ "type": "Feature", "properties": { "id": 145, "name": "N60_E30" }, "geometry": { "type": "Polygon", "coordinates": [ [ [ 29.982084683284725, 60.0029 ], [ 39.981251349951393, 60.0029 ], [ 39.981251349951393, 50.003733333333329 ], [ 29.982084683284725, 50.003733333333329 ], [ 29.982084683284725, 60.0029 ] ] ] } },
{ "type": "Feature", "properties": { "id": 146, "name": "N50_E30" }, "geometry": { "type": "Polygon", "coordinates": [ [ [ 29.982084683284725, 50.003733333333329 ], [ 39.981251349951393, 50.003733333333329 ], [ 39.981251349951393, 40.004566666666662 ], [ 29.982084683284725, 40.004566666666662 ], [ 29.982084683284725, 50.003733333333329 ] ] ] } },
{ "type": "Feature", "properties": { "id": 147, "name": "N40_E30" }, "geometry": { "type": "Polygon", "coordinates": [ [ [ 29.982084683284725, 40.004566666666662 ], [ 39.981251349951393, 40.004566666666662 ], [ 39.981251349951393, 30.0054 ], [ 29.982084683284725, 30.0054 ], [ 29.982084683284725, 40.004566666666662 ] ] ] } },
{ "type": "Feature", "properties": { "id": 148, "name": "N30_E30" }, "geometry": { "type": "Polygon", "coordinates": [ [ [ 29.982084683284725, 30.0054 ], [ 39.981251349951393, 30.0054 ], [ 39.981251349951393, 20.006233333333327 ], [ 29.982084683284725, 20.006233333333327 ], [ 29.982084683284725, 30.0054 ] ] ] } },
{ "type": "Feature", "properties": { "id": 149, "name": "N20_E30" }, "geometry": { "type": "Polygon", "coordinates": [ [ [ 29.982084683284725, 20.006233333333327 ], [ 39.981251349951393, 20.006233333333327 ], [ 39.981251349951393, 10.00706666666666 ], [ 29.982084683284725, 10.00706666666666 ], [ 29.982084683284725, 20.006233333333327 ] ] ] } },
{ "type": "Feature", "properties": { "id": 150, "name": "N10_E30" }, "geometry": { "type": "Polygon", "coordinates": [ [ [ 29.982084683284725, 10.00706666666666 ], [ 39.981251349951393, 10.00706666666666 ], [ 39.981251349951393, 0.0079 ], [ 29.982084683284725, 0.0079 ], [ 29.982084683284725, 10.00706666666666 ] ] ] } },
{ "type": "Feature", "properties": { "id": 151, "name": "N0_E30" }, "geometry": { "type": "Polygon", "coordinates": [ [ [ 29.982084683284725, 0.0079 ], [ 39.981251349951393, 0.0079 ], [ 39.981251349951393, -9.991266666666675 ], [ 29.982084683284725, -9.991266666666675 ], [ 29.982084683284725, 0.0079 ] ] ] } },
{ "type": "Feature", "properties": { "id": 152, "name": "S10_E30" }, "geometry": { "type": "Polygon", "coordinates": [ [ [ 29.982084683284725, -9.991266666666675 ], [ 39.981251349951393, -9.991266666666675 ], [ 39.981251349951393, -19.990433333333343 ], [ 29.982084683284725, -19.990433333333343 ], [ 29.982084683284725, -9.991266666666675 ] ] ] } },
{ "type": "Feature", "properties": { "id": 153, "name": "S20_E30" }, "geometry": { "type": "Polygon", "coordinates": [ [ [ 29.982084683284725, -19.990433333333343 ], [ 39.981251349951393, -19.990433333333343 ], [ 39.981251349951393, -29.9896 ], [ 29.982084683284725, -29.9896 ], [ 29.982084683284725, -19.990433333333343 ] ] ] } },
{ "type": "Feature", "properties": { "id": 154, "name": "S30_E30" }, "geometry": { "type": "Polygon", "coordinates": [ [ [ 29.982084683284725, -29.9896 ], [ 39.981251349951393, -29.9896 ], [ 39.981251349951393, -39.988766666666677 ], [ 29.982084683284725, -39.988766666666677 ], [ 29.982084683284725, -29.9896 ] ] ] } },
{ "type": "Feature", "properties": { "id": 155, "name": "N70_E40" }, "geometry": { "type": "Polygon", "coordinates": [ [ [ 39.981251377726878, 70.002066666666664 ], [ 49.980418044393545, 70.002066666666664 ], [ 49.980418044393545, 60.0029 ], [ 39.981251377726878, 60.0029 ], [ 39.981251377726878, 70.002066666666664 ] ] ] } },
{ "type": "Feature", "properties": { "id": 156, "name": "N60_E40" }, "geometry": { "type": "Polygon", "coordinates": [ [ [ 39.981251377726878, 60.0029 ], [ 49.980418044393545, 60.0029 ], [ 49.980418044393545, 50.003733333333329 ], [ 39.981251377726878, 50.003733333333329 ], [ 39.981251377726878, 60.0029 ] ] ] } },
{ "type": "Feature", "properties": { "id": 157, "name": "N50_E40" }, "geometry": { "type": "Polygon", "coordinates": [ [ [ 39.981251377726878, 50.003733333333329 ], [ 49.980418044393545, 50.003733333333329 ], [ 49.980418044393545, 40.004566666666662 ], [ 39.981251377726878, 40.004566666666662 ], [ 39.981251377726878, 50.003733333333329 ] ] ] } },
{ "type": "Feature", "properties": { "id": 158, "name": "N40_E40" }, "geometry": { "type": "Polygon", "coordinates": [ [ [ 39.981251377726878, 40.004566666666662 ], [ 49.980418044393545, 40.004566666666662 ], [ 49.980418044393545, 30.0054 ], [ 39.981251377726878, 30.0054 ], [ 39.981251377726878, 40.004566666666662 ] ] ] } },
{ "type": "Feature", "properties": { "id": 159, "name": "N30_E40" }, "geometry": { "type": "Polygon", "coordinates": [ [ [ 39.981251377726878, 30.0054 ], [ 49.980418044393545, 30.0054 ], [ 49.980418044393545, 20.006233333333327 ], [ 39.981251377726878, 20.006233333333327 ], [ 39.981251377726878, 30.0054 ] ] ] } },
{ "type": "Feature", "properties": { "id": 160, "name": "N20_E40" }, "geometry": { "type": "Polygon", "coordinates": [ [ [ 39.981251377726878, 20.006233333333327 ], [ 49.980418044393545, 20.006233333333327 ], [ 49.980418044393545, 10.00706666666666 ], [ 39.981251377726878, 10.00706666666666 ], [ 39.981251377726878, 20.006233333333327 ] ] ] } },
{ "type": "Feature", "properties": { "id": 161, "name": "N10_E40" }, "geometry": { "type": "Polygon", "coordinates": [ [ [ 39.981251377726878, 10.00706666666666 ], [ 49.980418044393545, 10.00706666666666 ], [ 49.980418044393545, 0.0079 ], [ 39.981251377726878, 0.0079 ], [ 39.981251377726878, 10.00706666666666 ] ] ] } },
{ "type": "Feature", "properties": { "id": 162, "name": "N0_E40" }, "geometry": { "type": "Polygon", "coordinates": [ [ [ 39.981251377726878, 0.0079 ], [ 49.980418044393545, 0.0079 ], [ 49.980418044393545, -9.991266666666675 ], [ 39.981251377726878, -9.991266666666675 ], [ 39.981251377726878, 0.0079 ] ] ] } },
{ "type": "Feature", "properties": { "id": 163, "name": "S10_E40" }, "geometry": { "type": "Polygon", "coordinates": [ [ [ 39.981251377726878, -9.991266666666675 ], [ 49.980418044393545, -9.991266666666675 ], [ 49.980418044393545, -19.990433333333343 ], [ 39.981251377726878, -19.990433333333343 ], [ 39.981251377726878, -9.991266666666675 ] ] ] } },
{ "type": "Feature", "properties": { "id": 164, "name": "S20_E40" }, "geometry": { "type": "Polygon", "coordinates": [ [ [ 39.981251377726878, -19.990433333333343 ], [ 49.980418044393545, -19.990433333333343 ], [ 49.980418044393545, -29.9896 ], [ 39.981251377726878, -29.9896 ], [ 39.981251377726878, -19.990433333333343 ] ] ] } },
{ "type": "Feature", "properties": { "id": 165, "name": "N70_E50" }, "geometry": { "type": "Polygon", "coordinates": [ [ [ 49.980418072169002, 70.002066666666664 ], [ 59.979584738835669, 70.002066666666664 ], [ 59.979584738835669, 60.0029 ], [ 49.980418072169002, 60.0029 ], [ 49.980418072169002, 70.002066666666664 ] ] ] } },
{ "type": "Feature", "properties": { "id": 166, "name": "N60_E50" }, "geometry": { "type": "Polygon", "coordinates": [ [ [ 49.980418072169002, 60.0029 ], [ 59.979584738835669, 60.0029 ], [ 59.979584738835669, 50.003733333333329 ], [ 49.980418072169002, 50.003733333333329 ], [ 49.980418072169002, 60.0029 ] ] ] } },
{ "type": "Feature", "properties": { "id": 167, "name": "N50_E50" }, "geometry": { "type": "Polygon", "coordinates": [ [ [ 49.980418072169002, 50.003733333333329 ], [ 59.979584738835669, 50.003733333333329 ], [ 59.979584738835669, 40.004566666666662 ], [ 49.980418072169002, 40.004566666666662 ], [ 49.980418072169002, 50.003733333333329 ] ] ] } },
{ "type": "Feature", "properties": { "id": 168, "name": "N40_E50" }, "geometry": { "type": "Polygon", "coordinates": [ [ [ 49.980418072169002, 40.004566666666662 ], [ 59.979584738835669, 40.004566666666662 ], [ 59.979584738835669, 30.0054 ], [ 49.980418072169002, 30.0054 ], [ 49.980418072169002, 40.004566666666662 ] ] ] } },
{ "type": "Feature", "properties": { "id": 169, "name": "N30_E50" }, "geometry": { "type": "Polygon", "coordinates": [ [ [ 49.980418072169002, 30.0054 ], [ 59.979584738835669, 30.0054 ], [ 59.979584738835669, 20.006233333333327 ], [ 49.980418072169002, 20.006233333333327 ], [ 49.980418072169002, 30.0054 ] ] ] } },
{ "type": "Feature", "properties": { "id": 170, "name": "N20_E50" }, "geometry": { "type": "Polygon", "coordinates": [ [ [ 49.980418072169002, 20.006233333333327 ], [ 59.979584738835669, 20.006233333333327 ], [ 59.979584738835669, 10.00706666666666 ], [ 49.980418072169002, 10.00706666666666 ], [ 49.980418072169002, 20.006233333333327 ] ] ] } },
{ "type": "Feature", "properties": { "id": 171, "name": "N10_E50" }, "geometry": { "type": "Polygon", "coordinates": [ [ [ 49.980418072169002, 10.00706666666666 ], [ 59.979584738835669, 10.00706666666666 ], [ 59.979584738835669, 0.0079 ], [ 49.980418072169002, 0.0079 ], [ 49.980418072169002, 10.00706666666666 ] ] ] } },
{ "type": "Feature", "properties": { "id": 172, "name": "S10_E50" }, "geometry": { "type": "Polygon", "coordinates": [ [ [ 49.980418072169002, -9.991266666666675 ], [ 59.979584738835669, -9.991266666666675 ], [ 59.979584738835669, -19.990433333333343 ], [ 49.980418072169002, -19.990433333333343 ], [ 49.980418072169002, -9.991266666666675 ] ] ] } },
{ "type": "Feature", "properties": { "id": 173, "name": "N80_E60" }, "geometry": { "type": "Polygon", "coordinates": [ [ [ 59.979584766611126, 80.001233333333332 ], [ 69.978751433277793, 80.001233333333332 ], [ 69.978751433277793, 70.002066666666664 ], [ 59.979584766611126, 70.002066666666664 ], [ 59.979584766611126, 80.001233333333332 ] ] ] } },
{ "type": "Feature", "properties": { "id": 174, "name": "N70_E60" }, "geometry": { "type": "Polygon", "coordinates": [ [ [ 59.979584766611126, 70.002066666666664 ], [ 69.978751433277793, 70.002066666666664 ], [ 69.978751433277793, 60.0029 ], [ 59.979584766611126, 60.0029 ], [ 59.979584766611126, 70.002066666666664 ] ] ] } },
{ "type": "Feature", "properties": { "id": 175, "name": "N60_E60" }, "geometry": { "type": "Polygon", "coordinates": [ [ [ 59.979584766611126, 60.0029 ], [ 69.978751433277793, 60.0029 ], [ 69.978751433277793, 50.003733333333329 ], [ 59.979584766611126, 50.003733333333329 ], [ 59.979584766611126, 60.0029 ] ] ] } },
{ "type": "Feature", "properties": { "id": 176, "name": "N50_E60" }, "geometry": { "type": "Polygon", "coordinates": [ [ [ 59.979584766611126, 50.003733333333329 ], [ 69.978751433277793, 50.003733333333329 ], [ 69.978751433277793, 40.004566666666662 ], [ 59.979584766611126, 40.004566666666662 ], [ 59.979584766611126, 50.003733333333329 ] ] ] } },
{ "type": "Feature", "properties": { "id": 177, "name": "N40_E60" }, "geometry": { "type": "Polygon", "coordinates": [ [ [ 59.979584766611126, 40.004566666666662 ], [ 69.978751433277793, 40.004566666666662 ], [ 69.978751433277793, 30.0054 ], [ 59.979584766611126, 30.0054 ], [ 59.979584766611126, 40.004566666666662 ] ] ] } },
{ "type": "Feature", "properties": { "id": 178, "name": "N30_E60" }, "geometry": { "type": "Polygon", "coordinates": [ [ [ 59.979584766611126, 30.0054 ], [ 69.978751433277793, 30.0054 ], [ 69.978751433277793, 20.006233333333327 ], [ 59.979584766611126, 20.006233333333327 ], [ 59.979584766611126, 30.0054 ] ] ] } },
{ "type": "Feature", "properties": { "id": 179, "name": "N80_E70" }, "geometry": { "type": "Polygon", "coordinates": [ [ [ 69.97875146105325, 80.001233333333332 ], [ 79.977918127719917, 80.001233333333332 ], [ 79.977918127719917, 70.002066666666664 ], [ 69.97875146105325, 70.002066666666664 ], [ 69.97875146105325, 80.001233333333332 ] ] ] } },
{ "type": "Feature", "properties": { "id": 180, "name": "N70_E70" }, "geometry": { "type": "Polygon", "coordinates": [ [ [ 69.97875146105325, 70.002066666666664 ], [ 79.977918127719917, 70.002066666666664 ], [ 79.977918127719917, 60.0029 ], [ 69.97875146105325, 60.0029 ], [ 69.97875146105325, 70.002066666666664 ] ] ] } },
{ "type": "Feature", "properties": { "id": 181, "name": "N60_E70" }, "geometry": { "type": "Polygon", "coordinates": [ [ [ 69.97875146105325, 60.0029 ], [ 79.977918127719917, 60.0029 ], [ 79.977918127719917, 50.003733333333329 ], [ 69.97875146105325, 50.003733333333329 ], [ 69.97875146105325, 60.0029 ] ] ] } },
{ "type": "Feature", "properties": { "id": 182, "name": "N50_E70" }, "geometry": { "type": "Polygon", "coordinates": [ [ [ 69.97875146105325, 50.003733333333329 ], [ 79.977918127719917, 50.003733333333329 ], [ 79.977918127719917, 40.004566666666662 ], [ 69.97875146105325, 40.004566666666662 ], [ 69.97875146105325, 50.003733333333329 ] ] ] } },
{ "type": "Feature", "properties": { "id": 183, "name": "N40_E70" }, "geometry": { "type": "Polygon", "coordinates": [ [ [ 69.97875146105325, 40.004566666666662 ], [ 79.977918127719917, 40.004566666666662 ], [ 79.977918127719917, 30.0054 ], [ 69.97875146105325, 30.0054 ], [ 69.97875146105325, 40.004566666666662 ] ] ] } },
{ "type": "Feature", "properties": { "id": 184, "name": "N30_E70" }, "geometry": { "type": "Polygon", "coordinates": [ [ [ 69.97875146105325, 30.0054 ], [ 79.977918127719917, 30.0054 ], [ 79.977918127719917, 20.006233333333327 ], [ 69.97875146105325, 20.006233333333327 ], [ 69.97875146105325, 30.0054 ] ] ] } },
{ "type": "Feature", "properties": { "id": 185, "name": "N20_E70" }, "geometry": { "type": "Polygon", "coordinates": [ [ [ 69.97875146105325, 20.006233333333327 ], [ 79.977918127719917, 20.006233333333327 ], [ 79.977918127719917, 10.00706666666666 ], [ 69.97875146105325, 10.00706666666666 ], [ 69.97875146105325, 20.006233333333327 ] ] ] } },
{ "type": "Feature", "properties": { "id": 186, "name": "N10_E70" }, "geometry": { "type": "Polygon", "coordinates": [ [ [ 69.97875146105325, 10.00706666666666 ], [ 79.977918127719917, 10.00706666666666 ], [ 79.977918127719917, 0.0079 ], [ 69.97875146105325, 0.0079 ], [ 69.97875146105325, 10.00706666666666 ] ] ] } },
{ "type": "Feature", "properties": { "id": 187, "name": "N80_E80" }, "geometry": { "type": "Polygon", "coordinates": [ [ [ 79.977918155495402, 80.001233333333332 ], [ 89.97708482216207, 80.001233333333332 ], [ 89.97708482216207, 70.002066666666664 ], [ 79.977918155495402, 70.002066666666664 ], [ 79.977918155495402, 80.001233333333332 ] ] ] } },
{ "type": "Feature", "properties": { "id": 188, "name": "N70_E80" }, "geometry": { "type": "Polygon", "coordinates": [ [ [ 79.977918155495402, 70.002066666666664 ], [ 89.97708482216207, 70.002066666666664 ], [ 89.97708482216207, 60.0029 ], [ 79.977918155495402, 60.0029 ], [ 79.977918155495402, 70.002066666666664 ] ] ] } },
{ "type": "Feature", "properties": { "id": 189, "name": "N60_E80" }, "geometry": { "type": "Polygon", "coordinates": [ [ [ 79.977918155495402, 60.0029 ], [ 89.97708482216207, 60.0029 ], [ 89.97708482216207, 50.003733333333329 ], [ 79.977918155495402, 50.003733333333329 ], [ 79.977918155495402, 60.0029 ] ] ] } },
{ "type": "Feature", "properties": { "id": 190, "name": "N50_E80" }, "geometry": { "type": "Polygon", "coordinates": [ [ [ 79.977918155495402, 50.003733333333329 ], [ 89.97708482216207, 50.003733333333329 ], [ 89.97708482216207, 40.004566666666662 ], [ 79.977918155495402, 40.004566666666662 ], [ 79.977918155495402, 50.003733333333329 ] ] ] } },
{ "type": "Feature", "properties": { "id": 191, "name": "N40_E80" }, "geometry": { "type": "Polygon", "coordinates": [ [ [ 79.977918155495402, 40.004566666666662 ], [ 89.97708482216207, 40.004566666666662 ], [ 89.97708482216207, 30.0054 ], [ 79.977918155495402, 30.0054 ], [ 79.977918155495402, 40.004566666666662 ] ] ] } },
{ "type": "Feature", "properties": { "id": 192, "name": "N30_E80" }, "geometry": { "type": "Polygon", "coordinates": [ [ [ 79.977918155495402, 30.0054 ], [ 89.97708482216207, 30.0054 ], [ 89.97708482216207, 20.006233333333327 ], [ 79.977918155495402, 20.006233333333327 ], [ 79.977918155495402, 30.0054 ] ] ] } },
{ "type": "Feature", "properties": { "id": 193, "name": "N20_E80" }, "geometry": { "type": "Polygon", "coordinates": [ [ [ 79.977918155495402, 20.006233333333327 ], [ 89.97708482216207, 20.006233333333327 ], [ 89.97708482216207, 10.00706666666666 ], [ 79.977918155495402, 10.00706666666666 ], [ 79.977918155495402, 20.006233333333327 ] ] ] } },
{ "type": "Feature", "properties": { "id": 194, "name": "N10_E80" }, "geometry": { "type": "Polygon", "coordinates": [ [ [ 79.977918155495402, 10.00706666666666 ], [ 89.97708482216207, 10.00706666666666 ], [ 89.97708482216207, 0.0079 ], [ 79.977918155495402, 0.0079 ], [ 79.977918155495402, 10.00706666666666 ] ] ] } },
{ "type": "Feature", "properties": { "id": 195, "name": "N80_E90" }, "geometry": { "type": "Polygon", "coordinates": [ [ [ 89.977084849937526, 80.001233333333332 ], [ 99.976251516604194, 80.001233333333332 ], [ 99.976251516604194, 70.002066666666664 ], [ 89.977084849937526, 70.002066666666664 ], [ 89.977084849937526, 80.001233333333332 ] ] ] } },
{ "type": "Feature", "properties": { "id": 196, "name": "N70_E90" }, "geometry": { "type": "Polygon", "coordinates": [ [ [ 89.977084849937526, 70.002066666666664 ], [ 99.976251516604194, 70.002066666666664 ], [ 99.976251516604194, 60.0029 ], [ 89.977084849937526, 60.0029 ], [ 89.977084849937526, 70.002066666666664 ] ] ] } },
{ "type": "Feature", "properties": { "id": 197, "name": "N60_E90" }, "geometry": { "type": "Polygon", "coordinates": [ [ [ 89.977084849937526, 60.0029 ], [ 99.976251516604194, 60.0029 ], [ 99.976251516604194, 50.003733333333329 ], [ 89.977084849937526, 50.003733333333329 ], [ 89.977084849937526, 60.0029 ] ] ] } },
{ "type": "Feature", "properties": { "id": 198, "name": "N50_E90" }, "geometry": { "type": "Polygon", "coordinates": [ [ [ 89.977084849937526, 50.003733333333329 ], [ 99.976251516604194, 50.003733333333329 ], [ 99.976251516604194, 40.004566666666662 ], [ 89.977084849937526, 40.004566666666662 ], [ 89.977084849937526, 50.003733333333329 ] ] ] } },
{ "type": "Feature", "properties": { "id": 199, "name": "N40_E90" }, "geometry": { "type": "Polygon", "coordinates": [ [ [ 89.977084849937526, 40.004566666666662 ], [ 99.976251516604194, 40.004566666666662 ], [ 99.976251516604194, 30.0054 ], [ 89.977084849937526, 30.0054 ], [ 89.977084849937526, 40.004566666666662 ] ] ] } },
{ "type": "Feature", "properties": { "id": 200, "name": "N30_E90" }, "geometry": { "type": "Polygon", "coordinates": [ [ [ 89.977084849937526, 30.0054 ], [ 99.976251516604194, 30.0054 ], [ 99.976251516604194, 20.006233333333327 ], [ 89.977084849937526, 20.006233333333327 ], [ 89.977084849937526, 30.0054 ] ] ] } },
{ "type": "Feature", "properties": { "id": 201, "name": "N20_E90" }, "geometry": { "type": "Polygon", "coordinates": [ [ [ 89.977084849937526, 20.006233333333327 ], [ 99.976251516604194, 20.006233333333327 ], [ 99.976251516604194, 10.00706666666666 ], [ 89.977084849937526, 10.00706666666666 ], [ 89.977084849937526, 20.006233333333327 ] ] ] } },
{ "type": "Feature", "properties": { "id": 202, "name": "N10_E90" }, "geometry": { "type": "Polygon", "coordinates": [ [ [ 89.977084849937526, 10.00706666666666 ], [ 99.976251516604194, 10.00706666666666 ], [ 99.976251516604194, 0.0079 ], [ 89.977084849937526, 0.0079 ], [ 89.977084849937526, 10.00706666666666 ] ] ] } },
{ "type": "Feature", "properties": { "id": 203, "name": "N0_E90" }, "geometry": { "type": "Polygon", "coordinates": [ [ [ 89.977084849937526, 0.0079 ], [ 99.976251516604194, 0.0079 ], [ 99.976251516604194, -9.991266666666675 ], [ 89.977084849937526, -9.991266666666675 ], [ 89.977084849937526, 0.0079 ] ] ] } },
{ "type": "Feature", "properties": { "id": 204, "name": "N80_E100" }, "geometry": { "type": "Polygon", "coordinates": [ [ [ 99.97625154437965, 80.001233333333332 ], [ 109.975418211046318, 80.001233333333332 ], [ 109.975418211046318, 70.002066666666664 ], [ 99.97625154437965, 70.002066666666664 ], [ 99.97625154437965, 80.001233333333332 ] ] ] } },
{ "type": "Feature", "properties": { "id": 205, "name": "N70_E100" }, "geometry": { "type": "Polygon", "coordinates": [ [ [ 99.97625154437965, 70.002066666666664 ], [ 109.975418211046318, 70.002066666666664 ], [ 109.975418211046318, 60.0029 ], [ 99.97625154437965, 60.0029 ], [ 99.97625154437965, 70.002066666666664 ] ] ] } },
{ "type": "Feature", "properties": { "id": 206, "name": "N60_E100" }, "geometry": { "type": "Polygon", "coordinates": [ [ [ 99.97625154437965, 60.0029 ], [ 109.975418211046318, 60.0029 ], [ 109.975418211046318, 50.003733333333329 ], [ 99.97625154437965, 50.003733333333329 ], [ 99.97625154437965, 60.0029 ] ] ] } },
{ "type": "Feature", "properties": { "id": 207, "name": "N50_E100" }, "geometry": { "type": "Polygon", "coordinates": [ [ [ 99.97625154437965, 50.003733333333329 ], [ 109.975418211046318, 50.003733333333329 ], [ 109.975418211046318, 40.004566666666662 ], [ 99.97625154437965, 40.004566666666662 ], [ 99.97625154437965, 50.003733333333329 ] ] ] } },
{ "type": "Feature", "properties": { "id": 208, "name": "N40_E100" }, "geometry": { "type": "Polygon", "coordinates": [ [ [ 99.97625154437965, 40.004566666666662 ], [ 109.975418211046318, 40.004566666666662 ], [ 109.975418211046318, 30.0054 ], [ 99.97625154437965, 30.0054 ], [ 99.97625154437965, 40.004566666666662 ] ] ] } },
{ "type": "Feature", "properties": { "id": 209, "name": "N30_E100" }, "geometry": { "type": "Polygon", "coordinates": [ [ [ 99.97625154437965, 30.0054 ], [ 109.975418211046318, 30.0054 ], [ 109.975418211046318, 20.006233333333327 ], [ 99.97625154437965, 20.006233333333327 ], [ 99.97625154437965, 30.0054 ] ] ] } },
{ "type": "Feature", "properties": { "id": 210, "name": "N20_E100" }, "geometry": { "type": "Polygon", "coordinates": [ [ [ 99.97625154437965, 20.006233333333327 ], [ 109.975418211046318, 20.006233333333327 ], [ 109.975418211046318, 10.00706666666666 ], [ 99.97625154437965, 10.00706666666666 ], [ 99.97625154437965, 20.006233333333327 ] ] ] } },
{ "type": "Feature", "properties": { "id": 211, "name": "N10_E100" }, "geometry": { "type": "Polygon", "coordinates": [ [ [ 99.97625154437965, 10.00706666666666 ], [ 109.975418211046318, 10.00706666666666 ], [ 109.975418211046318, 0.0079 ], [ 99.97625154437965, 0.0079 ], [ 99.97625154437965, 10.00706666666666 ] ] ] } },
{ "type": "Feature", "properties": { "id": 212, "name": "N0_E100" }, "geometry": { "type": "Polygon", "coordinates": [ [ [ 99.97625154437965, 0.0079 ], [ 109.975418211046318, 0.0079 ], [ 109.975418211046318, -9.991266666666675 ], [ 99.97625154437965, -9.991266666666675 ], [ 99.97625154437965, 0.0079 ] ] ] } },
{ "type": "Feature", "properties": { "id": 213, "name": "N80_E110" }, "geometry": { "type": "Polygon", "coordinates": [ [ [ 109.975418238821774, 80.001233333333332 ], [ 119.974584905488442, 80.001233333333332 ], [ 119.974584905488442, 70.002066666666664 ], [ 109.975418238821774, 70.002066666666664 ], [ 109.975418238821774, 80.001233333333332 ] ] ] } },
{ "type": "Feature", "properties": { "id": 214, "name": "N70_E110" }, "geometry": { "type": "Polygon", "coordinates": [ [ [ 109.975418238821774, 70.002066666666664 ], [ 119.974584905488442, 70.002066666666664 ], [ 119.974584905488442, 60.0029 ], [ 109.975418238821774, 60.0029 ], [ 109.975418238821774, 70.002066666666664 ] ] ] } },
{ "type": "Feature", "properties": { "id": 215, "name": "N60_E110" }, "geometry": { "type": "Polygon", "coordinates": [ [ [ 109.975418238821774, 60.0029 ], [ 119.974584905488442, 60.0029 ], [ 119.974584905488442, 50.003733333333329 ], [ 109.975418238821774, 50.003733333333329 ], [ 109.975418238821774, 60.0029 ] ] ] } },
{ "type": "Feature", "properties": { "id": 216, "name": "N50_E110" }, "geometry": { "type": "Polygon", "coordinates": [ [ [ 109.975418238821774, 50.003733333333329 ], [ 119.974584905488442, 50.003733333333329 ], [ 119.974584905488442, 40.004566666666662 ], [ 109.975418238821774, 40.004566666666662 ], [ 109.975418238821774, 50.003733333333329 ] ] ] } },
{ "type": "Feature", "properties": { "id": 217, "name": "N40_E110" }, "geometry": { "type": "Polygon", "coordinates": [ [ [ 109.975418238821774, 40.004566666666662 ], [ 119.974584905488442, 40.004566666666662 ], [ 119.974584905488442, 30.0054 ], [ 109.975418238821774, 30.0054 ], [ 109.975418238821774, 40.004566666666662 ] ] ] } },
{ "type": "Feature", "properties": { "id": 218, "name": "N30_E110" }, "geometry": { "type": "Polygon", "coordinates": [ [ [ 109.975418238821774, 30.0054 ], [ 119.974584905488442, 30.0054 ], [ 119.974584905488442, 20.006233333333327 ], [ 109.975418238821774, 20.006233333333327 ], [ 109.975418238821774, 30.0054 ] ] ] } },
{ "type": "Feature", "properties": { "id": 219, "name": "N20_E110" }, "geometry": { "type": "Polygon", "coordinates": [ [ [ 109.975418238821774, 20.006233333333327 ], [ 119.974584905488442, 20.006233333333327 ], [ 119.974584905488442, 10.00706666666666 ], [ 109.975418238821774, 10.00706666666666 ], [ 109.975418238821774, 20.006233333333327 ] ] ] } },
{ "type": "Feature", "properties": { "id": 220, "name": "N10_E110" }, "geometry": { "type": "Polygon", "coordinates": [ [ [ 109.975418238821774, 10.00706666666666 ], [ 119.974584905488442, 10.00706666666666 ], [ 119.974584905488442, 0.0079 ], [ 109.975418238821774, 0.0079 ], [ 109.975418238821774, 10.00706666666666 ] ] ] } },
{ "type": "Feature", "properties": { "id": 221, "name": "N0_E110" }, "geometry": { "type": "Polygon", "coordinates": [ [ [ 109.975418238821774, 0.0079 ], [ 119.974584905488442, 0.0079 ], [ 119.974584905488442, -9.991266666666675 ], [ 109.975418238821774, -9.991266666666675 ], [ 109.975418238821774, 0.0079 ] ] ] } },
{ "type": "Feature", "properties": { "id": 222, "name": "S10_E110" }, "geometry": { "type": "Polygon", "coordinates": [ [ [ 109.975418238821774, -9.991266666666675 ], [ 119.974584905488442, -9.991266666666675 ], [ 119.974584905488442, -19.990433333333343 ], [ 109.975418238821774, -19.990433333333343 ], [ 109.975418238821774, -9.991266666666675 ] ] ] } },
{ "type": "Feature", "properties": { "id": 223, "name": "S20_E110" }, "geometry": { "type": "Polygon", "coordinates": [ [ [ 109.975418238821774, -19.990433333333343 ], [ 119.974584905488442, -19.990433333333343 ], [ 119.974584905488442, -29.9896 ], [ 109.975418238821774, -29.9896 ], [ 109.975418238821774, -19.990433333333343 ] ] ] } },
{ "type": "Feature", "properties": { "id": 224, "name": "S30_E110" }, "geometry": { "type": "Polygon", "coordinates": [ [ [ 109.975418238821774, -29.9896 ], [ 119.974584905488442, -29.9896 ], [ 119.974584905488442, -39.988766666666677 ], [ 109.975418238821774, -39.988766666666677 ], [ 109.975418238821774, -29.9896 ] ] ] } },
{ "type": "Feature", "properties": { "id": 225, "name": "N80_E120" }, "geometry": { "type": "Polygon", "coordinates": [ [ [ 119.974584933263898, 80.001233333333332 ], [ 129.973751599930551, 80.001233333333332 ], [ 129.973751599930551, 70.002066666666664 ], [ 119.974584933263898, 70.002066666666664 ], [ 119.974584933263898, 80.001233333333332 ] ] ] } },
{ "type": "Feature", "properties": { "id": 226, "name": "N70_E120" }, "geometry": { "type": "Polygon", "coordinates": [ [ [ 119.974584933263898, 70.002066666666664 ], [ 129.973751599930551, 70.002066666666664 ], [ 129.973751599930551, 60.0029 ], [ 119.974584933263898, 60.0029 ], [ 119.974584933263898, 70.002066666666664 ] ] ] } },
{ "type": "Feature", "properties": { "id": 227, "name": "N60_E120" }, "geometry": { "type": "Polygon", "coordinates": [ [ [ 119.974584933263898, 60.0029 ], [ 129.973751599930551, 60.0029 ], [ 129.973751599930551, 50.003733333333329 ], [ 119.974584933263898, 50.003733333333329 ], [ 119.974584933263898, 60.0029 ] ] ] } },
{ "type": "Feature", "properties": { "id": 228, "name": "N50_E120" }, "geometry": { "type": "Polygon", "coordinates": [ [ [ 119.974584933263898, 50.003733333333329 ], [ 129.973751599930551, 50.003733333333329 ], [ 129.973751599930551, 40.004566666666662 ], [ 119.974584933263898, 40.004566666666662 ], [ 119.974584933263898, 50.003733333333329 ] ] ] } },
{ "type": "Feature", "properties": { "id": 229, "name": "N40_E120" }, "geometry": { "type": "Polygon", "coordinates": [ [ [ 119.974584933263898, 40.004566666666662 ], [ 129.973751599930551, 40.004566666666662 ], [ 129.973751599930551, 30.0054 ], [ 119.974584933263898, 30.0054 ], [ 119.974584933263898, 40.004566666666662 ] ] ] } },
{ "type": "Feature", "properties": { "id": 230, "name": "N30_E120" }, "geometry": { "type": "Polygon", "coordinates": [ [ [ 119.974584933263898, 30.0054 ], [ 129.973751599930551, 30.0054 ], [ 129.973751599930551, 20.006233333333327 ], [ 119.974584933263898, 20.006233333333327 ], [ 119.974584933263898, 30.0054 ] ] ] } },
{ "type": "Feature", "properties": { "id": 231, "name": "N20_E120" }, "geometry": { "type": "Polygon", "coordinates": [ [ [ 119.974584933263898, 20.006233333333327 ], [ 129.973751599930551, 20.006233333333327 ], [ 129.973751599930551, 10.00706666666666 ], [ 119.974584933263898, 10.00706666666666 ], [ 119.974584933263898, 20.006233333333327 ] ] ] } },
{ "type": "Feature", "properties": { "id": 232, "name": "N10_E120" }, "geometry": { "type": "Polygon", "coordinates": [ [ [ 119.974584933263898, 10.00706666666666 ], [ 129.973751599930551, 10.00706666666666 ], [ 129.973751599930551, 0.0079 ], [ 119.974584933263898, 0.0079 ], [ 119.974584933263898, 10.00706666666666 ] ] ] } },
{ "type": "Feature", "properties": { "id": 233, "name": "N0_E120" }, "geometry": { "type": "Polygon", "coordinates": [ [ [ 119.974584933263898, 0.0079 ], [ 129.973751599930551, 0.0079 ], [ 129.973751599930551, -9.991266666666675 ], [ 119.974584933263898, -9.991266666666675 ], [ 119.974584933263898, 0.0079 ] ] ] } },
{ "type": "Feature", "properties": { "id": 234, "name": "S10_E120" }, "geometry": { "type": "Polygon", "coordinates": [ [ [ 119.974584933263898, -9.991266666666675 ], [ 129.973751599930551, -9.991266666666675 ], [ 129.973751599930551, -19.990433333333343 ], [ 119.974584933263898, -19.990433333333343 ], [ 119.974584933263898, -9.991266666666675 ] ] ] } },
{ "type": "Feature", "properties": { "id": 235, "name": "S20_E120" }, "geometry": { "type": "Polygon", "coordinates": [ [ [ 119.974584933263898, -19.990433333333343 ], [ 129.973751599930551, -19.990433333333343 ], [ 129.973751599930551, -29.9896 ], [ 119.974584933263898, -29.9896 ], [ 119.974584933263898, -19.990433333333343 ] ] ] } },
{ "type": "Feature", "properties": { "id": 236, "name": "S30_E120" }, "geometry": { "type": "Polygon", "coordinates": [ [ [ 119.974584933263898, -29.9896 ], [ 129.973751599930551, -29.9896 ], [ 129.973751599930551, -39.988766666666677 ], [ 119.974584933263898, -39.988766666666677 ], [ 119.974584933263898, -29.9896 ] ] ] } },
{ "type": "Feature", "properties": { "id": 237, "name": "N80_E130" }, "geometry": { "type": "Polygon", "coordinates": [ [ [ 129.973751627706008, 80.001233333333332 ], [ 139.972918294372676, 80.001233333333332 ], [ 139.972918294372676, 70.002066666666664 ], [ 129.973751627706008, 70.002066666666664 ], [ 129.973751627706008, 80.001233333333332 ] ] ] } },
{ "type": "Feature", "properties": { "id": 238, "name": "N70_E130" }, "geometry": { "type": "Polygon", "coordinates": [ [ [ 129.973751627706008, 70.002066666666664 ], [ 139.972918294372676, 70.002066666666664 ], [ 139.972918294372676, 60.0029 ], [ 129.973751627706008, 60.0029 ], [ 129.973751627706008, 70.002066666666664 ] ] ] } },
{ "type": "Feature", "properties": { "id": 239, "name": "N60_E130" }, "geometry": { "type": "Polygon", "coordinates": [ [ [ 129.973751627706008, 60.0029 ], [ 139.972918294372676, 60.0029 ], [ 139.972918294372676, 50.003733333333329 ], [ 129.973751627706008, 50.003733333333329 ], [ 129.973751627706008, 60.0029 ] ] ] } },
{ "type": "Feature", "properties": { "id": 240, "name": "N50_E130" }, "geometry": { "type": "Polygon", "coordinates": [ [ [ 129.973751627706008, 50.003733333333329 ], [ 139.972918294372676, 50.003733333333329 ], [ 139.972918294372676, 40.004566666666662 ], [ 129.973751627706008, 40.004566666666662 ], [ 129.973751627706008, 50.003733333333329 ] ] ] } },
{ "type": "Feature", "properties": { "id": 241, "name": "N40_E130" }, "geometry": { "type": "Polygon", "coordinates": [ [ [ 129.973751627706008, 40.004566666666662 ], [ 139.972918294372676, 40.004566666666662 ], [ 139.972918294372676, 30.0054 ], [ 129.973751627706008, 30.0054 ], [ 129.973751627706008, 40.004566666666662 ] ] ] } },
{ "type": "Feature", "properties": { "id": 242, "name": "N0_E130" }, "geometry": { "type": "Polygon", "coordinates": [ [ [ 129.973751627706008, 0.0079 ], [ 139.972918294372676, 0.0079 ], [ 139.972918294372676, -9.991266666666675 ], [ 129.973751627706008, -9.991266666666675 ], [ 129.973751627706008, 0.0079 ] ] ] } },
{ "type": "Feature", "properties": { "id": 243, "name": "S10_E130" }, "geometry": { "type": "Polygon", "coordinates": [ [ [ 129.973751627706008, -9.991266666666675 ], [ 139.972918294372676, -9.991266666666675 ], [ 139.972918294372676, -19.990433333333343 ], [ 129.973751627706008, -19.990433333333343 ], [ 129.973751627706008, -9.991266666666675 ] ] ] } },
{ "type": "Feature", "properties": { "id": 244, "name": "S20_E130" }, "geometry": { "type": "Polygon", "coordinates": [ [ [ 129.973751627706008, -19.990433333333343 ], [ 139.972918294372676, -19.990433333333343 ], [ 139.972918294372676, -29.9896 ], [ 129.973751627706008, -29.9896 ], [ 129.973751627706008, -19.990433333333343 ] ] ] } },
{ "type": "Feature", "properties": { "id": 245, "name": "S30_E130" }, "geometry": { "type": "Polygon", "coordinates": [ [ [ 129.973751627706008, -29.9896 ], [ 139.972918294372676, -29.9896 ], [ 139.972918294372676, -39.988766666666677 ], [ 129.973751627706008, -39.988766666666677 ], [ 129.973751627706008, -29.9896 ] ] ] } },
{ "type": "Feature", "properties": { "id": 246, "name": "N80_E140" }, "geometry": { "type": "Polygon", "coordinates": [ [ [ 139.972918322148132, 80.001233333333332 ], [ 149.9720849888148, 80.001233333333332 ], [ 149.9720849888148, 70.002066666666664 ], [ 139.972918322148132, 70.002066666666664 ], [ 139.972918322148132, 80.001233333333332 ] ] ] } },
{ "type": "Feature", "properties": { "id": 247, "name": "N70_E140" }, "geometry": { "type": "Polygon", "coordinates": [ [ [ 139.972918322148132, 70.002066666666664 ], [ 149.9720849888148, 70.002066666666664 ], [ 149.9720849888148, 60.0029 ], [ 139.972918322148132, 60.0029 ], [ 139.972918322148132, 70.002066666666664 ] ] ] } },
{ "type": "Feature", "properties": { "id": 248, "name": "N60_E140" }, "geometry": { "type": "Polygon", "coordinates": [ [ [ 139.972918322148132, 60.0029 ], [ 149.9720849888148, 60.0029 ], [ 149.9720849888148, 50.003733333333329 ], [ 139.972918322148132, 50.003733333333329 ], [ 139.972918322148132, 60.0029 ] ] ] } },
{ "type": "Feature", "properties": { "id": 249, "name": "N50_E140" }, "geometry": { "type": "Polygon", "coordinates": [ [ [ 139.972918322148132, 50.003733333333329 ], [ 149.9720849888148, 50.003733333333329 ], [ 149.9720849888148, 40.004566666666662 ], [ 139.972918322148132, 40.004566666666662 ], [ 139.972918322148132, 50.003733333333329 ] ] ] } },
{ "type": "Feature", "properties": { "id": 250, "name": "N40_E140" }, "geometry": { "type": "Polygon", "coordinates": [ [ [ 139.972918322148132, 40.004566666666662 ], [ 149.9720849888148, 40.004566666666662 ], [ 149.9720849888148, 30.0054 ], [ 139.972918322148132, 30.0054 ], [ 139.972918322148132, 40.004566666666662 ] ] ] } },
{ "type": "Feature", "properties": { "id": 251, "name": "N0_E140" }, "geometry": { "type": "Polygon", "coordinates": [ [ [ 139.972918322148132, 0.0079 ], [ 149.9720849888148, 0.0079 ], [ 149.9720849888148, -9.991266666666675 ], [ 139.972918322148132, -9.991266666666675 ], [ 139.972918322148132, 0.0079 ] ] ] } },
{ "type": "Feature", "properties": { "id": 252, "name": "S10_E140" }, "geometry": { "type": "Polygon", "coordinates": [ [ [ 139.972918322148132, -9.991266666666675 ], [ 149.9720849888148, -9.991266666666675 ], [ 149.9720849888148, -19.990433333333343 ], [ 139.972918322148132, -19.990433333333343 ], [ 139.972918322148132, -9.991266666666675 ] ] ] } },
{ "type": "Feature", "properties": { "id": 253, "name": "S20_E140" }, "geometry": { "type": "Polygon", "coordinates": [ [ [ 139.972918322148132, -19.990433333333343 ], [ 149.9720849888148, -19.990433333333343 ], [ 149.9720849888148, -29.9896 ], [ 139.972918322148132, -29.9896 ], [ 139.972918322148132, -19.990433333333343 ] ] ] } },
{ "type": "Feature", "properties": { "id": 254, "name": "S30_E140" }, "geometry": { "type": "Polygon", "coordinates": [ [ [ 139.972918322148132, -29.9896 ], [ 149.9720849888148, -29.9896 ], [ 149.9720849888148, -39.988766666666677 ], [ 139.972918322148132, -39.988766666666677 ], [ 139.972918322148132, -29.9896 ] ] ] } },
{ "type": "Feature", "properties": { "id": 255, "name": "S40_E140" }, "geometry": { "type": "Polygon", "coordinates": [ [ [ 139.972918322148132, -39.988766666666677 ], [ 149.9720849888148, -39.988766666666677 ], [ 149.9720849888148, -49.987933333333345 ], [ 139.972918322148132, -49.987933333333345 ], [ 139.972918322148132, -39.988766666666677 ] ] ] } },
{ "type": "Feature", "properties": { "id": 256, "name": "N80_E150" }, "geometry": { "type": "Polygon", "coordinates": [ [ [ 149.972085016590256, 80.001233333333332 ], [ 159.971251683256924, 80.001233333333332 ], [ 159.971251683256924, 70.002066666666664 ], [ 149.972085016590256, 70.002066666666664 ], [ 149.972085016590256, 80.001233333333332 ] ] ] } },
{ "type": "Feature", "properties": { "id": 257, "name": "N70_E150" }, "geometry": { "type": "Polygon", "coordinates": [ [ [ 149.972085016590256, 70.002066666666664 ], [ 159.971251683256924, 70.002066666666664 ], [ 159.971251683256924, 60.0029 ], [ 149.972085016590256, 60.0029 ], [ 149.972085016590256, 70.002066666666664 ] ] ] } },
{ "type": "Feature", "properties": { "id": 258, "name": "N60_E150" }, "geometry": { "type": "Polygon", "coordinates": [ [ [ 149.972085016590256, 60.0029 ], [ 159.971251683256924, 60.0029 ], [ 159.971251683256924, 50.003733333333329 ], [ 149.972085016590256, 50.003733333333329 ], [ 149.972085016590256, 60.0029 ] ] ] } },
{ "type": "Feature", "properties": { "id": 259, "name": "N0_E150" }, "geometry": { "type": "Polygon", "coordinates": [ [ [ 149.972085016590256, 0.0079 ], [ 159.971251683256924, 0.0079 ], [ 159.971251683256924, -9.991266666666675 ], [ 149.972085016590256, -9.991266666666675 ], [ 149.972085016590256, 0.0079 ] ] ] } },
{ "type": "Feature", "properties": { "id": 260, "name": "S10_E150" }, "geometry": { "type": "Polygon", "coordinates": [ [ [ 149.972085016590256, -9.991266666666675 ], [ 159.971251683256924, -9.991266666666675 ], [ 159.971251683256924, -19.990433333333343 ], [ 149.972085016590256, -19.990433333333343 ], [ 149.972085016590256, -9.991266666666675 ] ] ] } },
{ "type": "Feature", "properties": { "id": 261, "name": "S20_E150" }, "geometry": { "type": "Polygon", "coordinates": [ [ [ 149.972085016590256, -19.990433333333343 ], [ 159.971251683256924, -19.990433333333343 ], [ 159.971251683256924, -29.9896 ], [ 149.972085016590256, -29.9896 ], [ 149.972085016590256, -19.990433333333343 ] ] ] } },
{ "type": "Feature", "properties": { "id": 262, "name": "S30_E150" }, "geometry": { "type": "Polygon", "coordinates": [ [ [ 149.972085016590256, -29.9896 ], [ 159.971251683256924, -29.9896 ], [ 159.971251683256924, -39.988766666666677 ], [ 149.972085016590256, -39.988766666666677 ], [ 149.972085016590256, -29.9896 ] ] ] } },
{ "type": "Feature", "properties": { "id": 263, "name": "N80_E160" }, "geometry": { "type": "Polygon", "coordinates": [ [ [ 159.971251711032437, 80.001233333333332 ], [ 169.970418377699104, 80.001233333333332 ], [ 169.970418377699104, 70.002066666666664 ], [ 159.971251711032437, 70.002066666666664 ], [ 159.971251711032437, 80.001233333333332 ] ] ] } },
{ "type": "Feature", "properties": { "id": 264, "name": "N70_E160" }, "geometry": { "type": "Polygon", "coordinates": [ [ [ 159.971251711032437, 70.002066666666664 ], [ 169.970418377699104, 70.002066666666664 ], [ 169.970418377699104, 60.0029 ], [ 159.971251711032437, 60.0029 ], [ 159.971251711032437, 70.002066666666664 ] ] ] } },
{ "type": "Feature", "properties": { "id": 265, "name": "N60_E160" }, "geometry": { "type": "Polygon", "coordinates": [ [ [ 159.971251711032437, 60.0029 ], [ 169.970418377699104, 60.0029 ], [ 169.970418377699104, 50.003733333333329 ], [ 159.971251711032437, 50.003733333333329 ], [ 159.971251711032437, 60.0029 ] ] ] } },
{ "type": "Feature", "properties": { "id": 266, "name": "S40_E160" }, "geometry": { "type": "Polygon", "coordinates": [ [ [ 159.971251711032437, -39.988766666666677 ], [ 169.970418377699104, -39.988766666666677 ], [ 169.970418377699104, -49.987933333333345 ], [ 159.971251711032437, -49.987933333333345 ], [ 159.971251711032437, -39.988766666666677 ] ] ] } },
{ "type": "Feature", "properties": { "id": 267, "name": "N80_E170" }, "geometry": { "type": "Polygon", "coordinates": [ [ [ 169.970418405474561, 80.001233333333332 ], [ 179.969585072141228, 80.001233333333332 ], [ 179.969585072141228, 70.002066666666664 ], [ 169.970418405474561, 70.002066666666664 ], [ 169.970418405474561, 80.001233333333332 ] ] ] } },
{ "type": "Feature", "properties": { "id": 268, "name": "N70_E170" }, "geometry": { "type": "Polygon", "coordinates": [ [ [ 169.970418405474561, 70.002066666666664 ], [ 179.969585072141228, 70.002066666666664 ], [ 179.969585072141228, 60.0029 ], [ 169.970418405474561, 60.0029 ], [ 169.970418405474561, 70.002066666666664 ] ] ] } },
{ "type": "Feature", "properties": { "id": 269, "name": "N60_E170" }, "geometry": { "type": "Polygon", "coordinates": [ [ [ 169.970418405474561, 60.0029 ], [ 179.969585072141228, 60.0029 ], [ 179.969585072141228, 50.003733333333329 ], [ 169.970418405474561, 50.003733333333329 ], [ 169.970418405474561, 60.0029 ] ] ] } },
{ "type": "Feature", "properties": { "id": 270, "name": "S30_E170" }, "geometry": { "type": "Polygon", "coordinates": [ [ [ 169.970418405474561, -29.9896 ], [ 179.969585072141228, -29.9896 ], [ 179.969585072141228, -39.988766666666677 ], [ 169.970418405474561, -39.988766666666677 ], [ 169.970418405474561, -29.9896 ] ] ] } },
{ "type": "Feature", "properties": { "id": 271, "name": "S40_E170" }, "geometry": { "type": "Polygon", "coordinates": [ [ [ 169.970418405474561, -39.988766666666677 ], [ 179.969585072141228, -39.988766666666677 ], [ 179.969585072141228, -49.987933333333345 ], [ 169.970418405474561, -49.987933333333345 ], [ 169.970418405474561, -39.988766666666677 ] ] ] } }
]
}
