{"type": "FeatureCollection", "features": [{"type": "Feature", "properties": {"layer": "outline_2026", "site": "BHV-01"}, "geometry": {"type": "Polygon", "coordinates": [[[72.09319158877688, 21.796782260700315], [72.09310188890122, 21.79730706428667], [72.09283306586148, 21.797279619341214], [72.09242564998337, 21.797535379118305], [72.09232000113167, 21.797929571649377], [72.09196053690027, 21.79800261137733], [72.09195853782818, 21.79820020563401], [72.09171032228285, 21.79821670912485], [72.09185178275543, 21.798502939369993], [72.0915642287322, 21.79855099182283], [72.09151975433981, 21.79806586185023], [72.09102185065993, 21.798132555468513], [72.09079349557656, 21.79811994927864], [72.09061644325277, 21.79825610515223], [72.09067598582094, 21.79850440545808], [72.09076047572836, 21.79871065159772], [72.0905308614376, 21.798699283808], [72.08999222651589, 21.798493573421695], [72.08983682541697, 21.79872646940864], [72.08971704822007, 21.79861260264314], [72.09001750518836, 21.79823979252816], [72.08987626886737, 21.798197328963376], [72.08984448912058, 21.7980744611966], [72.08976477780585, 21.798122879141854], [72.08915375416346, 21.798080986753952], [72.08897105734749, 21.798117664189025], [72.08851828949673, 21.799063500035665], [72.09050768101775, 21.799853284147446], [72.08977085246387, 21.801498605408934], [72.08764188742033, 21.800653668210952], [72.08837680941178, 21.799016928355204], [72.0884755111953, 21.799039515740823], [72.08896125069248, 21.798048880344105], [72.08880144707143, 21.798114896824867], [72.08877803008697, 21.797981400282985], [72.08883789572879, 21.797544828408707], [72.08904221394371, 21.797273888360955], [72.08909721571986, 21.797236906135304], [72.08892099175293, 21.79701200341209], [72.0888505575792, 21.796696310708644], [72.08884136424655, 21.79655470317341], [72.0891011657, 21.796395345214723], [72.08931742389474, 21.7964055866899], [72.08932674165041, 21.796315681439168], [72.08918553908217, 21.796133676528004], [72.08927748567321, 21.795919195462453], [72.08942665800132, 21.79580952178948], [72.08957027587492, 21.79555676610521], [72.08978808025542, 21.79557898795677], [72.09012235209984, 21.795659609282232], [72.09057998876345, 21.79560589662078], [72.0908125837848, 21.79544738442446], [72.09102164000596, 21.79545067585291], [72.09117856592032, 21.795579131940336], [72.09116805655609, 21.795783567271798], [72.0909918780775, 21.79577879701924], [72.09128194764547, 21.795900810604248], [72.09133563380777, 21.796246004394206], [72.09239538666498, 21.79615193145593], [72.09237259840474, 21.79640171891514], [72.09250855778663, 21.796475298947975], [72.09259378792467, 21.796682413756873], [72.09259747798697, 21.79681464128249], [72.09319158877688, 21.796782260700315]]]}}, {"type": "Feature", "properties": {"layer": "union_2016_2026", "site": "BHV-01"}, "geometry": {"type": "Polygon", "coordinates": [[[72.09333542903578, 21.796114744578574], [72.093351143824, 21.796054199166907], [72.0932508770634, 21.795897713612504], [72.09302794121035, 21.795904341891166], [72.09301133575191, 21.79586616348152], [72.09248783136414, 21.79590408042799], [72.09224087448474, 21.795895723853054], [72.09208333096785, 21.795863266238747], [72.09179696957844, 21.79593117749551], [72.09164635702763, 21.795948031470434], [72.09128906463144, 21.795946571789877], [72.09128194764547, 21.795900810604248], [72.09118881602014, 21.795861636202513], [72.09123185488166, 21.795750294550643], [72.09117050193075, 21.795012820216254], [72.09096146733663, 21.794915851633313], [72.09080481028073, 21.795041894795435], [72.0906069823649, 21.79490926069303], [72.0905654832982, 21.79500421632729], [72.09048482883865, 21.795045019265277], [72.09041399161438, 21.79504006901195], [72.09034323050301, 21.79498052529989], [72.09019227998385, 21.795097135277356], [72.0901082580636, 21.795314098564518], [72.08994052330097, 21.795375136233048], [72.08978048482064, 21.795399120818235], [72.08954515307454, 21.79541304623509], [72.08951506613312, 21.79540961072015], [72.08932945216898, 21.79524808851654], [72.0893288914826, 21.795248025714326], [72.08931750021964, 21.79522256320283], [72.08938143145885, 21.79505398984243], [72.08927559042486, 21.795000018624297], [72.08915762561652, 21.795041246979167], [72.08916972934547, 21.795230197957363], [72.08916271839907, 21.795229412657402], [72.08917279680506, 21.795682941267163], [72.08917171222846, 21.795716743393445], [72.08916756733728, 21.79573389167175], [72.08909677063338, 21.795964545614307], [72.08880289651364, 21.796060383895828], [72.08875990944621, 21.796302672320287], [72.08885579786259, 21.796872112469703], [72.0889098826309, 21.796962211332083], [72.08892099175293, 21.79701200341209], [72.08900128419259, 21.797114475319557], [72.0890812297974, 21.797247654792148], [72.08904221394371, 21.797273888360955], [72.08883789572879, 21.797544828408707], [72.08883537830545, 21.79756318686842], [72.08881399760638, 21.797580546371954], [72.08874453682694, 21.79790579509997], [72.08873823004724, 21.797945372055196], [72.08859155060104, 21.798220237465603], [72.08860579554225, 21.798450990809137], [72.0884535354012, 21.79862587150686], [72.0883615128433, 21.798962502102402], [72.08808203008623, 21.799579347858042], [72.08806383924079, 21.79960105053958], [72.0880687360481, 21.799608688932828], [72.08757704069723, 21.800693891844496], [72.0898143800121, 21.80157109962841], [72.09011978783766, 21.800802763697696], [72.09091805593546, 21.801171933990126], [72.09161852536037, 21.800892399418853], [72.09206048197817, 21.80059559559903], [72.09224954569363, 21.800599178189536], [72.09237313433783, 21.800429898835084], [72.09231027245688, 21.800147432250675], [72.09156221212993, 21.799953948621997], [72.09161526115007, 21.799650626921323], [72.09172559257928, 21.799361265780725], [72.09172621069656, 21.799147059570434], [72.09177016295554, 21.798791707843737], [72.09272670155748, 21.79867240489917], [72.09266717355892, 21.799030706490345], [72.0928873098312, 21.79911348992182], [72.09331946501177, 21.79817218669735], [72.09334314656572, 21.79817847940588], [72.09337554476032, 21.798074064310867], [72.09336611776325, 21.798070568598924], [72.09360635998156, 21.797547274889688], [72.0936302794662, 21.79755691756079], [72.09367509134378, 21.79745668166977], [72.0937119102191, 21.79746576052463], [72.094087138605, 21.79664219173111], [72.09408471099621, 21.796529759214867], [72.09404517412578, 21.796446699849383], [72.09373403551999, 21.796110122467436], [72.0935002771131, 21.79624587924242], [72.0934620029109, 21.79637338318786], [72.09347134026852, 21.79639114118609], [72.09336822094392, 21.79638611368615], [72.09329785971933, 21.79646763879679], [72.09323505958237, 21.796363094713325], [72.09324196662706, 21.79617140669804], [72.09313367167027, 21.796168653240823], [72.0930447293677, 21.79639755103774], [72.0929585442261, 21.796436898474536], [72.09285833942575, 21.796473492722367], [72.09276060040615, 21.796413140785585], [72.0927599075763, 21.79639823228638], [72.09278063546452, 21.796396743920873], [72.09278066191912, 21.796395298104464], [72.09299981869722, 21.796374355389194], [72.0930236161106, 21.79620536334879], [72.09302039061627, 21.796202284592756], [72.09318499304268, 21.79608592848122], [72.09333542903578, 21.796114744578574]], [[72.08854702919322, 21.798860666720152], [72.0885626744347, 21.79883178363155], [72.08855575652146, 21.79886774226846], [72.08854702919322, 21.798860666720152]], [[72.09294749673363, 21.79613270684333], [72.09294407014697, 21.7961294361388], [72.0928392435168, 21.796103662704688], [72.09293153370841, 21.796102600626376], [72.09294749673363, 21.79613270684333]]]}}, {"type": "Feature", "properties": {"layer": "buffer_100m", "site": "BHV-01"}, "geometry": {"type": "Polygon", "coordinates": [[[72.0877038025405, 21.798368397939562], [72.08763721058352, 21.798435077440573], [72.08757815733694, 21.798507687795997], [72.08752724474114, 21.798585488889778], [72.08748499176156, 21.798667687695538], [72.08675006142127, 21.80030442365303], [72.0867177853353, 21.800387480434043], [72.08669435452667, 21.800473085132015], [72.08667999328544, 21.80056041835908], [72.08667483909078, 21.800648644180846], [72.08667894129448, 21.80073691811767], [72.086692260648, 21.800824395227856], [72.08671466967728, 21.80091023819527], [72.08674595390251, 21.80099362534407], [72.0867858138904, 21.80107375850376], [72.08683386811978, 21.80114987064931], [72.08688965663312, 21.801221233243197], [72.08695264543869, 21.801287163209086], [72.0870222316218, 21.801347029470364], [72.08709774911559, 21.801400258991034], [72.08717847507657, 21.80144634226094], [72.08726363680375, 21.801484838173035], [72.08939261191063, 21.802329780160466], [72.08948200264379, 21.80236049682707], [72.0895741955241, 21.802382852342642], [72.08966829618447, 21.802396629835183], [72.08976339174941, 21.80240169564848], [72.0898585596912, 21.802398000638803], [72.08995287677995, 21.802385580651645], [72.0900454280404, 21.802364556173977], [72.0901353156287, 21.802335131165364], [72.09022166754272, 21.802297591079178], [72.0903036460819, 21.802252300093315], [72.09038045597411, 21.802199697577073], [72.09045135209067, 21.802140293828657], [72.09051564667512, 21.802074665124493], [72.09057271601503, 21.80200344812857], [72.09062200649257, 21.801927333715923], [72.09066303995482, 21.801847060270248], [72.09139986010248, 21.800201735099137], [72.09143203241263, 21.800118705518447], [72.09145536868961, 21.80003313876255], [72.09146964587413, 21.79994585277793], [72.09147472750497, 21.799857681943955], [72.09147056502307, 21.79976946909691], [72.09145719823498, 21.79968205747315], [72.09143475493158, 21.799596282648576], [72.09140344966613, 21.79951296455131], [72.09136430509052, 21.799434352370454], [72.09145200240818, 21.799448007242045], [72.09154631957267, 21.799453954377984], [72.09164080787168, 21.799451273184992], [72.09173456440364, 21.799439989283734], [72.09202212014418, 21.79939193653957], [72.09211268649969, 21.79937256773994], [72.09220084451263, 21.799345171699297], [72.09228578041845, 21.799310001304043], [72.09236671019669, 21.799267381203627], [72.09244288680831, 21.799217704813614], [72.09251360709169, 21.799161430684002], [72.09257821825334, 21.79909907826625], [72.09263612389375, 21.799031223118185], [72.09268678951251, 21.798958491590984], [72.09272974744184, 21.79888155504728], [72.09276460116331, 21.79880112366388], [72.0927910289676, 21.79871793987613], [72.09279103448962, 21.798717913392142], [72.09279825696856, 21.798714514210612], [72.09288058847017, 21.798665465590595], [72.09295720308265, 21.79860891238466], [72.09302731949516, 21.79854543132387], [72.09309022266844, 21.79847566978893], [72.09314527112673, 21.798400339207994], [72.09319190349927, 21.798320207801137], [72.09322964424497, 21.798236092745945], [72.09324157112182, 21.798199537738085], [72.09328964299199, 21.798192996739253], [72.09338473072363, 21.798170689763943], [72.09347691122021, 21.798139505984434], [72.0935652369922, 21.798099765928008], [72.09364880017351, 21.798051878068655], [72.09372674185339, 21.79799633462832], [72.09379826090519, 21.797933706517277], [72.0938626222208, 21.797864637465718], [72.09391916426655, 21.797789837406818], [72.09396730588271, 21.797710075179367], [72.09400655225659, 21.797626170624923], [72.09403650000804, 21.79753898616082], [72.09405684133519, 21.797449417915526], [72.09414653782156, 21.796924613819893], [72.09415694447972, 21.79683550050381], [72.0941578402836, 21.796745862686883], [72.09414921642527, 21.79665658349584], [72.09413115788583, 21.796568542522564], [72.09410384259743, 21.796482607158236], [72.09406753968965, 21.796399624047847], [72.09402260683733, 21.79632041074901], [72.09396948673636, 21.796245747677514], [72.09390870274153, 21.796176370418763], [72.09384085371035, 21.79611296248101], [72.09376660810265, 21.79605614856163], [72.09368669739497, 21.79600648839275], [72.09360190887394, 21.795964471227073], [72.09351307788016, 21.795930511017936], [72.09342107957862, 21.79590494234122], [72.09332682033696, 21.795888017099315], [72.0933197034105, 21.79588741292349], [72.09331807113976, 21.79588157457317], [72.0932856013248, 21.795799180861522], [72.09324471835306, 21.79572012093002], [72.0931958086107, 21.795645141950313], [72.09313933434028, 21.795574952525072], [72.09307582927204, 21.79551021599143], [72.09300589357954, 21.795451544152176], [72.0929301882075, 21.79539949149407], [72.09284942862539, 21.795354549947795], [72.09276437806594, 21.795317144239057], [72.09267584031224, 21.79528762787492], [72.09258465210179, 21.795266279803062], [72.09249167521918, 21.7952533017757], [72.09239778835209, 21.795248816443017], [72.09230387878762, 21.79525286619411], [72.09208775045961, 21.79527205219881], [72.09208642590983, 21.795268076918862], [72.09204868177063, 21.795185068690376], [72.09200226141267, 21.79510598984297], [72.09194762772246, 21.795031628898002], [72.09188532548191, 21.794962727331896], [72.09181597593577, 21.794899972182876], [72.09165905019283, 21.7947715166903], [72.091582947149, 21.794715268652165], [72.09150119044503, 21.794666427949007], [72.09141460356471, 21.794625486519454], [72.09132405864058, 21.79459285673786], [72.09123046766959, 21.79456886726091], [72.0911347733278, 21.794553759717477], [72.09103793947581, 21.79454768627501], [72.09082888456419, 21.79454439486682], [72.09073953933044, 21.794546846634407], [72.09065081815291, 21.794556992254314], [72.09056347902236, 21.79457474504727], [72.09047826812272, 21.79459995334195], [72.0903959134563, 21.794632401770727], [72.09031711862437, 21.794671813109574], [72.09024255681626, 21.794717850646375], [72.09021166210951, 21.794738905199143], [72.09018517729447, 21.794742013707694], [72.09002988465909, 21.794704559382836], [72.0898930989515, 21.794681211524054], [72.08967529591168, 21.794658989808543], [72.0895794663836, 21.79465368902944], [72.08948354628701, 21.79465728779981], [72.08938848087341, 21.794669750655306], [72.08929520697232, 21.79469095477977], [72.08920464375957, 21.794720691215446], [72.08911768369975, 21.794758666922085], [72.08903518375175, 21.794804507664583], [72.08895795692398, 21.794857761700726], [72.08888676426281, 21.794917904232726], [72.08882230735283, 21.794984342578655], [72.08876522140291, 21.795056422012884], [72.08871606898637, 21.79513343221791], [72.08866713977663, 21.79521954283663], [72.0886032440066, 21.795271797528045], [72.08853454307028, 21.795341089446257], [72.08847396531715, 21.795416702326243], [72.08842217310584, 21.795497809431346], [72.08837973273845, 21.795583523950707], [72.08828778502544, 21.795798004525334], [72.08827933842615, 21.79582100216655], [72.08823585379305, 21.795850541751072], [72.08816673356871, 21.79590765613992], [72.08810375806132, 21.795970664071536], [72.08804750087747, 21.796038991652267], [72.08799847443355, 21.796112016534828], [72.08795712528843, 21.796189073586607], [72.08792383007568, 21.796269460947684], [72.0878988920727, 21.796352446423462], [72.08788253843802, 21.796437274153615], [72.0878749181417, 21.796523171496585], [72.08787610060783, 21.796609356067027], [72.08788529299542, 21.796750963655], [72.0879038518116, 21.79688052728503], [72.08796553389327, 21.797157000487285], [72.08795454587566, 21.797177316510982], [72.08792051188992, 21.797259147153596], [72.0878951458621, 21.797343677107044], [72.08787868748036, 21.797430107684058], [72.08781881898011, 21.79786667921673], [72.08781144318668, 21.79795359687092], [72.0878130766124, 21.79804077369641], [72.08782370404893, 21.798127397147727], [72.08783303983587, 21.798180621038238], [72.08776584438367, 21.798317660099766], [72.0877038025405, 21.798368397939562]], [[72.09310188890122, 21.79730706428667], [72.09283306586148, 21.797279619341214], [72.09242564998337, 21.797535379118305], [72.09232000113167, 21.797929571649377], [72.09196053690027, 21.79800261137733], [72.09195853782818, 21.79820020563401], [72.09171032228285, 21.79821670912485], [72.09185178275543, 21.798502939369993], [72.0915642287322, 21.79855099182283], [72.09151975433981, 21.79806586185023], [72.09102185065993, 21.798132555468513], [72.09079349557656, 21.79811994927864], [72.09061644325277, 21.79825610515223], [72.09067598582094, 21.79850440545808], [72.09076047572836, 21.79871065159772], [72.0905308614376, 21.798699283808], [72.08999222651589, 21.798493573421695], [72.08983682541697, 21.79872646940864], [72.08971704822007, 21.79861260264314], [72.09001750518836, 21.79823979252816], [72.08987626886737, 21.798197328963376], [72.08984448912058, 21.7980744611966], [72.08976477780585, 21.798122879141854], [72.08915375416346, 21.798080986753952], [72.08897105734749, 21.798117664189025], [72.08851828949673, 21.799063500035665], [72.09050768101775, 21.799853284147446], [72.08977085246387, 21.801498605408934], [72.08764188742033, 21.800653668210952], [72.08837680941178, 21.799016928355204], [72.0884755111953, 21.799039515740823], [72.08896125069248, 21.798048880344105], [72.08880144707143, 21.798114896824867], [72.08877803008697, 21.797981400282985], [72.08883789572879, 21.797544828408707], [72.08904221394371, 21.797273888360955], [72.08909721571986, 21.797236906135304], [72.08892099175293, 21.79701200341209], [72.0888505575792, 21.796696310708644], [72.08884136424655, 21.79655470317341], [72.0891011657, 21.796395345214723], [72.08931742389474, 21.7964055866899], [72.08932674165041, 21.796315681439168], [72.08918553908217, 21.796133676528004], [72.08927748567321, 21.795919195462453], [72.08942665800132, 21.79580952178948], [72.08957027587492, 21.79555676610521], [72.08978808025542, 21.79557898795677], [72.09012235209984, 21.795659609282232], [72.09057998876345, 21.79560589662078], [72.0908125837848, 21.79544738442446], [72.09102164000596, 21.79545067585291], [72.09117856592032, 21.795579131940336], [72.09116805655609, 21.795783567271798], [72.0909918780775, 21.79577879701924], [72.09128194764547, 21.795900810604248], [72.09133563380777, 21.796246004394206], [72.09239538666498, 21.79615193145593], [72.09237259840474, 21.79640171891514], [72.09250855778663, 21.796475298947975], [72.09259378792467, 21.796682413756873], [72.09259747798697, 21.79681464128249], [72.09319158877688, 21.796782260700315], [72.09310188890122, 21.79730706428667]]]}}, {"type": "Feature", "properties": {"layer": "buffer_200m", "site": "BHV-01"}, "geometry": {"type": "Polygon", "coordinates": [[[72.08677951090695, 21.797998443345016], [72.08667768515787, 21.798154045033485], [72.0865931784343, 21.7983184422074], [72.08585823974553, 21.799955174266525], [72.08579368666472, 21.80012128747993], [72.08574682400817, 21.800292496615], [72.08571810039562, 21.800467162905992], [72.08570779082869, 21.800643614490323], [72.08571599405592, 21.800820162410993], [72.08574263162517, 21.800995116782786], [72.08578744863193, 21.801166802967682], [72.08585001615671, 21.801333577604435], [72.08592973536828, 21.8014938443391], [72.08602584325352, 21.80164606910576], [72.0861374199192, 21.80178879481119], [72.08626339739575, 21.801920655282945], [72.08640256985889, 21.80204038834721], [72.08655360517116, 21.802146847911263], [72.08671505763324, 21.802239014934834], [72.08688538182253, 21.802316007185347], [72.08901436699296, 21.803160953962394], [72.08919314936753, 21.803222387650266], [72.08937753617018, 21.803267098947632], [72.08956573862643, 21.803294654100185], [72.08975593094128, 21.80330478578903], [72.08994626801346, 21.803297395724268], [72.09013490333716, 21.80327255559865], [72.09032000691754, 21.803230506391994], [72.09049978302579, 21.803171656033136], [72.09067248762167, 21.80309657544207], [72.09083644527435, 21.80300599299078], [72.09099006541723, 21.802900787436432], [72.09113185777917, 21.80278197939563], [72.09126044684224, 21.802650721442294], [72.09137458518568, 21.802508286925487], [72.09147316558685, 21.80235605761562], [72.09155523176135, 21.80219551029883], [72.09229204350245, 21.80055018121821], [72.09235638721297, 21.80038412170928], [72.09239708407769, 21.800234895635484], [72.09254991035074, 21.800187403205218], [72.09271978294343, 21.800117062019137], [72.09288164310188, 21.80003182136156], [72.09303399672582, 21.79993246808046], [72.09317543747721, 21.799819919294244], [72.0933046597623, 21.799695213925293], [72.0934204707835, 21.799559503108895], [72.0935218015495, 21.79941403956656], [72.09359037042499, 21.799291233207807], [72.09359441104216, 21.799288250606374], [72.09373464390505, 21.799161287924118], [72.09386045004348, 21.79902176430153], [72.09391885609594, 21.79894183849827], [72.09402859018154, 21.79889246619369], [72.09419571709998, 21.7987966899729], [72.09435160078372, 21.79868560254905], [72.09449463896613, 21.798560345764997], [72.09462336142776, 21.798422207104153], [72.0947364451083, 21.798272606455747], [72.09483272770507, 21.798113081519112], [72.09491121961875, 21.797945271997133], [72.09497111412333, 21.797770902741384], [72.0950117956559, 21.797591766022265], [72.09510148875293, 21.79706696141741], [72.09512230089585, 21.796888734666464], [72.09512409130215, 21.796709459022395], [72.09510684240327, 21.79653090073904], [72.09507072420786, 21.79635481899627], [72.09501609262408, 21.796182948568504], [72.09494348595071, 21.796016982733832], [72.09485361957117, 21.795858556592325], [72.09474737890368, 21.795709230957605], [72.09462581067623, 21.795570476980537], [72.0944901126131, 21.795443661656382], [72.09434162163404, 21.795330034358155], [72.09418180068279, 21.795230714528937], [72.09401222431438, 21.7951466806541], [72.09399815032495, 21.795141300162896], [72.09399622492683, 21.79513834853614], [72.09388327605855, 21.794997970204342], [72.09375626581931, 21.794868497674987], [72.0936163945601, 21.794751154533387], [72.09346498416558, 21.794647049732813], [72.09330346556155, 21.794557167115155], [72.09313336519232, 21.794482356113942], [72.09295629059577, 21.79442332372759], [72.0927739152126, 21.794380627838564], [72.09260131685873, 21.794356535985276], [72.09259207899763, 21.79434631965435], [72.0924533799435, 21.794220809910666], [72.09229645437198, 21.794092355012932], [72.0921442485635, 21.793979859479172], [72.09198073566489, 21.793882178578897], [72.0918075626234, 21.793800296169067], [72.09162647367508, 21.7937350369803], [72.09143929277775, 21.79368705831094], [72.09124790524152, 21.79365684340729], [72.09105423874146, 21.79364469659689], [72.09084518513934, 21.79364140520896], [72.09066649578897, 21.793646308713985], [72.09048905451989, 21.793666599829905], [72.09031437727666, 21.793702105202417], [72.09014395639235, 21.793752521496145], [72.09004513039558, 21.79379145975784], [72.08999811633902, 21.793783434927086], [72.0897803146398, 21.793761213347622], [72.08958865677691, 21.7937506118545], [72.08939681778152, 21.793757809351032], [72.08920668810958, 21.79378273491024], [72.08902014137463, 21.79382514290577], [72.08883901588644, 21.79388461543208], [72.0886650965373, 21.79396056642224], [72.08850009721465, 21.794052247422666], [72.08834564391285, 21.794158754968002], [72.08820325871068, 21.79427903948339], [72.0880743447726, 21.794411915626522], [72.087960172521, 21.794556073967744], [72.08789407804073, 21.794659627492162], [72.08779160642793, 21.794762980049075], [72.08767045056456, 21.79491420525191], [72.0875668655404, 21.79507641895116], [72.08748198398594, 21.795247847547397], [72.08746480135358, 21.79528792785165], [72.08736615785469, 21.795386621635654], [72.0872536431902, 21.795523276284726], [72.08715558979908, 21.795669325572632], [72.08707289081731, 21.79582343925146], [72.08700629953711, 21.795984213616805], [72.08695642254446, 21.796150184292472], [72.08692371419221, 21.796319839567804], [72.08690847245978, 21.796491634166443], [72.08691083623697, 21.79666400332087], [72.0869200276795, 21.79680561096158], [72.08695714362351, 21.797064738432574], [72.08696507355891, 21.797100283324564], [72.08695239862745, 21.797142520421176], [72.08691948075924, 21.797315381389005], [72.08685960940059, 21.79775195258003], [72.08684558544384, 21.79791720036596], [72.08677951090695, 21.797998443345016]], [[72.09310188890122, 21.79730706428667], [72.09283306586148, 21.797279619341214], [72.09242564998337, 21.797535379118305], [72.09232000113167, 21.797929571649377], [72.09196053690027, 21.79800261137733], [72.09195853782818, 21.79820020563401], [72.09171032228285, 21.79821670912485], [72.09185178275543, 21.798502939369993], [72.0915642287322, 21.79855099182283], [72.09151975433981, 21.79806586185023], [72.09102185065993, 21.798132555468513], [72.09079349557656, 21.79811994927864], [72.09061644325277, 21.79825610515223], [72.09067598582094, 21.79850440545808], [72.09076047572836, 21.79871065159772], [72.0905308614376, 21.798699283808], [72.08999222651589, 21.798493573421695], [72.08983682541697, 21.79872646940864], [72.08971704822007, 21.79861260264314], [72.09001750518836, 21.79823979252816], [72.08987626886737, 21.798197328963376], [72.08984448912058, 21.7980744611966], [72.08976477780585, 21.798122879141854], [72.08915375416346, 21.798080986753952], [72.08897105734749, 21.798117664189025], [72.08851828949673, 21.799063500035665], [72.09050768101775, 21.799853284147446], [72.08977085246387, 21.801498605408934], [72.08764188742033, 21.800653668210952], [72.08837680941178, 21.799016928355204], [72.0884755111953, 21.799039515740823], [72.08896125069248, 21.798048880344105], [72.08880144707143, 21.798114896824867], [72.08877803008697, 21.797981400282985], [72.08883789572879, 21.797544828408707], [72.08904221394371, 21.797273888360955], [72.08909721571986, 21.797236906135304], [72.08892099175293, 21.79701200341209], [72.0888505575792, 21.796696310708644], [72.08884136424655, 21.79655470317341], [72.0891011657, 21.796395345214723], [72.08931742389474, 21.7964055866899], [72.08932674165041, 21.796315681439168], [72.08918553908217, 21.796133676528004], [72.08927748567321, 21.795919195462453], [72.08942665800132, 21.79580952178948], [72.08957027587492, 21.79555676610521], [72.08978808025542, 21.79557898795677], [72.09012235209984, 21.795659609282232], [72.09057998876345, 21.79560589662078], [72.0908125837848, 21.79544738442446], [72.09102164000596, 21.79545067585291], [72.09117856592032, 21.795579131940336], [72.09116805655609, 21.795783567271798], [72.0909918780775, 21.79577879701924], [72.09128194764547, 21.795900810604248], [72.09133563380777, 21.796246004394206], [72.09239538666498, 21.79615193145593], [72.09237259840474, 21.79640171891514], [72.09250855778663, 21.796475298947975], [72.09259378792467, 21.796682413756873], [72.09259747798697, 21.79681464128249], [72.09319158877688, 21.796782260700315], [72.09310188890122, 21.79730706428667]]]}}, {"type": "Feature", "properties": {"layer": "river", "name": "", "osm": "way/554109487", "distance_m": 2210.6}, "geometry": {"type": "LineString", "coordinates": [[72.08633090258256, 21.823820964395825], [72.097714, 21.820050499999997], [72.10200390543969, 21.82094181324661]]}}, {"type": "Feature", "properties": {"layer": "highway", "name": "Ahmedabad\u2013Dholera Expressway", "osm": "way/224973487", "distance_m": 1698.0}, "geometry": {"type": "LineString", "coordinates": [[72.0681349, 21.802554900000008], [72.068908, 21.8008961], [72.0699757, 21.798641], [72.0725447, 21.79313760000001], [72.07334749999998, 21.791428500000006], [72.07401640000002, 21.789896400000003], [72.0747786, 21.788064100000003], [72.0750539, 21.787395200000006], [72.0766718, 21.783463199999996], [72.0767271, 21.783325699999995], [72.0768551, 21.783007200000004]]}}, {"type": "Feature", "properties": {"layer": "highway", "name": "Ahmedabad\u2013Dholera Expressway", "osm": "way/224973490", "distance_m": 1913.1}, "geometry": {"type": "LineString", "coordinates": [[72.0768551, 21.783007200000004], [72.0770025, 21.7826787]]}}, {"type": "Feature", "properties": {"layer": "highway", "name": "Ahmedabad\u2013Dholera Expressway", "osm": "way/224973500", "distance_m": 2028.1}, "geometry": {"type": "LineString", "coordinates": [[72.06753710000001, 21.8039102], [72.0681349, 21.802554900000008]]}}, {"type": "Feature", "properties": {"layer": "highway", "name": "Ahmedabad\u2013Dholera Expressway", "osm": "way/224973512", "distance_m": 2110.0}, "geometry": {"type": "LineString", "coordinates": [[72.06523522820484, 21.809132328125852], [72.0657038, 21.808135600000007], [72.06615089999998, 21.807024100000007], [72.0667466, 21.805574900000003], [72.06753710000001, 21.8039102]]}}, {"type": "Feature", "properties": {"layer": "highway", "name": "Ahmedabad\u2013Dholera Expressway", "osm": "way/224973535", "distance_m": 1929.4}, "geometry": {"type": "LineString", "coordinates": [[72.0770025, 21.7826787], [72.0774438, 21.7814497], [72.0775973, 21.780770800000006], [72.0780189, 21.777316299999995], [72.0780612, 21.7769624], [72.07820834273221, 21.775654422805932]]}}, {"type": "Feature", "properties": {"layer": "highway", "name": "Ahmedabad\u2013Dholera Expressway", "osm": "way/1353881145", "distance_m": 1944.2}, "geometry": {"type": "LineString", "coordinates": [[72.07807035785689, 21.775725112591108], [72.0780408, 21.77598370000001], [72.07802240000001, 21.776138000000003], [72.0778022, 21.778146200000005], [72.0776942, 21.77906160000001], [72.0775485, 21.780215300000002], [72.0774711, 21.780820300000006], [72.0772685, 21.781527499999996], [72.0771487, 21.7819174], [72.0768701, 21.782610000000002]]}}, {"type": "Feature", "properties": {"layer": "highway", "name": "Ahmedabad\u2013Dholera Expressway", "osm": "way/1353888240", "distance_m": 1925.6}, "geometry": {"type": "LineString", "coordinates": [[72.0768701, 21.782610000000002], [72.0767127, 21.782978]]}}, {"type": "Feature", "properties": {"layer": "highway", "name": "Ahmedabad\u2013Dholera Expressway", "osm": "way/1353888241", "distance_m": 1712.7}, "geometry": {"type": "LineString", "coordinates": [[72.0767127, 21.782978], [72.07661350000001, 21.7832241], [72.076575, 21.783317900000007], [72.0762246, 21.784173000000006], [72.0758587, 21.785098200000004], [72.0755204, 21.785931700000003], [72.0751792, 21.78671050000001], [72.0745666, 21.788286200000005], [72.07409690000001, 21.78934720000001], [72.0733973, 21.790964100000004], [72.0728339, 21.7921811], [72.072715, 21.792437900000003], [72.07234400000002, 21.793222600000007], [72.071304, 21.795447999999997], [72.0706573, 21.7968288], [72.0699924, 21.798229400000004], [72.0693672, 21.799610200000004], [72.0686853, 21.801035999999996], [72.0680037, 21.8024975]]}}, {"type": "Feature", "properties": {"layer": "highway", "name": "Ahmedabad\u2013Dholera Expressway", "osm": "way/1353888243", "distance_m": 2125.6}, "geometry": {"type": "LineString", "coordinates": [[72.06737210000001, 21.8038487], [72.0669486, 21.8047774], [72.0662128, 21.8064525], [72.0657849, 21.807513300000004], [72.0653794, 21.808514800000005], [72.06516644691676, 21.808948922143852]]}}, {"type": "Feature", "properties": {"layer": "highway", "name": "Ahmedabad\u2013Dholera Expressway", "osm": "way/1353888244", "distance_m": 2040.9}, "geometry": {"type": "LineString", "coordinates": [[72.0680037, 21.8024975], [72.06737210000001, 21.8038487]]}}, {"type": "Feature", "properties": {"layer": "residential", "name": "", "osm": "way/272761829", "distance_m": 2403.6}, "geometry": {"type": "MultiPolygon", "coordinates": [[[[72.0759523, 21.777966100000004], [72.07615816426924, 21.776801751474903], [72.07508316800347, 21.777482199635692], [72.07450171214673, 21.77792999650536], [72.0759523, 21.777966100000004]]], [[[72.0776042, 21.776256000000004], [72.0786333, 21.7760297], [72.07869894814954, 21.775403083676338], [72.07701256935876, 21.77626701251222], [72.0776042, 21.776256000000004]]]]}}, {"type": "Feature", "properties": {"layer": "wetland", "name": "", "osm": "way/745642637", "distance_m": 1770.5}, "geometry": {"type": "Polygon", "coordinates": [[[72.1095635, 21.7833388], [72.1118694, 21.7890701], [72.10895589999998, 21.790544500000006], [72.1153904, 21.8007243], [72.1165227, 21.800019200000005], [72.11708333430049, 21.800191017725655], [72.11732308934639, 21.798152254346263], [72.11735110401138, 21.79595208126264], [72.11714966917269, 21.79375980882309], [72.11672070826182, 21.791596257176412], [72.11606830508121, 21.789481972796143], [72.11519866464859, 21.787437033407137], [72.11412005392972, 21.785480857395804], [72.11284272303558, 21.783632019510293], [72.11188609856549, 21.782505479785804], [72.1095635, 21.7833388]]]}}, {"type": "Feature", "properties": {"layer": "wetland", "name": "", "osm": "way/745642638", "distance_m": 996.1}, "geometry": {"type": "Polygon", "coordinates": [[[72.1065672, 21.78549290000001], [72.10818270000001, 21.7898778], [72.1080446, 21.792070300000002], [72.10250759999998, 21.794493400000004], [72.10634620000002, 21.801903699999997], [72.1121317, 21.798506300000003], [72.10841739999998, 21.791467700000002], [72.1084588, 21.790262499999997], [72.1110271, 21.788929100000004], [72.1090526, 21.7839927], [72.1065672, 21.78549290000001]]]}}, {"type": "Feature", "properties": {"layer": "wetland", "name": "", "osm": "way/745642639", "distance_m": 1018.8}, "geometry": {"type": "Polygon", "coordinates": [[[72.1075199, 21.790762499999996], [72.1053244, 21.782338699999997], [72.1006436, 21.7831336], [72.10180339999998, 21.792313900000003], [72.1075199, 21.790762499999996]]]}}, {"type": "Feature", "properties": {"layer": "wetland", "name": "", "osm": "way/749563837", "distance_m": 2004.6}, "geometry": {"type": "Polygon", "coordinates": [[[72.0718094, 21.811101500000003], [72.065677132682, 21.81002560872601], [72.06623855132699, 21.811154588017274], [72.06743973487947, 21.81305753430741], [72.06883433931192, 21.814841754454], [72.0702552341434, 21.816329182423093], [72.0718094, 21.811101500000003]]]}}, {"type": "Feature", "properties": {"layer": "tidal", "name": "", "osm": "way/745642637", "distance_m": 1770.5}, "geometry": {"type": "Polygon", "coordinates": [[[72.1095635, 21.7833388], [72.1118694, 21.7890701], [72.10895589999998, 21.790544500000006], [72.1153904, 21.8007243], [72.1165227, 21.800019200000005], [72.11708333430049, 21.800191017725655], [72.11732308934639, 21.798152254346263], [72.11735110401138, 21.79595208126264], [72.11714966917269, 21.79375980882309], [72.11672070826182, 21.791596257176412], [72.11606830508121, 21.789481972796143], [72.11519866464859, 21.787437033407137], [72.11412005392972, 21.785480857395804], [72.11284272303558, 21.783632019510293], [72.11188609856549, 21.782505479785804], [72.1095635, 21.7833388]]]}}, {"type": "Feature", "properties": {"layer": "tidal", "name": "", "osm": "way/745642638", "distance_m": 996.1}, "geometry": {"type": "Polygon", "coordinates": [[[72.1065672, 21.78549290000001], [72.10818270000001, 21.7898778], [72.1080446, 21.792070300000002], [72.10250759999998, 21.794493400000004], [72.10634620000002, 21.801903699999997], [72.1121317, 21.798506300000003], [72.10841739999998, 21.791467700000002], [72.1084588, 21.790262499999997], [72.1110271, 21.788929100000004], [72.1090526, 21.7839927], [72.1065672, 21.78549290000001]]]}}, {"type": "Feature", "properties": {"layer": "tidal", "name": "", "osm": "way/745642639", "distance_m": 1018.8}, "geometry": {"type": "Polygon", "coordinates": [[[72.1075199, 21.790762499999996], [72.1053244, 21.782338699999997], [72.1006436, 21.7831336], [72.10180339999998, 21.792313900000003], [72.1075199, 21.790762499999996]]]}}, {"type": "Feature", "properties": {"layer": "tidal", "name": "", "osm": "way/749563837", "distance_m": 2004.6}, "geometry": {"type": "Polygon", "coordinates": [[[72.0718094, 21.811101500000003], [72.065677132682, 21.81002560872601], [72.06623855132699, 21.811154588017274], [72.06743973487947, 21.81305753430741], [72.06883433931192, 21.814841754454], [72.0702552341434, 21.816329182423093], [72.0718094, 21.811101500000003]]]}}, {"type": "Feature", "properties": {"layer": "nonresidential_zone"}, "geometry": {"type": "MultiPolygon", "coordinates": [[[[72.1074992, 21.7786016], [72.1055334, 21.778066400000004], [72.1052652287889, 21.777062988642736], [72.1037449289736, 21.776216996554375], [72.10332126809242, 21.776030676473116], [72.1030088358135, 21.775844038561754], [72.10271891030068, 21.775706958104546], [72.1013755, 21.775896900000003], [72.1022195, 21.779987400000007], [72.1045866, 21.779643300000007], [72.1047307, 21.7810387], [72.1078079, 21.780493900000003], [72.1074992, 21.7786016]]], [[[72.09596429999999, 21.79313350000001], [72.09398270000001, 21.792738800000006], [72.09367990000001, 21.79564430000001], [72.0948115, 21.795624600000007], [72.09596429999999, 21.79313350000001]]]]}}, {"type": "Feature", "properties": {"layer": "building", "distance_m": 368.6, "source": "Google Open Buildings", "in_industrial_zone": true, "ghsl_2018": 1}, "geometry": {"type": "Polygon", "coordinates": [[[72.09485630000002, 21.793697700000006], [72.09490510000002, 21.793705600000006], [72.09489780000001, 21.793745], [72.09484900000001, 21.793737100000005], [72.09485630000002, 21.793697700000006]]]}}, {"type": "Feature", "properties": {"layer": "building", "distance_m": 399.5, "source": "Google Open Buildings", "in_industrial_zone": true, "ghsl_2018": 1}, "geometry": {"type": "Polygon", "coordinates": [[[72.09459900000002, 21.793042], [72.09464700000001, 21.793043300000004], [72.09464260000001, 21.793186800000004], [72.09459469999999, 21.79318550000001], [72.09459900000002, 21.793042]]]}}, {"type": "Feature", "properties": {"layer": "building", "distance_m": 416.3, "source": "Google Open Buildings", "in_industrial_zone": true, "ghsl_2018": 1}, "geometry": {"type": "Polygon", "coordinates": [[[72.094525, 21.79291020000001], [72.0946329, 21.7929152], [72.09463030000002, 21.792964499999997], [72.09452240000002, 21.792959500000006], [72.094525, 21.79291020000001]]]}}, {"type": "Feature", "properties": {"layer": "building", "distance_m": 359.3, "source": "Google Open Buildings", "in_industrial_zone": true, "ghsl_2018": 1}, "geometry": {"type": "Polygon", "coordinates": [[[72.09456269999998, 21.793474299999996], [72.09455980000001, 21.793531300000005], [72.09443720000002, 21.7935259], [72.09443860000002, 21.7934991], [72.09451980000001, 21.793502700000005], [72.0945213, 21.7934724], [72.09456269999998, 21.793474299999996]]]}}, {"type": "Feature", "properties": {"layer": "building", "distance_m": 369.9, "source": "Google Open Buildings", "in_industrial_zone": true, "ghsl_2018": 1}, "geometry": {"type": "Polygon", "coordinates": [[[72.09457760000001, 21.793384600000003], [72.09458140000001, 21.793443400000005], [72.09449630000002, 21.793448200000007], [72.09449250000002, 21.793389300000005], [72.09457760000001, 21.793384600000003]]]}}, {"type": "Feature", "properties": {"layer": "building", "distance_m": 358.3, "source": "Google Open Buildings", "in_industrial_zone": true, "ghsl_2018": 1}, "geometry": {"type": "Polygon", "coordinates": [[[72.09453400000001, 21.7935302], [72.09455980000001, 21.793531400000003], [72.09455610000002, 21.793604600000002], [72.09453030000002, 21.793603500000003], [72.09453400000001, 21.7935302]]]}}, {"type": "Feature", "properties": {"layer": "building", "distance_m": 366.5, "source": "Google Open Buildings", "in_industrial_zone": true, "ghsl_2018": 1}, "geometry": {"type": "Polygon", "coordinates": [[[72.09456120000002, 21.7935046], [72.0946545, 21.7935087], [72.09465320000001, 21.7935355], [72.09455980000001, 21.793531400000003], [72.09456120000002, 21.7935046]]]}}, {"type": "Feature", "properties": {"layer": "building", "distance_m": 347.4, "source": "Google Open Buildings", "in_industrial_zone": true, "ghsl_2018": 1}, "geometry": {"type": "Polygon", "coordinates": [[[72.09443620000002, 21.793546300000006], [72.0944594, 21.7935473], [72.09445390000002, 21.793657], [72.0944306, 21.793656], [72.09443620000002, 21.793546300000006]]]}}, {"type": "Feature", "properties": {"layer": "building", "distance_m": 344.8, "source": "Google Open Buildings", "in_industrial_zone": true, "ghsl_2018": 1}, "geometry": {"type": "Polygon", "coordinates": [[[72.09417090000001, 21.7934154], [72.09436890000002, 21.793418900000002], [72.09436690000001, 21.793518399999996], [72.0941689, 21.7935149], [72.09417090000001, 21.7934154]]]}}, {"type": "Feature", "properties": {"layer": "building", "distance_m": 328.2, "source": "Google Open Buildings", "in_industrial_zone": true, "ghsl_2018": 0}, "geometry": {"type": "Polygon", "coordinates": [[[72.0941038, 21.793607500000007], [72.09414400000001, 21.793609900000007], [72.09414100000001, 21.793654600000004], [72.09410070000001, 21.79365220000001], [72.0941038, 21.793607500000007]]]}}, {"type": "Feature", "properties": {"layer": "building", "distance_m": 314.6, "source": "Google Open Buildings", "in_industrial_zone": true, "ghsl_2018": 0}, "geometry": {"type": "Polygon", "coordinates": [[[72.0940118, 21.793705100000007], [72.09405420000002, 21.793707500000004], [72.0940517, 21.793745700000002], [72.09400930000001, 21.793743300000006], [72.0940118, 21.793705100000007]]]}}, {"type": "Feature", "properties": {"layer": "building", "distance_m": 374.2, "source": "Google Open Buildings", "in_industrial_zone": true, "ghsl_2018": 1}, "geometry": {"type": "Polygon", "coordinates": [[[72.0940269, 21.79309870000001], [72.0940699, 21.793096600000002], [72.094072, 21.79313430000001], [72.09402900000002, 21.7931364], [72.0940269, 21.79309870000001]]]}}, {"type": "Feature", "properties": {"layer": "building", "distance_m": 369.1, "source": "Google Open Buildings", "in_industrial_zone": true, "ghsl_2018": 1}, "geometry": {"type": "Polygon", "coordinates": [[[72.09402720000001, 21.7931401], [72.09411840000001, 21.793143499999996], [72.0941165, 21.793189700000006], [72.0940252, 21.793186300000006], [72.09402720000001, 21.7931401]]]}}, {"type": "Feature", "properties": {"layer": "building", "distance_m": 387.2, "source": "Google Open Buildings", "in_industrial_zone": true, "ghsl_2018": 1}, "geometry": {"type": "Polygon", "coordinates": [[[72.09403790000002, 21.79293980000001], [72.0941111, 21.792937500000004], [72.09411260000002, 21.792980500000002], [72.09408230000001, 21.792981500000007], [72.09408330000001, 21.793009399999995], [72.09404050000002, 21.79301080000001], [72.09403790000002, 21.79293980000001]]]}}, {"type": "Feature", "properties": {"layer": "building", "distance_m": 395.9, "source": "Google Open Buildings", "in_industrial_zone": true, "ghsl_2018": 1}, "geometry": {"type": "Polygon", "coordinates": [[[72.0942137, 21.7930056], [72.09421190000002, 21.792975300000002], [72.09434200000001, 21.792968600000002], [72.0943438, 21.7929989], [72.0942137, 21.7930056]]]}}, {"type": "Feature", "properties": {"layer": "building", "distance_m": 378.2, "source": "Google Open Buildings", "in_industrial_zone": true, "ghsl_2018": 1}, "geometry": {"type": "Polygon", "coordinates": [[[72.09422010000002, 21.793113399999996], [72.0942925, 21.793109600000005], [72.09429740000002, 21.793190700000004], [72.09422490000001, 21.7931945], [72.09422010000002, 21.793113399999996]]]}}, {"type": "Feature", "properties": {"layer": "building", "distance_m": 385.8, "source": "Google Open Buildings", "in_industrial_zone": true, "ghsl_2018": 1}, "geometry": {"type": "Polygon", "coordinates": [[[72.0944344, 21.7930521], [72.09443740000002, 21.793102], [72.09422010000002, 21.7931133], [72.0942171, 21.7930634], [72.09439650000002, 21.793054099999996], [72.0944344, 21.7930521]]]}}, {"type": "Feature", "properties": {"layer": "building", "distance_m": 382.4, "source": "Google Open Buildings", "in_industrial_zone": true, "ghsl_2018": 1}, "geometry": {"type": "Polygon", "coordinates": [[[72.09443730000001, 21.793102099999995], [72.09444220000002, 21.793183199999998], [72.09429740000002, 21.793190700000004], [72.0942925, 21.793109600000005], [72.09443730000001, 21.793102099999995]]]}}, {"type": "Feature", "properties": {"layer": "building", "distance_m": 400.3, "source": "Google Open Buildings", "in_industrial_zone": true, "ghsl_2018": 1}, "geometry": {"type": "Polygon", "coordinates": [[[72.0943927, 21.792993500000005], [72.09442530000001, 21.792992800000015], [72.09442680000001, 21.793055], [72.09439430000002, 21.793055700000004], [72.0943927, 21.792993500000005]]]}}, {"type": "Feature", "properties": {"layer": "building", "distance_m": 144.2, "source": "Google Open Buildings", "in_industrial_zone": true, "ghsl_2018": 0}, "geometry": {"type": "Polygon", "coordinates": [[[72.09382250000002, 21.795593699999998], [72.0938635, 21.795594400000002], [72.093863, 21.795621000000004], [72.0938219, 21.7956203], [72.09382250000002, 21.795593699999998]]]}}, {"type": "Feature", "properties": {"layer": "building", "distance_m": 224.7, "source": "Google Open Buildings", "in_industrial_zone": true, "ghsl_2018": 1}, "geometry": {"type": "Polygon", "coordinates": [[[72.0939667, 21.794715], [72.0940241, 21.794719300000004], [72.0940213, 21.794752099999993], [72.09396380000001, 21.794747799999996], [72.0939667, 21.794715]]]}}, {"type": "Feature", "properties": {"layer": "building", "distance_m": 312.0, "source": "Google Open Buildings", "in_industrial_zone": true, "ghsl_2018": 0}, "geometry": {"type": "Polygon", "coordinates": [[[72.09402120000001, 21.793735000000005], [72.09406420000002, 21.7937382], [72.09406070000001, 21.7937798], [72.09401760000002, 21.793776600000008], [72.09402120000001, 21.793735000000005]]]}}, {"type": "Feature", "properties": {"layer": "building", "distance_m": 291.0, "source": "Google Open Buildings", "in_industrial_zone": true, "ghsl_2018": 1}, "geometry": {"type": "Polygon", "coordinates": [[[72.0940033, 21.793962600000008], [72.09407610000001, 21.793965899999996], [72.0940744, 21.793997000000005], [72.0940017, 21.793993600000007], [72.0940033, 21.793962600000008]]]}}, {"type": "Feature", "properties": {"layer": "building", "distance_m": 284.0, "source": "Google Open Buildings", "in_industrial_zone": true, "ghsl_2018": 1}, "geometry": {"type": "Polygon", "coordinates": [[[72.094029, 21.794057000000002], [72.09407490000001, 21.7940574], [72.0940746, 21.794090100000005], [72.09402860000002, 21.794089700000004], [72.094029, 21.794057000000002]]]}}, {"type": "Feature", "properties": {"layer": "building", "distance_m": 278.9, "source": "Google Open Buildings", "in_industrial_zone": true, "ghsl_2018": 1}, "geometry": {"type": "Polygon", "coordinates": [[[72.09409870000002, 21.793970700000003], [72.0943746, 21.7939934], [72.09435460000002, 21.794206199999998], [72.0940786, 21.794183500000003], [72.09409870000002, 21.793970700000003]]]}}, {"type": "Feature", "properties": {"layer": "building", "distance_m": 265.4, "source": "Google Open Buildings", "in_industrial_zone": true, "ghsl_2018": 1}, "geometry": {"type": "Polygon", "coordinates": [[[72.0940771, 21.7941999], [72.09435300000001, 21.794222500000004], [72.09433980000001, 21.7943627], [72.0942978, 21.794359200000002], [72.0942986, 21.794350700000003], [72.09406470000002, 21.794331500000006], [72.0940771, 21.7941999]]]}}, {"type": "Feature", "properties": {"layer": "building", "distance_m": 253.4, "source": "Google Open Buildings", "in_industrial_zone": true, "ghsl_2018": 1}, "geometry": {"type": "Polygon", "coordinates": [[[72.09404520000001, 21.794399700000003], [72.09432350000002, 21.794424200000012], [72.0943179, 21.7944794], [72.0940396, 21.794454899999998], [72.09404520000001, 21.794399700000003]]]}}, {"type": "Feature", "properties": {"layer": "building", "distance_m": 258.6, "source": "Google Open Buildings", "in_industrial_zone": true, "ghsl_2018": 1}, "geometry": {"type": "Polygon", "coordinates": [[[72.0940576, 21.794407500000005], [72.09406390000001, 21.79434], [72.09433990000001, 21.794362699999997], [72.0943335, 21.794430100000003], [72.0940576, 21.794407500000005]]]}}, {"type": "Feature", "properties": {"layer": "building", "distance_m": 262.5, "source": "Google Open Buildings", "in_industrial_zone": true, "ghsl_2018": 1}, "geometry": {"type": "Polygon", "coordinates": [[[72.0940097, 21.794276500000006], [72.0940694, 21.7942814], [72.0940654, 21.794324000000003], [72.0940057, 21.794319100000006], [72.0940097, 21.794276500000006]]]}}, {"type": "Feature", "properties": {"layer": "building", "distance_m": 244.0, "source": "Google Open Buildings", "in_industrial_zone": true, "ghsl_2018": 1}, "geometry": {"type": "Polygon", "coordinates": [[[72.09398970000001, 21.794500799999998], [72.09404820000002, 21.794505399999995], [72.094046, 21.7945297], [72.0939875, 21.7945252], [72.09398970000001, 21.794500799999998]]]}}, {"type": "Feature", "properties": {"layer": "building", "distance_m": 219.8, "source": "Google Open Buildings", "in_industrial_zone": true, "ghsl_2018": 1}, "geometry": {"type": "Polygon", "coordinates": [[[72.0940241, 21.794719300000004], [72.0940487, 21.794721100000004], [72.0940482, 21.794727300000012], [72.09409830000001, 21.7947311], [72.094096, 21.794757800000006], [72.0940718, 21.794755900000006], [72.0940684, 21.794795899999993], [72.0942964, 21.794813099999995], [72.0942903, 21.794883800000004], [72.0940117, 21.794862800000004], [72.0940241, 21.794719300000004]]]}}, {"type": "Feature", "properties": {"layer": "building", "distance_m": 313.8, "source": "Google Open Buildings", "in_industrial_zone": true, "ghsl_2018": 1}, "geometry": {"type": "Polygon", "coordinates": [[[72.09440560000002, 21.793998800000008], [72.09447680000001, 21.793997500000003], [72.09447740000002, 21.7940286], [72.0944062, 21.79402990000001], [72.09440560000002, 21.793998800000008]]]}}, {"type": "Feature", "properties": {"layer": "building", "distance_m": 316.0, "source": "Google Open Buildings", "in_industrial_zone": true, "ghsl_2018": 0}, "geometry": {"type": "Polygon", "coordinates": [[[72.09440220000002, 21.79396879999999], [72.0944642, 21.7939728], [72.0944621, 21.794001600000005], [72.09440000000001, 21.7939976], [72.09440220000002, 21.79396879999999]]]}}, {"type": "Feature", "properties": {"layer": "building", "distance_m": 341.0, "source": "Google Open Buildings", "in_industrial_zone": true, "ghsl_2018": 1}, "geometry": {"type": "Polygon", "coordinates": [[[72.0945607, 21.793748000000004], [72.09455930000001, 21.793780400000003], [72.0944967, 21.793778000000007], [72.09449810000001, 21.793745600000005], [72.0945607, 21.793748000000004]]]}}, {"type": "Feature", "properties": {"layer": "building", "distance_m": 367.3, "source": "Google Open Buildings", "in_industrial_zone": true, "ghsl_2018": 1}, "geometry": {"type": "Polygon", "coordinates": [[[72.09486210000001, 21.793736500000005], [72.0949142, 21.7937404], [72.09491190000001, 21.793767100000004], [72.09485970000001, 21.793763100000007], [72.09486210000001, 21.793736500000005]]]}}, {"type": "Feature", "properties": {"layer": "building", "distance_m": 147.4, "source": "Google Open Buildings", "in_industrial_zone": false, "ghsl_2018": 0}, "geometry": {"type": "Polygon", "coordinates": [[[72.0943245, 21.795747300000002], [72.09433799999998, 21.795872700000007], [72.09424119999998, 21.795881800000004], [72.0942277, 21.795756300000008], [72.0943245, 21.795747300000002]]]}}, {"type": "Feature", "properties": {"layer": "building", "distance_m": 148.2, "source": "Google Open Buildings", "in_industrial_zone": true, "ghsl_2018": 0}, "geometry": {"type": "Polygon", "coordinates": [[[72.0939202, 21.795491500000004], [72.0943096, 21.7954705], [72.0943185, 21.795613700000004], [72.0939291, 21.795634800000006], [72.0939202, 21.795491500000004]]]}}, {"type": "Feature", "properties": {"layer": "flood_100yr"}, "geometry": {"type": "MultiPolygon", "coordinates": [[[[72.07791813351714, 21.77790000000748], [72.07791813351714, 21.778733333340814], [72.07958480018841, 21.778733333340814], [72.07958480018841, 21.777900000007484], [72.07791813351714, 21.77790000000748]]], [[[72.0695848001608, 21.787066666674136], [72.0695848001608, 21.78790000000747], [72.06875146682516, 21.787900000007465], [72.06875146683463, 21.78399425630496], [72.06856244102453, 21.784307144936054], [72.06777067225896, 21.78548624040733], [72.06673673628025, 21.78741253925501], [72.06590409966651, 21.789422116200672], [72.06528035366388, 21.791496670272625], [72.06505156856748, 21.79268243330312], [72.06454035964445, 21.79399742083037], [72.06395427772165, 21.79613745996052], [72.06359490773227, 21.798320741624522], [72.0634656995996, 21.800526369336374], [72.06356790061085, 21.80273323178858], [72.06390054307614, 21.804920204904903], [72.06446045318765, 21.807066354051578], [72.06524228100963, 21.809151134470998], [72.06623855132699, 21.811154588017274], [72.06743973487947, 21.81305753430741], [72.06883433931192, 21.814841754454], [72.07040901897996, 21.8164901656154], [72.07214870256765, 21.817986984686343], [72.0740367373005, 21.819317879555484], [72.07605504837507, 21.820470106475025], [72.07818431207811, 21.821432632220294], [72.0803135287811, 21.822277689201158], [72.08254856967301, 21.823045712308573], [72.08485370441184, 21.823604680098416], [72.08720656171154, 21.82394916767553], [72.08958430648624, 21.824075831687562], [72.09196386177, 21.823983442817326], [72.09432213300042, 21.82367289773023], [72.09663623247425, 21.823147210359835], [72.09888370178136, 21.82241148261674], [72.1010427300435, 21.821472854807187], [72.10309236582643, 21.820340436245534], [72.10501272065697, 21.81902521673861], [72.10678516216015, 21.817539959806236], [72.10839249493502, 21.81589907868037], [72.10981912740988, 21.814118496292846], [72.11067122544408, 21.812802413786986], [72.11212198851786, 21.811245331288646], [72.11353541625027, 21.80937517063415], [72.1147387658647, 21.807380970446793], [72.115719674876, 21.805283232691927], [72.11646806905507, 21.80310352288279], [72.11670338233357, 21.80206666719578], [72.11625146695634, 21.802066666674126], [72.11625146695634, 21.801233333340793], [72.1168925039402, 21.80123333371385], [72.11697626564707, 21.80086424825736], [72.11706588077578, 21.80033943195654], [72.11732308934639, 21.798152254346263], [72.11735110401138, 21.79595208126264], [72.11714966917269, 21.79375980882309], [72.11672070826182, 21.791596257176412], [72.11609443872123, 21.78956666699551], [72.11541813362072, 21.789566666674133], [72.11541813362072, 21.788733333340804], [72.11375146694944, 21.788733333340804], [72.11375146694944, 21.78790000000747], [72.1129181336138, 21.787900000007465], [72.1129181336138, 21.78623333334081], [72.11375146694942, 21.78623333334081], [72.11375146694944, 21.787066666674143], [72.11458480028506, 21.787066666674136], [72.11458480028507, 21.78790000000747], [72.11539554564904, 21.787900000062884], [72.11519866464859, 21.787437033407137], [72.11412005392972, 21.785480857395804], [72.11348845130932, 21.784566668566207], [72.1129181336138, 21.78456666667414], [72.11291813361379, 21.785400000007474], [72.11208480027818, 21.785400000007474], [72.11208480027817, 21.786233333340807], [72.11125146694255, 21.786233333340807], [72.11125146694255, 21.78540000000747], [72.1104181336069, 21.785400000007478], [72.1104181336069, 21.783733333340813], [72.11125146694255, 21.783733333340813], [72.11125146694255, 21.78456666667414], [72.11208480027815, 21.78456666667415], [72.11208480027817, 21.78373333334081], [72.1129127180276, 21.78373333335438], [72.11284272303558, 21.783632019510293], [72.11137880764285, 21.78190807459618], [72.10974221357343, 21.780325391036367], [72.10823066436724, 21.779123391482216], [72.10765627989876, 21.778641554592888], [72.10576375049004, 21.777340392787313], [72.1037449289736, 21.776216996554375], [72.10332126809242, 21.776030676473116], [72.1030088358135, 21.775844038561754], [72.10084437949529, 21.77482063755688], [72.09858102629453, 21.774005005301582], [72.09625146690102, 21.773407891768443], [72.09625146690111, 21.77373333334081], [72.09541813356547, 21.77373333334081], [72.0954181335654, 21.773275360495322], [72.09458480022977, 21.773143799725382], [72.09458480022984, 21.77373333334081], [72.09208480022293, 21.773733333340807], [72.09208480022293, 21.777900000007484], [72.0912514668873, 21.777900000007484], [72.0912514668873, 21.777066666674155], [72.09041813355165, 21.77706666667415], [72.09041813355165, 21.776233333340812], [72.08958480021603, 21.776233333340816], [72.08958480021603, 21.775400000007476], [72.0887514668804, 21.77540000000748], [72.0887514668804, 21.776233333340812], [72.08791813354476, 21.776233333340812], [72.08791813354476, 21.777066666674145], [72.08041813352405, 21.777066666674145], [72.08041813352405, 21.778733333340814], [72.07958480018841, 21.778733333340814], [72.07958480018841, 21.77956666667415], [72.08041813352405, 21.779566666674143], [72.08041813352405, 21.780400000007475], [72.07791813351714, 21.78040000000747], [72.07791813351714, 21.781233333340808], [72.07541813351024, 21.781233333340808], [72.07541813351024, 21.77956666667414], [72.0745848001746, 21.779566666674143], [72.0745848001746, 21.782066666674144], [72.07291813350334, 21.782066666674147], [72.07291813350334, 21.781233333340804], [72.0720848001677, 21.781233333340808], [72.0720848001677, 21.78373333334081], [72.07125146683207, 21.783733333340816], [72.07125146683207, 21.78456666667414], [72.07208480016772, 21.78456666667414], [72.0720848001677, 21.785400000007478], [72.07125146683207, 21.785400000007474], [72.07125146683208, 21.78706666667414], [72.0695848001608, 21.787066666674136]], [[72.1129181336138, 21.788733333340804], [72.11208480027817, 21.78873333334081], [72.11208480027817, 21.790400000007473], [72.11125146694255, 21.790400000007473], [72.11125146694255, 21.789566666674137], [72.11041813360691, 21.789566666674133], [72.1104181336069, 21.788733333340804], [72.11125146694255, 21.788733333340804], [72.11125146694255, 21.78790000000747], [72.1129181336138, 21.787900000007465], [72.1129181336138, 21.788733333340804]], [[72.1129181336138, 21.790400000007473], [72.11291813361382, 21.7912333333408], [72.11208480027815, 21.791233333340802], [72.11208480027817, 21.790400000007473], [72.1129181336138, 21.790400000007473]], [[72.11375146694944, 21.791233333340802], [72.11375146694944, 21.79206666667413], [72.1129181336138, 21.79206666667413], [72.11291813361382, 21.7912333333408], [72.11375146694944, 21.791233333340802]], [[72.1104181336069, 21.78790000000746], [72.11041813360691, 21.787066666674136], [72.11125146694255, 21.787066666674136], [72.11125146694255, 21.78790000000747], [72.1104181336069, 21.78790000000746]], [[72.07291813350334, 21.785400000007478], [72.07291813350334, 21.786233333340807], [72.0720848001677, 21.786233333340807], [72.0720848001677, 21.785400000007478], [72.07291813350334, 21.785400000007478]], [[72.11541813362071, 21.797066666674127], [72.11625146695634, 21.79706666667413], [72.11625146695634, 21.798733333340795], [72.11458480028507, 21.7987333333408], [72.11458480028507, 21.797900000007466], [72.11541813362071, 21.797900000007466], [72.11541813362071, 21.797066666674127]], [[72.1104181336069, 21.79456666667413], [72.11125146694253, 21.794566666674125], [72.11125146694255, 21.79206666667413], [72.11208480027818, 21.79206666667413], [72.11208480027817, 21.793733333340796], [72.1129181336138, 21.793733333340796], [72.1129181336138, 21.79540000000746], [72.11208480027817, 21.795400000007465], [72.11208480027817, 21.796233333340798], [72.11125146694255, 21.796233333340798], [72.11125146694255, 21.79540000000746], [72.1104181336069, 21.795400000007465], [72.1104181336069, 21.79456666667413]], [[72.11458480028507, 21.795400000007465], [72.11625146695634, 21.79540000000746], [72.11625146695634, 21.796233333340798], [72.11375146694944, 21.796233333340798], [72.11375146694944, 21.79456666667413], [72.11458480028507, 21.794566666674125], [72.11458480028507, 21.795400000007465]], [[72.10458480025746, 21.792066666674142], [72.10375146692182, 21.792066666674135], [72.1037514669218, 21.791233333340806], [72.10458480025746, 21.791233333340802], [72.10458480025746, 21.792066666674142]], [[72.10958480027126, 21.79206666667413], [72.10875146693562, 21.792066666674135], [72.10875146693563, 21.790400000007473], [72.10958480027128, 21.790400000007473], [72.10958480027126, 21.79206666667413]], [[72.10791813359998, 21.791233333340806], [72.10708480026436, 21.7912333333408], [72.10708480026436, 21.790400000007466], [72.1079181336, 21.790400000007473], [72.10791813359998, 21.791233333340806]], [[72.10291813358619, 21.789566666674126], [72.10208480025055, 21.78956666667414], [72.10208480025055, 21.788733333340804], [72.10291813358617, 21.788733333340804], [72.10291813358619, 21.789566666674126]], [[72.10625146692871, 21.78873333334081], [72.10458480025747, 21.788733333340804], [72.10458480025746, 21.787900000007465], [72.10625146692873, 21.78790000000747], [72.10625146692871, 21.78873333334081]], [[72.07625146684587, 21.78373333334081], [72.07708480018151, 21.783733333340813], [72.07708480018151, 21.782900000007473], [72.07791813351714, 21.78290000000748], [72.07791813351714, 21.783733333340813], [72.0795848001884, 21.783733333340805], [72.07958480018841, 21.78540000000747], [72.07875146685278, 21.785400000007474], [72.07875146685278, 21.786233333340803], [72.07791813351714, 21.786233333340807], [72.07791813351714, 21.787066666674136], [72.07708480018151, 21.787066666674136], [72.07708480018151, 21.78456666667414], [72.07625146684587, 21.78456666667414], [72.07625146684587, 21.78373333334081]], [[72.10708480026436, 21.78290000000748], [72.10875146693563, 21.78290000000748], [72.10875146693563, 21.783733333340816], [72.10791813359998, 21.78373333334082], [72.1079181336, 21.78456666667415], [72.10625146692873, 21.78456666667414], [72.10625146692873, 21.783733333340813], [72.10708480026435, 21.783733333340816], [72.10708480026436, 21.78290000000748]], [[72.07625146684587, 21.78290000000748], [72.07541813351024, 21.78290000000748], [72.07541813351024, 21.782066666674144], [72.07625146684587, 21.782066666674147], [72.07625146684587, 21.78290000000748]], [[72.1079181336, 21.782066666674144], [72.1079181336, 21.781233333340808], [72.10875146693563, 21.781233333340808], [72.10875146693563, 21.782066666674144], [72.1079181336, 21.782066666674144]], [[72.10708480026436, 21.781233333340808], [72.10708480026436, 21.780400000007475], [72.1079181336, 21.78040000000747], [72.1079181336, 21.781233333340808], [72.10708480026436, 21.781233333340808]], [[72.09708480023674, 21.779566666674143], [72.09625146690111, 21.77956666667414], [72.09625146690111, 21.778733333340814], [72.09708480023674, 21.778733333340817], [72.09708480023674, 21.779566666674143]], [[72.08458480020222, 21.778733333340814], [72.08375146686659, 21.77873333334081], [72.08375146686659, 21.777900000007484], [72.08458480020222, 21.777900000007484], [72.08458480020222, 21.778733333340814]]], [[[72.11541813362072, 21.788733333340804], [72.115749932283, 21.788733333844373], [72.1154181336206, 21.78795311558377], [72.11541813362072, 21.788733333340804]]]]}}, {"type": "Feature", "properties": {"layer": "permanent_water_jrc"}, "geometry": {"type": "MultiPolygon", "coordinates": [[[[72.0887514668804, 21.782066666674144], [72.08791813354476, 21.782066666674144], [72.08791813354476, 21.78290000000748], [72.0887514668804, 21.782900000007473], [72.0887514668804, 21.782066666674144]]], [[[72.09041813355167, 21.783733333340802], [72.0887514668804, 21.783733333340816], [72.0887514668804, 21.78540000000747], [72.09041813355167, 21.785400000007474], [72.09041813355167, 21.783733333340802]]], [[[72.09125146688731, 21.78790000000747], [72.09041813355167, 21.78790000000747], [72.09041813355167, 21.788733333340804], [72.0912514668873, 21.788733333340804], [72.09125146688731, 21.78790000000747]]], [[[72.08791813354476, 21.78790000000747], [72.0862514668735, 21.78790000000747], [72.0862514668735, 21.788733333340808], [72.08791813354476, 21.788733333340804], [72.08791813354476, 21.78790000000747]]], [[[72.09041813355167, 21.792900000007467], [72.09208480022293, 21.792900000007464], [72.09208480022293, 21.788733333340808], [72.0912514668873, 21.788733333340804], [72.0912514668873, 21.790400000007473], [72.09041813355167, 21.790400000007473], [72.09041813355167, 21.792900000007467]]], [[[72.06708480015389, 21.79540000000746], [72.06708480015389, 21.796233333340798], [72.07041813349643, 21.796233333340798], [72.07041813349643, 21.79540000000746], [72.06708480015389, 21.79540000000746]]], [[[72.07708480018151, 21.79790000000746], [72.07708480018151, 21.798733333340795], [72.07791813351714, 21.798733333340795], [72.07791813351714, 21.797900000007466], [72.07708480018151, 21.79790000000746]]], [[[72.08041813352405, 21.797900000007466], [72.07958480018841, 21.797900000007466], [72.07958480018841, 21.79873333334079], [72.08041813352405, 21.7987333333408], [72.08041813352405, 21.797900000007466]]], [[[72.06708480015389, 21.7987333333408], [72.06625146681826, 21.7987333333408], [72.06625146681826, 21.79956666667412], [72.06708480015389, 21.79956666667412], [72.06708480015389, 21.7987333333408]]], [[[72.06541813348262, 21.798733333340795], [72.06375146681135, 21.798733333340795], [72.06375146681135, 21.799566666674128], [72.06541813348262, 21.799566666674124], [72.06541813348262, 21.798733333340795]]], [[[72.07125146683207, 21.800400000007457], [72.0695848001608, 21.800400000007457], [72.0695848001608, 21.801233333340793], [72.07125146683207, 21.801233333340793], [72.07125146683207, 21.800400000007457]]], [[[72.0720848001677, 21.811233333340784], [72.06791813348951, 21.811233333340788], [72.06791813348953, 21.810400000007444], [72.06625146681826, 21.81040000000744], [72.06625146681998, 21.81117504939389], [72.06743973487947, 21.81305753430741], [72.06883433931192, 21.814841754454], [72.07040901897996, 21.8164901656154], [72.07041813349771, 21.81649800785142], [72.07041813349643, 21.815400000007447], [72.07125146683207, 21.81540000000745], [72.07125146683207, 21.81206666667412], [72.0720848001677, 21.812066666674127], [72.0720848001677, 21.811233333340784]]], [[[72.09791813357238, 21.774566666674154], [72.10013961168991, 21.774566668546296], [72.09858102629453, 21.774005005301582], [72.09791813357232, 21.773835096242422], [72.09791813357238, 21.774566666674154]]], [[[72.10708480026436, 21.778733333340817], [72.10776568670548, 21.778733333654895], [72.10765627989876, 21.778641554592888], [72.10708480026409, 21.778248652680706], [72.10708480026436, 21.778733333340817]]], [[[72.11125146694255, 21.782066666674144], [72.11151347709094, 21.782066667127104], [72.11137880764285, 21.78190807459618], [72.11125146694125, 21.781784930422617], [72.11125146694255, 21.782066666674144]]], [[[72.10958480027126, 21.782066666674144], [72.1079181336, 21.782066666674144], [72.1079181336, 21.78290000000748], [72.10958480027126, 21.782900000007473], [72.10958480027126, 21.782066666674144]]], [[[72.11208480027817, 21.78290000000748], [72.10958480027126, 21.782900000007473], [72.10958480027128, 21.783733333340805], [72.11125146694255, 21.783733333340813], [72.11125146694255, 21.78456666667414], [72.11208480027815, 21.78456666667415], [72.11208480027817, 21.78373333334081], [72.1129127180276, 21.78373333335438], [72.11284272303558, 21.783632019510293], [72.11208480027793, 21.782739476734477], [72.11208480027817, 21.78290000000748]]], [[[72.10291813358619, 21.786233333340807], [72.1029181335862, 21.78790000000746], [72.10625146692873, 21.78790000000747], [72.10625146692873, 21.786233333340807], [72.10541813359309, 21.786233333340807], [72.10541813359309, 21.785400000007467], [72.10375146692182, 21.785400000007474], [72.10375146692182, 21.78623333334081], [72.10291813358619, 21.786233333340807]]], [[[72.10291813358617, 21.788733333340804], [72.1029181335862, 21.78790000000746], [72.10208480025055, 21.78790000000747], [72.10208480025055, 21.788733333340804], [72.10291813358617, 21.788733333340804]]], [[[72.10625146692871, 21.78873333334081], [72.10541813359309, 21.788733333340808], [72.10541813359309, 21.78956666667414], [72.10625146692873, 21.789566666674137], [72.10625146692871, 21.78873333334081]]], [[[72.10958480027128, 21.788733333340804], [72.10875146693563, 21.788733333340804], [72.10875146693563, 21.789566666674137], [72.10958480027126, 21.789566666674137], [72.10958480027128, 21.788733333340804]]], [[[72.11458480028507, 21.789566666674133], [72.11458480028507, 21.790400000007473], [72.1129181336138, 21.790400000007473], [72.11291813361382, 21.7912333333408], [72.11458480028507, 21.791233333340795], [72.11458480028506, 21.793733333340796], [72.11625146695634, 21.793733333340796], [72.11625146695634, 21.792900000007464], [72.11697919591273, 21.792900000240035], [72.11672070826182, 21.791596257176412], [72.11609444119281, 21.78956667500541], [72.11458480028507, 21.789566666674133]]], [[[72.11208480027817, 21.792900000007467], [72.1129181336138, 21.79290000000747], [72.11291813361382, 21.7912333333408], [72.11208480027815, 21.791233333340802], [72.11208480027817, 21.792900000007467]]], [[[72.10375146692182, 21.793733333340793], [72.10291813358619, 21.793733333340796], [72.10291813358617, 21.79456666667413], [72.10375146692184, 21.794566666674125], [72.10375146692182, 21.793733333340793]]], [[[72.10708480026436, 21.796233333340798], [72.10375146692182, 21.796233333340798], [72.10375146692182, 21.797900000007466], [72.10708480026436, 21.797900000007466], [72.10708480026436, 21.796233333340798]]], [[[72.10875146693563, 21.79873333334079], [72.1079181336, 21.798733333340795], [72.1079181336, 21.797900000007466], [72.10708480026436, 21.797900000007466], [72.10708480026436, 21.799566666674124], [72.10958480027126, 21.799566666674124], [72.10958480027126, 21.79873333334079], [72.11125146694255, 21.798733333340795], [72.11125146694255, 21.797900000007466], [72.10875146693563, 21.797900000007466], [72.10875146693563, 21.79873333334079]]], [[[72.0937514668942, 21.798733333340795], [72.09375146689422, 21.799566666674124], [72.09541813356549, 21.79956666667412], [72.09541813356547, 21.7987333333408], [72.0937514668942, 21.798733333340795]]], [[[72.09541813356549, 21.80040000000746], [72.09541813356549, 21.801233333340797], [72.09625146690111, 21.801233333340797], [72.09625146690111, 21.800400000007464], [72.09541813356549, 21.80040000000746]]]]}}, {"type": "Feature", "properties": {"layer": "airport", "name": "Bhavnagar Airport", "icao": "VABV", "distance_m": 10010.3}, "geometry": {"type": "Polygon", "coordinates": [[[72.1756494, 21.749443400000004], [72.17582770000001, 21.7489869], [72.1760714, 21.748363099999995], [72.17636349999998, 21.747615300000007], [72.17718, 21.747925600000006], [72.1809616, 21.749362500000004], [72.18087449999999, 21.74952420000001], [72.18803300000002, 21.7521935], [72.1890258, 21.7517567], [72.1892348, 21.7512876], [72.1878936, 21.750689000000005], [72.1886774, 21.7492492], [72.1902449, 21.749880100000002], [72.1911681, 21.748683000000003], [72.1923524, 21.7506405], [72.1937458, 21.754361200000005], [72.1961842, 21.755234700000006], [72.1955398, 21.756820000000005], [72.19409409999999, 21.756302400000006], [72.19040170000001, 21.758340600000004], [72.18791109999998, 21.7588259], [72.187996, 21.7575466], [72.1839748, 21.756367100000002], [72.18190210000002, 21.755639100000003], [72.18115319999998, 21.75497590000001], [72.1805262, 21.753439100000012], [72.1813448, 21.751497900000004], [72.1802314, 21.7510715], [72.1801782, 21.751187599999998], [72.1765279, 21.749781800000008], [72.1756494, 21.749443400000004]]]}}, {"type": "Feature", "properties": {"layer": "airport_reference_point", "name": "Bhavnagar Airport", "icao": "VABV", "distance_m": 10720.5}, "geometry": {"type": "Point", "coordinates": [72.18520355220001, 21.752199172999998]}}]}