{"type": "FeatureCollection", "features": [{"type": "Feature", "properties": {"layer": "outline_2026", "site": "VAP-01"}, "geometry": {"type": "Polygon", "coordinates": [[[72.88348919194299, 20.367412569449016], [72.88362078507409, 20.366550743029936], [72.88400808965167, 20.366594217485495], [72.88403948400462, 20.366355793334844], [72.88404369140072, 20.366269714969008], [72.884065183296, 20.36624562340335], [72.88409912973202, 20.366258576287066], [72.88406200421636, 20.366616578280063], [72.88419871944046, 20.366641578523108], [72.88421785017019, 20.366569181978154], [72.88447222530557, 20.366584552246696], [72.8845144475624, 20.366472537829814], [72.88449958096312, 20.366419805443478], [72.88455130932154, 20.366019787781063], [72.88468506031407, 20.366109072567188], [72.88463265510057, 20.3662144576122], [72.88462066427657, 20.366400111052197], [72.88460591930713, 20.366564874999707], [72.88459988836122, 20.36660419071269], [72.88461507384515, 20.3666252187914], [72.88469215429485, 20.366657418574157], [72.8847878364186, 20.366711785349192], [72.88480343256849, 20.366745226686575], [72.88482362545182, 20.36680846270034], [72.88484005972158, 20.366862579586503], [72.88484796553892, 20.36695540347882], [72.88477327568548, 20.367115393099386], [72.88474532751601, 20.367212783361314], [72.88468697584179, 20.367224431875133], [72.88462228127025, 20.367227661726083], [72.88454492471915, 20.367270436236627], [72.88450368309155, 20.367322830393036], [72.88440218634443, 20.367427260418886], [72.88437186304493, 20.367474357821617], [72.88434432813936, 20.367577698397145], [72.8842990090862, 20.367679093988652], [72.88396731235761, 20.367619832886003], [72.88373551313819, 20.367580040020318], [72.88363943543621, 20.36755959370338], [72.88350908665055, 20.367511843537297], [72.88348919194299, 20.367412569449016]]]}}, {"type": "Feature", "properties": {"layer": "union_2016_2026", "site": "VAP-01"}, "geometry": {"type": "Polygon", "coordinates": [[[72.8839663986111, 20.365925631703494], [72.88396350748938, 20.365675331041245], [72.88386370352703, 20.365471332655282], [72.88361754140496, 20.366542075839046], [72.88347343473437, 20.367458808903724], [72.8835001852812, 20.367467425941165], [72.88350669812944, 20.36749992488245], [72.88350601826527, 20.36750579985667], [72.88350809437578, 20.367506892113585], [72.88350908665055, 20.367511843537297], [72.88353680828168, 20.367521998705424], [72.88362724116199, 20.367569576044193], [72.88430452746255, 20.36768497176181], [72.88432217108156, 20.36763816759633], [72.88433617872897, 20.367619687872942], [72.88434684830536, 20.367572704956025], [72.88434884755559, 20.36756073669919], [72.88437186304493, 20.367474357821617], [72.88438012915226, 20.367461519110776], [72.88462554364332, 20.36723672279893], [72.88473143152821, 20.36722551834511], [72.88473764565678, 20.36721431686173], [72.88474532751601, 20.367212783361314], [72.88475264799568, 20.367187273890107], [72.88480403309006, 20.367094647866473], [72.88484056489885, 20.36697125605986], [72.88484796553892, 20.36695540347882], [72.88484736071533, 20.36694830211718], [72.88485194240442, 20.366932826734438], [72.88483507383775, 20.366831760160387], [72.88481918111076, 20.366794544810148], [72.88480343256849, 20.366745226686575], [72.8847878364186, 20.366711785349192], [72.8847308270783, 20.36667939253793], [72.88472687121713, 20.366675748181738], [72.8846495771449, 20.36662213552285], [72.8846309061121, 20.36658874496049], [72.88463241877373, 20.366522862152095], [72.88462966326071, 20.36646203124197], [72.88462691851547, 20.36641481206442], [72.88462325219407, 20.366385136644663], [72.88462343484287, 20.36636080777265], [72.88462370285639, 20.366353064919664], [72.88462370285639, 20.366353064919657], [72.88463265510057, 20.3662144576122], [72.88466137770493, 20.36615669748496], [72.88466365342181, 20.366153522724986], [72.88467833534418, 20.366129585286025], [72.88468063975651, 20.366117962160185], [72.88468506031407, 20.366109072567188], [72.88455130932154, 20.366019787781063], [72.8845467629789, 20.366054944964368], [72.88453980027168, 20.36605717175472], [72.88453415388287, 20.366066560002597], [72.88453609883105, 20.366113586821143], [72.88452517215507, 20.36619235134375], [72.88451551970824, 20.366262125299425], [72.88450034499267, 20.366338961385416], [72.8844903035977, 20.366320839507363], [72.88447758092539, 20.366275396100374], [72.88445148951728, 20.36618859136591], [72.88446360777104, 20.366075844934432], [72.88420343805039, 20.36612081407475], [72.88420025178975, 20.36611358229752], [72.88420818525128, 20.366103265791747], [72.8841748850022, 20.366041222984002], [72.88416876887324, 20.3660421262632], [72.88415828148717, 20.36601832327593], [72.88414329104421, 20.36604588903176], [72.88411037720591, 20.36605075000348], [72.88411713095829, 20.366009996656235], [72.8839663986111, 20.365925631703494]]]}}, {"type": "Feature", "properties": {"layer": "buffer_100m", "site": "VAP-01"}, "geometry": {"type": "Polygon", "coordinates": [[[72.88256791013039, 20.367679576768644], [72.88259073537388, 20.36776851618835], [72.88262298570434, 20.367854821395774], [72.88266433015006, 20.367937606635437], [72.88271434440398, 20.36801602227613], [72.88277251517782, 20.368089263530944], [72.88283824546974, 20.368156578717098], [72.8829108606911, 20.368217276970768], [72.8829896155897, 20.368270735337724], [72.88307370189841, 20.368316405167086], [72.88316225663064, 20.368353817742403], [72.88329260601658, 20.368401568162852], [72.88335982448068, 20.36842351971302], [72.88342858514336, 20.368440706320236], [72.88352466336288, 20.36846115275117], [72.88356396624567, 20.36846870489177], [72.88379238943863, 20.368507918202354], [72.88412071517952, 20.368566577045325], [72.88421277441158, 20.368578695423675], [72.88430564575852, 20.36858234190566], [72.88439845460461, 20.368577482150567], [72.88449032692274, 20.368564161925114], [72.884580397506, 20.368542506672433], [72.88466781811621, 20.36851272033068], [72.88475176547247, 20.3684750834123], [72.88483144900484, 20.368429950362238], [72.88490611829964, 20.368377746219753], [72.8849750701667, 20.36831896261549], [72.88503765526166, 20.368254153141333], [72.88509328420115, 20.368183928136833], [72.8851414331131, 20.368108948941135], [72.88518164857018, 20.368029921664665], [72.88518964421954, 20.36801203220449], [72.8852112765477, 20.368001972544732], [72.88529234558892, 20.367954261080392], [72.88536796978084, 20.36789916925408], [72.88543739639015, 20.367837245432444], [72.88549993437468, 20.367769105984948], [72.88555496126189, 20.367695429148558], [72.8856019293445, 20.367616948276517], [72.8856403711319, 20.367534444538652], [72.88566990400301, 20.36744873914563], [72.88567899772032, 20.36741704986178], [72.88572460535615, 20.367319354670197], [72.885758449716, 20.36723588650687], [72.88578338265734, 20.367149673131305], [72.88579916016269, 20.36706155836132], [72.88580562782485, 20.3669724046233], [72.88580272235748, 20.36688308451111], [72.88579481597297, 20.36679026066127], [72.88578249525125, 20.366701281174223], [72.88576087335261, 20.36661389361664], [72.8857444387882, 20.36655977681564], [72.88574077238248, 20.366548006413147], [72.88572057915947, 20.36648477050359], [72.88568020948397, 20.366381576237085], [72.88566461318175, 20.366348134976644], [72.8856254650837, 20.36627464512924], [72.88563352535839, 20.36623505505086], [72.88564210526, 20.366145561675495], [72.88564121374367, 20.366055707209895], [72.8856308596487, 20.36596638090013], [72.88561114546054, 20.36587846676387], [72.88558226629601, 20.36579283484177], [72.88554450797157, 20.365710332587188], [72.88549824417437, 20.365631776479535], [72.88544393276351, 20.365557943944218], [72.88538211123848, 20.365489565659036], [72.88531339141967, 20.365427318323324], [72.88523845339321, 20.365371817961318], [72.88510470271758, 20.365282533591635], [72.88502526106785, 20.365234851104898], [72.88494123841907, 20.365194755536855], [72.88485344689839, 20.365162634432735], [72.88476273505925, 20.365138798260087], [72.88466997968021, 20.365123477408023], [72.88457607729067, 20.365116819960615], [72.8844819355059, 20.365118890265553], [72.88438846425495, 20.365129668312257], [72.88429656698614, 20.365149049925286], [72.88420713193518, 20.365176847771195], [72.88412102354043, 20.365212793169125], [72.88403907408785, 20.365256538687593], [72.8839620756669, 20.365307661502484], [72.88390226793933, 20.365356315820925], [72.88387944678733, 20.36535949911292], [72.88378967980825, 20.365380525521694], [72.88370248193539, 20.36540961917381], [72.88361866630225, 20.365446508766954], [72.88353901450405, 20.365490850300432], [72.88346426930937, 20.36554223028281], [72.88339512773402, 20.365600169587612], [72.88333223454126, 20.36566412792111], [72.88331074261275, 20.36568821939813], [72.88330110661342, 20.365700105097844], [72.88327912895001, 20.365706890977513], [72.88319438136972, 20.36574191733152], [72.88311361303607, 20.365784491819994], [72.88303757769202, 20.36583421713284], [72.88296698491357, 20.365890629227188], [72.88290249348819, 20.365953201657774], [72.8828447052668, 20.366021350489593], [72.8827941595472, 20.36609443974706], [72.88275132804104, 20.36617178734884], [72.88271661047152, 20.366252671473013], [72.88269033084265, 20.366336337293042], [72.88267273441522, 20.366422004021832], [72.88254113613047, 20.367283829738877], [72.88253188140581, 20.367382692591786], [72.88253418395533, 20.36748191616801], [72.88254801600318, 20.36758030257501], [72.88256791013039, 20.367679576768644]], [[72.88362078507409, 20.366550743029936], [72.88400808965167, 20.366594217485495], [72.88403948400462, 20.366355793334844], [72.88404369140072, 20.366269714969008], [72.884065183296, 20.36624562340335], [72.88409912973202, 20.366258576287066], [72.88406200421636, 20.366616578280063], [72.88419871944046, 20.366641578523108], [72.88421785017019, 20.366569181978154], [72.88447222530557, 20.366584552246696], [72.8845144475624, 20.366472537829814], [72.88449958096312, 20.366419805443478], [72.88455130932154, 20.366019787781063], [72.88468506031407, 20.366109072567188], [72.88463265510057, 20.3662144576122], [72.88462066427657, 20.366400111052197], [72.88460591930713, 20.366564874999707], [72.88459988836122, 20.36660419071269], [72.88461507384515, 20.3666252187914], [72.88469215429485, 20.366657418574157], [72.8847878364186, 20.366711785349192], [72.88480343256849, 20.366745226686575], [72.88482362545182, 20.36680846270034], [72.88484005972158, 20.366862579586503], [72.88484796553892, 20.36695540347882], [72.88477327568548, 20.367115393099386], [72.88474532751601, 20.367212783361314], [72.88468697584179, 20.367224431875133], [72.88462228127025, 20.367227661726083], [72.88454492471915, 20.367270436236627], [72.88450368309155, 20.367322830393036], [72.88440218634443, 20.367427260418886], [72.88437186304493, 20.367474357821617], [72.88434432813936, 20.367577698397145], [72.8842990090862, 20.367679093988652], [72.88396731235761, 20.367619832886003], [72.88373551313819, 20.367580040020318], [72.88363943543621, 20.36755959370338], [72.88350908665055, 20.367511843537297], [72.88348919194299, 20.367412569449016], [72.88362078507409, 20.366550743029936]]]}}, {"type": "Feature", "properties": {"layer": "buffer_200m", "site": "VAP-01"}, "geometry": {"type": "Polygon", "coordinates": [[[72.8816267315765, 20.367847304922524], [72.88167238106053, 20.36802518400072], [72.88173688084284, 20.36819779474298], [72.88181956901599, 20.36836336562492], [72.88191959699523, 20.36852019736765], [72.88203593822573, 20.368666680378475], [72.88216739871675, 20.36880131127131], [72.88231262929479, 20.368922708297152], [72.88247013944991, 20.369029625526352], [72.88263831263323, 20.369120965636853], [72.88281542284844, 20.369195791177237], [72.88294577283465, 20.369243541852075], [72.88308021041296, 20.36928744518934], [72.88321773245693, 20.36932181859354], [72.88331381119399, 20.369342265138457], [72.88339241738903, 20.369357369504247], [72.8836174645182, 20.369396003253136], [72.88394241923427, 20.369454059829756], [72.88412653873752, 20.36947829672346], [72.88431228250809, 20.369485589729027], [72.88449790127405, 20.369475870163434], [72.88468164694083, 20.369449229562214], [72.88486178905592, 20.369405918817293], [72.88503663110721, 20.369346345813945], [72.8852045265018, 20.36927107158914], [72.88536389407406, 20.369180805047296], [72.88551323297763, 20.369076396283557], [72.88565113682036, 20.368958828577195], [72.88577630690943, 20.368829209130713], [72.8858875644819, 20.368688758641913], [72.88592150946168, 20.368635897922186], [72.8859906175516, 20.368585552872034], [72.88612947083197, 20.368461704715195], [72.88625454664168, 20.368325425311166], [72.88636460004197, 20.36817807115409], [72.8864585356331, 20.368021108969696], [72.8865354184567, 20.367856101115095], [72.88657723957849, 20.367734732783386], [72.8866012492836, 20.367683301444135], [72.88666893718296, 20.367516364777202], [72.88671880211679, 20.36734393776715], [72.88675035608723, 20.367167708059725], [72.88676329032049, 20.366989400514264], [72.88675747828651, 20.36681076032118], [72.88674957133485, 20.366717936513833], [72.88672492882262, 20.36653997767129], [72.88668168403368, 20.36636520278284], [72.88666524917464, 20.36631108606699], [72.88665791623588, 20.366287545299933], [72.8866377226732, 20.366224309494587], [72.88659857681628, 20.366124245140618], [72.88659736651593, 20.366002336615402], [72.88657665724477, 20.365823684106697], [72.88653722785595, 20.36564785604185], [72.886479468623, 20.36547659249393], [72.88640395121456, 20.365311588357983], [72.88631142303493, 20.36515447657808], [72.8862027998254, 20.36500681198783], [72.88607915660032, 20.36487005592387], [72.8859417170073, 20.3647455617649], [72.88579184121691, 20.364634561539123], [72.88565809085817, 20.36454527758588], [72.88549920802205, 20.36444991307158], [72.88533116337271, 20.364369722343877], [72.88515558113932, 20.364305480477466], [72.88497415839771, 20.364257808394246], [72.88478864866883, 20.36422716686239], [72.88460084497179, 20.36421385204335], [72.8844125624954, 20.36421799262959], [72.88422562105559, 20.364239548600864], [72.88404182750804, 20.364278311611013], [72.88386295828603, 20.36433390700146], [72.88369074223226, 20.364405797422116], [72.88352684389035, 20.36449328802449], [72.88347260868548, 20.364529297236043], [72.88333978448067, 20.364573614110746], [72.88317215390484, 20.364647392915447], [72.88301285082781, 20.36473607554651], [72.88286336076749, 20.364838835037276], [72.8827250777432, 20.364954713152464], [72.88272305035863, 20.36495677486529], [72.8826064460041, 20.365018239069524], [72.88245437569293, 20.365117689228747], [72.88231319031253, 20.365230512926132], [72.88218420743122, 20.36535565728944], [72.88206863075202, 20.36549195446719], [72.88196753887925, 20.36563813252631], [72.88188187525245, 20.36579282732114], [72.88181243934079, 20.365954595223023], [72.88175987918113, 20.366121926591777], [72.88172468532869, 20.366293259863347], [72.88159308189033, 20.367155084878274], [72.88157457123712, 20.367352810484824], [72.88157917511452, 20.367551257662022], [72.88160683802965, 20.36774803062356], [72.8816267315765, 20.367847304922524]], [[72.88362078507409, 20.366550743029936], [72.88400808965167, 20.366594217485495], [72.88403948400462, 20.366355793334844], [72.88404369140072, 20.366269714969008], [72.884065183296, 20.36624562340335], [72.88409912973202, 20.366258576287066], [72.88406200421636, 20.366616578280063], [72.88419871944046, 20.366641578523108], [72.88421785017019, 20.366569181978154], [72.88447222530557, 20.366584552246696], [72.8845144475624, 20.366472537829814], [72.88449958096312, 20.366419805443478], [72.88455130932154, 20.366019787781063], [72.88468506031407, 20.366109072567188], [72.88463265510057, 20.3662144576122], [72.88462066427657, 20.366400111052197], [72.88460591930713, 20.366564874999707], [72.88459988836122, 20.36660419071269], [72.88461507384515, 20.3666252187914], [72.88469215429485, 20.366657418574157], [72.8847878364186, 20.366711785349192], [72.88480343256849, 20.366745226686575], [72.88482362545182, 20.36680846270034], [72.88484005972158, 20.366862579586503], [72.88484796553892, 20.36695540347882], [72.88477327568548, 20.367115393099386], [72.88474532751601, 20.367212783361314], [72.88468697584179, 20.367224431875133], [72.88462228127025, 20.367227661726083], [72.88454492471915, 20.367270436236627], [72.88450368309155, 20.367322830393036], [72.88440218634443, 20.367427260418886], [72.88437186304493, 20.367474357821617], [72.88434432813936, 20.367577698397145], [72.8842990090862, 20.367679093988652], [72.88396731235761, 20.367619832886003], [72.88373551313819, 20.367580040020318], [72.88363943543621, 20.36755959370338], [72.88350908665055, 20.367511843537297], [72.88348919194299, 20.367412569449016], [72.88362078507409, 20.366550743029936]]]}}, {"type": "Feature", "properties": {"layer": "river", "name": "", "osm": "way/19758387", "distance_m": 2188.3}, "geometry": {"type": "Polygon", "coordinates": [[[72.8597644, 20.368976300000003], [72.8601838, 20.3682093], [72.86060070000002, 20.3676996], [72.8610239, 20.366675199999996], [72.8615767, 20.366167200000003], [72.8619973, 20.3654002], [72.86269319999998, 20.364379099999997], [72.8629838, 20.363095700000002], [72.8631454, 20.361295899999995], [72.8628725, 20.3612925], [72.8621473, 20.364372399999997], [72.8617349, 20.364624799999994], [72.8614497, 20.3655217], [72.8607546, 20.3664146], [72.8606115, 20.366927499999996], [72.8603386, 20.366924100000006], [72.8600532, 20.367821100000004], [72.85959296960644, 20.36824403833355], [72.8596106406484, 20.369010409671116], [72.8597644, 20.368976300000003]]]}}, {"type": "Feature", "properties": {"layer": "river", "name": "KALU NADI", "osm": "way/229096825", "distance_m": 1941.6}, "geometry": {"type": "LineString", "coordinates": [[72.87142611220924, 20.34708989055211], [72.8716927, 20.347488100000003], [72.8720918, 20.348227499999997], [72.8722768, 20.3487751], [72.8722671, 20.349478], [72.8716732, 20.349998300000006], [72.8710988, 20.3510662], [72.8710307, 20.3518056], [72.8706802, 20.3532751], [72.8703784, 20.354069299999992], [72.869619, 20.3550094], [72.8693172, 20.3553106], [72.8684118, 20.3555388], [72.8678374, 20.355602700000002], [72.867263, 20.355502300000005], [72.8664647, 20.355411], [72.866085, 20.3554201], [72.86580270000002, 20.355529700000005], [72.86560800000001, 20.355949500000005], [72.8658319, 20.356551900000003], [72.8659195, 20.357127], [72.8655398, 20.3579758], [72.8646344, 20.35833179999999], [72.8642353, 20.358514299999996], [72.8637582, 20.359208000000002], [72.86320330000001, 20.3603489], [72.8626971, 20.3628133], [72.8623271, 20.3640911], [72.8616456, 20.3652776], [72.8603605, 20.367623199999997], [72.8596596, 20.368490200000004], [72.85959959230944, 20.3685312576893]]}}, {"type": "Feature", "properties": {"layer": "river", "name": "", "osm": "way/306636923", "distance_m": 2.1}, "geometry": {"type": "Polygon", "coordinates": [[[72.8836769, 20.3436593], [72.883195, 20.3443762], [72.8829341, 20.345059000000003], [72.8828798, 20.3456026], [72.882945, 20.3463534], [72.882945, 20.3470702], [72.8828725, 20.347552600000004], [72.8828581, 20.3480214], [72.8827747, 20.3484427], [72.8825501, 20.3489862], [72.8822964, 20.349801599999996], [72.8820935, 20.3504606], [72.8819486, 20.351404999999996], [72.8817566, 20.352339300000004], [72.8816913, 20.3528149], [72.8815899, 20.353164800000002], [72.8813363, 20.3538034], [72.8810935, 20.3545474], [72.8807891, 20.355352500000002], [72.8806043, 20.3559877], [72.8804449, 20.3565041], [72.880434, 20.357074800000003], [72.8804666, 20.357424699999996], [72.8805464, 20.357941000000004], [72.8808507, 20.3591843], [72.880992, 20.3597109], [72.8810681, 20.360431000000002], [72.88106089999998, 20.3607911], [72.88104279999999, 20.3613618], [72.880992, 20.361969800000008], [72.88093039999998, 20.3624046], [72.88077460000001, 20.3627885], [72.8806659, 20.36330480000001], [72.8807493, 20.363902699999993], [72.8808435, 20.364361300000006], [72.88088330000001, 20.364887800000005], [72.8808507, 20.365526399999997], [72.8807964, 20.366215899999993], [72.88064060000002, 20.366593000000005], [72.8801079, 20.367652800000002], [72.8799521, 20.368131699999996], [72.8795898, 20.368766899999997], [72.8792311, 20.369527799999997], [72.8788144, 20.370414399999994], [72.8785028, 20.370822000000004], [72.87835789999998, 20.371056300000003], [72.87826369999999, 20.371294100000004], [72.8780028, 20.371443599999996], [72.8777491, 20.3716168], [72.8775426, 20.3718648], [72.8775064, 20.3721365], [72.876818, 20.3731691], [72.8761658, 20.373671799999997], [72.8748324, 20.374351099999995], [72.8736077, 20.374724800000003], [72.8718322, 20.375064400000003], [72.8703177, 20.37537690000001], [72.868651, 20.37576410000001], [72.86739000000001, 20.376198900000002], [72.86578849999998, 20.3772994], [72.864158, 20.3785833], [72.86327075259102, 20.37953777604009], [72.86363898152858, 20.380115217538744], [72.86489994025641, 20.381703094314826], [72.86521400000001, 20.38122749999999], [72.8660339, 20.380180299999996], [72.8668332, 20.379450199999997], [72.86737640000001, 20.3791332], [72.8680323, 20.378825799999998], [72.8686984, 20.378431899999992], [72.8695593, 20.378105199999997], [72.8706764, 20.377836200000004], [72.8714962, 20.3777017], [72.8724288, 20.377749800000004], [72.8731462, 20.377768999999997], [72.8738534, 20.377807400000005], [72.8746322, 20.377845799999996], [72.8752574, 20.377720999999998], [72.87652820000001, 20.376990800000005], [72.877635, 20.376548900000003], [72.8788033, 20.375866800000004], [72.8796027, 20.375405699999998], [72.8802688, 20.3746371], [72.88073000000001, 20.374108699999997], [72.8812117, 20.373119099999997], [72.88138589999998, 20.3724755], [72.88171379999999, 20.37212], [72.8820418, 20.371533899999996], [72.8824927, 20.370361800000005], [72.8827592, 20.369487600000003], [72.8831691, 20.3678927], [72.8835483, 20.366893500000003], [72.8836713, 20.3655773], [72.8837225, 20.3649047], [72.8837123, 20.364251399999997], [72.8835688, 20.3633963], [72.8833331, 20.3621569], [72.8831691, 20.361292199999998], [72.8831076, 20.3602641], [72.88309739999998, 20.358966999999996], [72.88321009999999, 20.3578429], [72.88342529999998, 20.3558539], [72.8838352, 20.35479700000001], [72.8841529, 20.353778499999997], [72.8842042, 20.352827300000005], [72.8846653, 20.3511842], [72.88489080000001, 20.350098400000004], [72.8850855, 20.3493586], [72.8850855, 20.348810899999997], [72.885106, 20.348234300000012], [72.8851163, 20.3474945], [72.8853212, 20.346302999999995], [72.8857312, 20.3452075], [72.8863153, 20.344140899999996], [72.88686344439594, 20.34356654135805], [72.88523841969014, 20.343447313120123], [72.8838174073465, 20.343474440354164], [72.8836769, 20.3436593]]]}}, {"type": "Feature", "properties": {"layer": "river", "name": "Daman Ganga", "osm": "way/464131141", "distance_m": 212.9}, "geometry": {"type": "LineString", "coordinates": [[72.88145099999998, 20.367355200000002], [72.8789492, 20.373527100000004], [72.8756903, 20.375563800000002], [72.8698309, 20.3769832], [72.8642348, 20.379976499999998], [72.86394295085465, 20.380497998238166]]}}, {"type": "Feature", "properties": {"layer": "river", "name": "Daman Ganga", "osm": "way/464131143", "distance_m": 212.4}, "geometry": {"type": "LineString", "coordinates": [[72.88572673712973, 20.343483142632206], [72.8848086, 20.3443627], [72.8837882, 20.3469244], [72.8826031, 20.354825499999997], [72.88214229999998, 20.360534900000005], [72.88145099999998, 20.367355200000002]]}}, {"type": "Feature", "properties": {"layer": "pond", "name": "Chala lake", "osm": "way/318473793", "distance_m": 2335.0}, "geometry": {"type": "Polygon", "coordinates": [[[72.8897949, 20.3894764], [72.8899198, 20.3891006], [72.8900381, 20.388995800000004], [72.8901959, 20.388928000000003], [72.8903273, 20.388829400000002], [72.8903405, 20.388706200000005], [72.8903471, 20.3885398], [72.8903405, 20.3883549], [72.8902945, 20.388354900000007], [72.8900578, 20.388508999999992], [72.8899, 20.388496700000005], [72.8898014, 20.388299499999995], [72.8896765, 20.388151600000004], [72.88932810000001, 20.388237899999996], [72.8893347, 20.3883549], [72.8893347, 20.388515200000004], [72.8892624, 20.388669199999995], [72.8891897, 20.3888788], [72.8889935, 20.388929000000008], [72.8887349, 20.389079400000004], [72.8885387, 20.389255], [72.8883693, 20.389480699999996], [72.8882355, 20.389689699999998], [72.888066, 20.3897983], [72.8878609, 20.389689699999998], [72.8877182, 20.389530800000003], [72.8876736, 20.38933859999999], [72.8876915, 20.3890878], [72.8865856, 20.3891296], [72.8865856, 20.389271700000002], [72.886657, 20.389388699999994], [72.8867818, 20.389505799999995], [72.8868888, 20.3896395], [72.8869245, 20.389798300000002], [72.8869959, 20.3899572], [72.88700970353099, 20.390106247157412], [72.88908260976439, 20.389805702559357], [72.88972786003538, 20.389650570397443], [72.8897949, 20.3894764]]]}}, {"type": "Feature", "properties": {"layer": "pond", "name": "", "osm": "way/684483481", "distance_m": 1215.3}, "geometry": {"type": "Polygon", "coordinates": [[[72.89442120000001, 20.360092699999992], [72.8946143, 20.360359300000002], [72.894786, 20.3606409], [72.8950167, 20.3605605], [72.895022, 20.3602336], [72.89525270000001, 20.3601028], [72.89532780000002, 20.3598916], [72.8954726, 20.3590366], [72.8964382, 20.3581665], [72.89653480000001, 20.358055899999993], [72.89654020000002, 20.357734000000004], [72.8965723, 20.357537799999996], [72.8963792, 20.3574171], [72.8958535, 20.357397], [72.8955638, 20.3574322], [72.8947914, 20.3584532], [72.8944802, 20.358689599999998], [72.8944695, 20.358850500000003], [72.894786, 20.359293099999995], [72.8947645, 20.359444], [72.8945607, 20.35962], [72.8943944, 20.359635100000006], [72.8943086, 20.3597256], [72.89442120000001, 20.360092699999992]]]}}, {"type": "Feature", "properties": {"layer": "pond", "name": "", "osm": "way/684483482", "distance_m": 791.4}, "geometry": {"type": "Polygon", "coordinates": [[[72.8922754, 20.363276199999998], [72.89247390000001, 20.3633014], [72.8925598, 20.3632461], [72.8928012, 20.363180699999994], [72.893064, 20.363120300000002], [72.8934234, 20.362919200000007], [72.89338590000001, 20.36258219999999], [72.8934824, 20.3623509], [72.8936809, 20.362104399999996], [72.8937882, 20.3617977], [72.8944695, 20.360907499999996], [72.8945929, 20.3605906], [72.894507, 20.360485000000004], [72.8943944, 20.360173199999988], [72.894271, 20.359931800000002], [72.894212, 20.359685399999996], [72.8940833, 20.3595848], [72.8939706, 20.3595848], [72.8939116, 20.359624999999998], [72.89390089999999, 20.359750700000006], [72.89394380000002, 20.359961999999992], [72.89395449999999, 20.360243600000008], [72.89394910000001, 20.360419599999997], [72.8937721, 20.360736499999998], [72.8932786, 20.360972900000004], [72.8929621, 20.3609829], [72.8929353, 20.361123699999997], [72.8930694, 20.36126459999999], [72.8932732, 20.361410399999993], [72.8932947, 20.3616568], [72.89280649999999, 20.362114500000004], [72.89257050000002, 20.3622453], [72.8922164, 20.362189899999997], [72.891916, 20.362169800000004], [72.8914064, 20.362184899999992], [72.8912187, 20.3623308], [72.8912723, 20.3624162], [72.891444, 20.362587200000004], [72.8915673, 20.3627532], [72.8915459, 20.363070000000008], [72.8922754, 20.363276199999998]]]}}, {"type": "Feature", "properties": {"layer": "pond", "name": "", "osm": "way/684483483", "distance_m": 828.3}, "geometry": {"type": "Polygon", "coordinates": [[[72.8911543, 20.3730803], [72.8912482, 20.3731834], [72.891444, 20.3735605], [72.89162639999999, 20.3737944], [72.8918061, 20.3738723], [72.89186509999999, 20.373909999999995], [72.8919402, 20.374050900000004], [72.8922969, 20.3744808], [72.8927287, 20.374855500000002], [72.8927717, 20.374981200000008], [72.8928441, 20.3750114], [72.8929514, 20.375006300000003], [72.8935146, 20.3747071], [72.8935629, 20.3746065], [72.89354680000001, 20.374450600000003], [72.8937748, 20.374121299999988], [72.8939411, 20.374033300000008], [72.89396520000001, 20.373962900000002], [72.8939572, 20.373746599999997], [72.894035, 20.373638500000002], [72.8942817, 20.3736309], [72.8945687, 20.373548000000003], [72.8945848, 20.373457500000008], [72.8944749, 20.373178400000004], [72.8935066, 20.373253800000004], [72.89330809999998, 20.3732689], [72.8932893, 20.373241200000002], [72.893225, 20.372564800000003], [72.893174, 20.372527099999992], [72.8925464, 20.372572399999996], [72.892423, 20.372730799999996], [72.8923371, 20.372760999999997], [72.8922647, 20.372768500000003], [72.89213600000001, 20.372715700000004], [72.8920984, 20.3725975], [72.89175780000001, 20.37259750000001], [72.8917605, 20.372464300000004], [72.8918356, 20.372426500000007], [72.892085, 20.3724215], [72.8921413, 20.3722782], [72.8923398, 20.372265600000002], [72.89249, 20.372388800000003], [72.8925356, 20.372396400000003], [72.89272070000001, 20.372381300000004], [72.8927797, 20.3723234], [72.89203940000002, 20.371036000000007], [72.8919616, 20.3710184], [72.8914493, 20.371214599999995], [72.8911221, 20.372144900000002], [72.8911355, 20.3724441], [72.8915754, 20.372444100000003], [72.8915995, 20.372469299999995], [72.8915888, 20.372590000000002], [72.8914842, 20.372627700000002], [72.8912401, 20.3726428], [72.8911275, 20.3727182], [72.8911543, 20.3730803]]]}}, {"type": "Feature", "properties": {"layer": "highway", "name": "NH848B", "osm": "way/138534868", "distance_m": 1473.7}, "geometry": {"type": "LineString", "coordinates": [[72.88050644637121, 20.34376552814657], [72.8803289, 20.344405600000012], [72.8799158, 20.345290899999995], [72.8790014, 20.3469202], [72.8776774, 20.3490276], [72.8759891, 20.3505217], [72.87576910000001, 20.3507908], [72.8756005, 20.3510949], [72.873702, 20.354695800000002], [72.8732745, 20.355407400000004], [72.872993, 20.355480799999995], [72.8724834, 20.3556719], [72.8722892, 20.355854799999996], [72.87215080000001, 20.356300600000008], [72.871735, 20.3584529], [72.87113450000001, 20.360343599999997], [72.87014930000001, 20.361729200000003], [72.8690716, 20.363951900000007], [72.8674859, 20.365640499999998], [72.8674397, 20.3676178], [72.8663929, 20.369595000000004], [72.86471479999999, 20.3721351], [72.8641606, 20.3724382], [72.8605582, 20.372712399999998], [72.8602378003873, 20.372712401175317]]}}, {"type": "Feature", "properties": {"layer": "nonresidential_zone"}, "geometry": {"type": "MultiPolygon", "coordinates": [[[[72.9071685, 20.358472200000005], [72.9076044, 20.3626273], [72.9079314, 20.364943299999997], [72.90869137729908, 20.364928077512587], [72.90840036038034, 20.362828592208473], [72.90828307302877, 20.36235484183778], [72.90823836835327, 20.36203953367401], [72.90771148144265, 20.359913804166855], [72.90719001682815, 20.35846069163772], [72.9071685, 20.358472200000005]]], [[[72.8846675, 20.364360700000006], [72.8840144, 20.3643403], [72.8835898, 20.367483599999996], [72.884145, 20.3677591], [72.8847982, 20.367289600000003], [72.8846567, 20.3661671], [72.8846675, 20.364360700000006]]], [[[72.88701270000001, 20.372778399999998], [72.88678060000001, 20.373369499999995], [72.88667480000001, 20.373518200000003], [72.8869792, 20.3738386], [72.8870823, 20.374175800000003], [72.8872693, 20.3741649], [72.8872693, 20.372691299999993], [72.88701270000001, 20.372778399999998]]], [[[72.8843048, 20.3736153], [72.8850599, 20.3731328], [72.88620780000001, 20.372653300000007], [72.88611230000001, 20.3723485], [72.8860106, 20.372238699999997], [72.8857301, 20.372120200000005], [72.8852879, 20.372020599999995], [72.8851246, 20.372063900000004], [72.8846839, 20.371896299999996], [72.8844466, 20.3719975], [72.883559, 20.3721708], [72.8829026, 20.372000299999996], [72.8827793, 20.3722892], [72.8829242, 20.3723384], [72.8825266, 20.372932], [72.88156969999999, 20.372404800000012], [72.8812246, 20.373496799999995], [72.8810505, 20.3737742], [72.8810782, 20.373904199999995], [72.8809056, 20.3741555], [72.8810505, 20.3743058], [72.8811337, 20.374447300000003], [72.8807392, 20.374762200000006], [72.8808347, 20.3749384], [72.8801259, 20.375477200000002], [72.8806021, 20.375793600000005], [72.8809334, 20.37560150000001], [72.881183, 20.376011699999996], [72.8813586, 20.375982800000003], [72.8813848, 20.376583699999998], [72.8809534, 20.376693499999995], [72.8812785, 20.3771918], [72.8813479, 20.378946800000005], [72.8814542, 20.379349800000007], [72.882146, 20.380594900000002], [72.8822416, 20.3808838], [72.8822539, 20.381254999999996], [72.8822801, 20.3823456], [72.8825667, 20.382341199999995], [72.8829103, 20.382196800000003], [72.88291490000002, 20.381938200000008], [72.8827023, 20.381929599999996], [72.8826761, 20.381624800000004], [72.8832539, 20.381672500000004], [72.8832478, 20.3811828], [72.88363449999999, 20.3811785], [72.883633, 20.380797200000003], [72.88455440000001, 20.380568900000004], [72.8851585, 20.3804563], [72.8853372, 20.3809474], [72.886271, 20.3807943], [72.8863511, 20.381097599999993], [72.8863573, 20.381429800000006], [72.886385, 20.3816407], [72.8858919, 20.381790899999995], [72.88607990000001, 20.382359999999995], [72.888117, 20.38179089999999], [72.8874852, 20.3799305], [72.8862402, 20.3802512], [72.8857872, 20.378605900000004], [72.886442, 20.3784557], [72.8866422, 20.3791476], [72.88722640000002, 20.379014700000003], [72.8870538, 20.3782405], [72.88683500000002, 20.3769087], [72.8863049, 20.3769376], [72.88534650000001, 20.3772612], [72.8855114, 20.377764500000005], [72.88497970000002, 20.377755199999996], [72.88493970000002, 20.377916899999995], [72.8844897, 20.3778996], [72.8844287, 20.377900700000005], [72.8836645, 20.377921], [72.8829026, 20.377896700000004], [72.8825174, 20.377950199999994], [72.8827023, 20.376492699999996], [72.88311529999999, 20.376463800000003], [72.883143, 20.3743924], [72.8841754, 20.373710600000003], [72.8843048, 20.3736153]]], [[[72.883032, 20.3863379], [72.8825451, 20.3864563], [72.8828687, 20.388137600000004], [72.8847486, 20.387106299999996], [72.8857656, 20.3863465], [72.8856485, 20.3860606], [72.8857255, 20.38585550000001], [72.885858, 20.385829500000003], [72.8857348, 20.385399000000003], [72.8866963, 20.385078400000005], [72.8871339, 20.384945499999994], [72.8890076, 20.383206400000006], [72.8885299, 20.382570899999994], [72.8882464, 20.381996], [72.8841005, 20.383138800000005], [72.8831056, 20.3834131], [72.8823356, 20.383625299999995], [72.8823171, 20.3839489], [72.8827639, 20.384483299999996], [72.8829827, 20.386219399999998], [72.883032, 20.3863379]]], [[[72.8856392, 20.3870355], [72.8855221, 20.3873417], [72.8852386, 20.3873735], [72.8852556, 20.387488999999995], [72.885123, 20.3877418], [72.885556, 20.388010499999996], [72.8858889, 20.388287800000004], [72.8862371, 20.388113], [72.8862695, 20.387746100000005], [72.8862047, 20.387592999999995], [72.8862926, 20.3873778], [72.886328, 20.3869229], [72.8869012, 20.386985], [72.8869552, 20.3866398], [72.8869243, 20.386574799999998], [72.8862371, 20.386486699999995], [72.8859967, 20.3864765], [72.8858118, 20.386499700000005], [72.8856701, 20.386560299999996], [72.8856392, 20.3870355]]], [[[72.8837147, 20.390203000000007], [72.8835359, 20.38960940000001], [72.8830891, 20.3896686], [72.8830351, 20.389641099999995], [72.8822169, 20.389890999999995], [72.8822477, 20.389990699999995], [72.88223023248587, 20.390172521107345], [72.88368722835763, 20.390229731064682], [72.8837147, 20.390203000000007]]]]}}, {"type": "Feature", "properties": {"layer": "building", "distance_m": 394.2, "source": "Google Open Buildings", "in_industrial_zone": false, "ghsl_2018": 0}, "geometry": {"type": "Polygon", "coordinates": [[[72.879993, 20.365230599999997], [72.88008309999998, 20.365233399999997], [72.88008029999999, 20.365312699999997], [72.8799902, 20.36531], [72.879993, 20.365230599999997]]]}}, {"type": "Feature", "properties": {"layer": "building", "distance_m": 381.6, "source": "Google Open Buildings", "in_industrial_zone": false, "ghsl_2018": 0}, "geometry": {"type": "Polygon", "coordinates": [[[72.8800639, 20.3654327], [72.88012979999999, 20.3654424], [72.8800986, 20.365630999999997], [72.88003269999999, 20.3656213], [72.8800639, 20.3654327]]]}}, {"type": "Feature", "properties": {"layer": "building", "distance_m": 317.4, "source": "Google Open Buildings", "in_industrial_zone": false, "ghsl_2018": 1}, "geometry": {"type": "Polygon", "coordinates": [[[72.88052309999999, 20.3658649], [72.880563, 20.3658631], [72.8805615, 20.365834799999995], [72.8806149, 20.3658324], [72.88061630000001, 20.365860700000002], [72.8806468, 20.3658593], [72.8806507, 20.3659368], [72.880527, 20.365942400000005], [72.88052309999999, 20.3658649]]]}}, {"type": "Feature", "properties": {"layer": "building", "distance_m": 496.9, "source": "Google Open Buildings", "in_industrial_zone": false, "ghsl_2018": 1}, "geometry": {"type": "Polygon", "coordinates": [[[72.88738040000001, 20.371100400000003], [72.88752580000002, 20.3711408], [72.88748400000001, 20.3712746], [72.88733860000002, 20.3712343], [72.88738040000001, 20.371100400000003]]]}}, {"type": "Feature", "properties": {"layer": "building", "distance_m": 489.0, "source": "Google Open Buildings", "in_industrial_zone": false, "ghsl_2018": 1}, "geometry": {"type": "Polygon", "coordinates": [[[72.88741940000001, 20.370972600000005], [72.8875656, 20.3710122], [72.88752610000002, 20.37114190000001], [72.88737990000001, 20.3711023], [72.88741940000001, 20.370972600000005]]]}}, {"type": "Feature", "properties": {"layer": "building", "distance_m": 457.9, "source": "Google Open Buildings", "in_industrial_zone": false, "ghsl_2018": 0}, "geometry": {"type": "Polygon", "coordinates": [[[72.88740400000002, 20.370599999999996], [72.88754280000002, 20.3706365], [72.88745840000001, 20.3709224], [72.8873196, 20.370885899999998], [72.88740400000002, 20.370599999999996]]]}}, {"type": "Feature", "properties": {"layer": "building", "distance_m": 421.8, "source": "Google Open Buildings", "in_industrial_zone": false, "ghsl_2018": 1}, "geometry": {"type": "Polygon", "coordinates": [[[72.8874911, 20.370077899999995], [72.88746060000001, 20.370182600000003], [72.8874173, 20.370171399999993], [72.8874478, 20.3700666], [72.8874911, 20.370077899999995]]]}}, {"type": "Feature", "properties": {"layer": "building", "distance_m": 471.6, "source": "Google Open Buildings", "in_industrial_zone": false, "ghsl_2018": 1}, "geometry": {"type": "Polygon", "coordinates": [[[72.88719630000001, 20.3709477], [72.8873464, 20.370991900000003], [72.8872672, 20.371231099999996], [72.8871171, 20.371187000000003], [72.88719630000001, 20.3709477]]]}}, {"type": "Feature", "properties": {"layer": "building", "distance_m": 488.5, "source": "Google Open Buildings", "in_industrial_zone": false, "ghsl_2018": 1}, "geometry": {"type": "Polygon", "coordinates": [[[72.88710930000002, 20.3712073], [72.88725960000001, 20.371249400000004], [72.887184, 20.371488799999998], [72.88703380000001, 20.371446600000002], [72.88710930000002, 20.3712073]]]}}, {"type": "Feature", "properties": {"layer": "building", "distance_m": 407.4, "source": "Google Open Buildings", "in_industrial_zone": false, "ghsl_2018": 0}, "geometry": {"type": "Polygon", "coordinates": [[[72.88621460000002, 20.370885500000004], [72.8862439, 20.370891199999996], [72.886269, 20.370926599999997], [72.8862636, 20.3709516], [72.8862367, 20.370946399999998], [72.88621010000001, 20.3709061], [72.88621460000002, 20.370885500000004]]]}}, {"type": "Feature", "properties": {"layer": "building", "distance_m": 348.1, "source": "Google Open Buildings", "in_industrial_zone": false, "ghsl_2018": 0}, "geometry": {"type": "Polygon", "coordinates": [[[72.8854681, 20.370623599999995], [72.8855723, 20.37064150000001], [72.8855429, 20.370794300000007], [72.8854387, 20.3707765], [72.8854681, 20.370623599999995]]]}}, {"type": "Feature", "properties": {"layer": "building", "distance_m": 496.5, "source": "Google Open Buildings", "in_industrial_zone": true, "ghsl_2018": 2}, "geometry": {"type": "Polygon", "coordinates": [[[72.883896, 20.372153599999997], [72.88393000000002, 20.372149900000004], [72.8839343, 20.3721852], [72.8839004, 20.372188900000005], [72.883896, 20.372153599999997]]]}}, {"type": "Feature", "properties": {"layer": "building", "distance_m": 477.9, "source": "OpenStreetMap", "in_industrial_zone": true, "ghsl_2018": 2}, "geometry": {"type": "Polygon", "coordinates": [[[72.8848134, 20.372208700000005], [72.88460190000002, 20.372318199999995], [72.8844675, 20.3720901], [72.884679, 20.371980599999997], [72.8848134, 20.372208700000005]]]}}, {"type": "Feature", "properties": {"layer": "building", "distance_m": 73.7, "source": "Google Open Buildings", "in_industrial_zone": false, "ghsl_2018": 0}, "geometry": {"type": "Polygon", "coordinates": [[[72.8850354, 20.3654927], [72.8850651, 20.3654941], [72.8850633, 20.365528], [72.8850336, 20.365526599999995], [72.8850354, 20.3654927]]]}}, {"type": "Feature", "properties": {"layer": "building", "distance_m": 86.9, "source": "Google Open Buildings", "in_industrial_zone": false, "ghsl_2018": 0}, "geometry": {"type": "Polygon", "coordinates": [[[72.8850173, 20.365279299999997], [72.8851627, 20.365306700000005], [72.8851458, 20.365386200000003], [72.8850004, 20.3653587], [72.8850173, 20.365279299999997]]]}}, {"type": "Feature", "properties": {"layer": "building", "distance_m": 76.6, "source": "Google Open Buildings", "in_industrial_zone": false, "ghsl_2018": 0}, "geometry": {"type": "Polygon", "coordinates": [[[72.8850708, 20.365482500000002], [72.885198, 20.3654971], [72.8851936, 20.365531], [72.8850664, 20.3655164], [72.8850708, 20.365482500000002]]]}}, {"type": "Feature", "properties": {"layer": "building", "distance_m": 82.6, "source": "Google Open Buildings", "in_industrial_zone": false, "ghsl_2018": 0}, "geometry": {"type": "Polygon", "coordinates": [[[72.885196, 20.365496499999992], [72.8852862, 20.3655068], [72.8852812, 20.365545300000008], [72.885191, 20.365534900000004], [72.885196, 20.365496499999992]]]}}, {"type": "Feature", "properties": {"layer": "building", "distance_m": 186.6, "source": "Google Open Buildings", "in_industrial_zone": false, "ghsl_2018": 1}, "geometry": {"type": "Polygon", "coordinates": [[[72.8850392, 20.364286400000005], [72.8851107, 20.36429469999999], [72.8850964, 20.3644032], [72.885025, 20.364394800000003], [72.8850392, 20.364286400000005]]]}}, {"type": "Feature", "properties": {"layer": "building", "distance_m": 181.0, "source": "Google Open Buildings", "in_industrial_zone": false, "ghsl_2018": 1}, "geometry": {"type": "Polygon", "coordinates": [[[72.885036, 20.3644045], [72.8850874, 20.364414600000007], [72.8850779, 20.364457600000005], [72.8850265, 20.3644475], [72.885036, 20.3644045]]]}}, {"type": "Feature", "properties": {"layer": "building", "distance_m": 474.9, "source": "Google Open Buildings", "in_industrial_zone": false, "ghsl_2018": 0}, "geometry": {"type": "Polygon", "coordinates": [[[72.8850615, 20.361705899999997], [72.88510540000001, 20.3617264], [72.8850875, 20.361760499999992], [72.8850436, 20.36174], [72.8850615, 20.361705899999997]]]}}, {"type": "Feature", "properties": {"layer": "building", "distance_m": 279.3, "source": "Google Open Buildings", "in_industrial_zone": false, "ghsl_2018": 0}, "geometry": {"type": "Polygon", "coordinates": [[[72.8855139, 20.363558299999994], [72.8855196, 20.3636346], [72.8854392, 20.3636399], [72.8854335, 20.3635637], [72.8855139, 20.363558299999994]]]}}, {"type": "Feature", "properties": {"layer": "building", "distance_m": 106.6, "source": "Google Open Buildings", "in_industrial_zone": true, "ghsl_2018": 2}, "geometry": {"type": "Polygon", "coordinates": [[[72.88452310000001, 20.3649928], [72.8845627, 20.364997100000004], [72.8845554, 20.365057000000004], [72.8845158, 20.3650528], [72.88452310000001, 20.3649928]]]}}, {"type": "Feature", "properties": {"layer": "building", "distance_m": 127.7, "source": "Google Open Buildings", "in_industrial_zone": true, "ghsl_2018": 1}, "geometry": {"type": "Polygon", "coordinates": [[[72.8845726, 20.3647173], [72.884616, 20.36472150000001], [72.8846002, 20.3648668], [72.8845568, 20.3648626], [72.8845726, 20.3647173]]]}}, {"type": "Feature", "properties": {"layer": "building", "distance_m": 108.3, "source": "Google Open Buildings", "in_industrial_zone": false, "ghsl_2018": 0}, "geometry": {"type": "Polygon", "coordinates": [[[72.8847681, 20.364990299999995], [72.88501580000002, 20.365023899999997], [72.885005, 20.365094700000004], [72.8847573, 20.3650612], [72.8847681, 20.364990299999995]]]}}, {"type": "Feature", "properties": {"layer": "building", "distance_m": 81.5, "source": "Google Open Buildings", "in_industrial_zone": true, "ghsl_2018": 1}, "geometry": {"type": "Polygon", "coordinates": [[[72.8846013, 20.365099200000003], [72.8847225, 20.3651188], [72.8846902, 20.3652957], [72.884569, 20.365276], [72.8846013, 20.365099200000003]]]}}, {"type": "Feature", "properties": {"layer": "building", "distance_m": 64.5, "source": "Google Open Buildings", "in_industrial_zone": true, "ghsl_2018": 0}, "geometry": {"type": "Polygon", "coordinates": [[[72.8845665, 20.3652997], [72.884631, 20.365309499999995], [72.8846085, 20.365440099999997], [72.884544, 20.365430200000002], [72.8845665, 20.3652997]]]}}, {"type": "Feature", "properties": {"layer": "building", "distance_m": 160.7, "source": "Google Open Buildings", "in_industrial_zone": true, "ghsl_2018": 2}, "geometry": {"type": "Polygon", "coordinates": [[[72.8843396, 20.3645119], [72.8844217, 20.3645257], [72.8844125, 20.364574399999995], [72.8843304, 20.3645606], [72.8843396, 20.3645119]]]}}, {"type": "Feature", "properties": {"layer": "building", "distance_m": 166.0, "source": "Google Open Buildings", "in_industrial_zone": true, "ghsl_2018": 1}, "geometry": {"type": "Polygon", "coordinates": [[[72.8842994, 20.3644102], [72.8844391, 20.3644336], [72.8844217, 20.3645257], [72.88428200000001, 20.3645022], [72.8842994, 20.3644102]]]}}, {"type": "Feature", "properties": {"layer": "building", "distance_m": 105.0, "source": "Google Open Buildings", "in_industrial_zone": true, "ghsl_2018": 2}, "geometry": {"type": "Polygon", "coordinates": [[[72.8842225, 20.364934499999993], [72.8843403, 20.3649533], [72.8843294, 20.3650146], [72.884299, 20.3650097], [72.8842818, 20.365105800000002], [72.8842227, 20.3650964], [72.8842399, 20.365000299999995], [72.8842115, 20.3649958], [72.8842225, 20.364934499999993]]]}}, {"type": "Feature", "properties": {"layer": "building", "distance_m": 479.9, "source": "Google Open Buildings", "in_industrial_zone": false, "ghsl_2018": 1}, "geometry": {"type": "Polygon", "coordinates": [[[72.8841222, 20.361564], [72.8841552, 20.361561599999998], [72.8841666, 20.3617004], [72.8841108, 20.3617045], [72.8840995, 20.361565700000007], [72.8841222, 20.361564]]]}}, {"type": "Feature", "properties": {"layer": "building", "distance_m": 486.6, "source": "Google Open Buildings", "in_industrial_zone": false, "ghsl_2018": 1}, "geometry": {"type": "Polygon", "coordinates": [[[72.8840583, 20.361562200000012], [72.8840989, 20.361559200000002], [72.8841059, 20.361644499999997], [72.8840653, 20.361647499999997], [72.8840583, 20.361562200000012]]]}}, {"type": "Feature", "properties": {"layer": "building", "distance_m": 136.4, "source": "Google Open Buildings", "in_industrial_zone": true, "ghsl_2018": 1}, "geometry": {"type": "Polygon", "coordinates": [[[72.8840597, 20.3646023], [72.8841856, 20.364619399999995], [72.8841756, 20.364684600000007], [72.8841183, 20.364676799999994], [72.8841045, 20.364767099999998], [72.8841618, 20.364774899999997], [72.8841507, 20.364847299999997], [72.8840248, 20.3648302], [72.8840597, 20.3646023]]]}}, {"type": "Feature", "properties": {"layer": "building", "distance_m": 109.8, "source": "Google Open Buildings", "in_industrial_zone": true, "ghsl_2018": 1}, "geometry": {"type": "Polygon", "coordinates": [[[72.8840081, 20.3649706], [72.8841849, 20.3650034], [72.8841654, 20.3650969], [72.8839886, 20.365064099999998], [72.8840081, 20.3649706]]]}}, {"type": "Feature", "properties": {"layer": "building", "distance_m": 85.4, "source": "Google Open Buildings", "in_industrial_zone": true, "ghsl_2018": 1}, "geometry": {"type": "Polygon", "coordinates": [[[72.8839859, 20.365121600000002], [72.8843637, 20.365191799999995], [72.8843466, 20.365273300000002], [72.8839689, 20.365203099999995], [72.8839859, 20.365121600000002]]]}}, {"type": "Feature", "properties": {"layer": "building", "distance_m": 71.1, "source": "Google Open Buildings", "in_industrial_zone": true, "ghsl_2018": 0}, "geometry": {"type": "Polygon", "coordinates": [[[72.8841377, 20.365373999999992], [72.8842347, 20.3653893], [72.8842226, 20.365457799999998], [72.8841256, 20.3654425], [72.8841377, 20.365373999999992]]]}}, {"type": "Feature", "properties": {"layer": "building", "distance_m": 482.5, "source": "Google Open Buildings", "in_industrial_zone": false, "ghsl_2018": 1}, "geometry": {"type": "Polygon", "coordinates": [[[72.8838667, 20.361634300000002], [72.8838988, 20.361630800000007], [72.8839078, 20.3617043], [72.8838757, 20.3617078], [72.8838667, 20.361634300000002]]]}}, {"type": "Feature", "properties": {"layer": "building", "distance_m": 413.1, "source": "Google Open Buildings", "in_industrial_zone": false, "ghsl_2018": 1}, "geometry": {"type": "Polygon", "coordinates": [[[72.8838111, 20.362287099999996], [72.8838535, 20.362289199999996], [72.8838503, 20.362347], [72.8838079, 20.3623449], [72.8838111, 20.362287099999996]]]}}, {"type": "Feature", "properties": {"layer": "building", "distance_m": 400.7, "source": "Google Open Buildings", "in_industrial_zone": false, "ghsl_2018": 1}, "geometry": {"type": "Polygon", "coordinates": [[[72.8839046, 20.362347200000002], [72.8840114, 20.3623529], [72.8840063, 20.3624375], [72.8838995, 20.362431699999995], [72.8839046, 20.362347200000002]]]}}, {"type": "Feature", "properties": {"layer": "building", "distance_m": 479.9, "source": "Google Open Buildings", "in_industrial_zone": false, "ghsl_2018": 1}, "geometry": {"type": "Polygon", "coordinates": [[[72.8840588, 20.3615686], [72.8840653, 20.361647499999997], [72.8841059, 20.361644499999997], [72.8841108, 20.3617045], [72.883903, 20.361719600000004], [72.8838917, 20.3615808], [72.8840588, 20.3615686]]]}}, {"type": "Feature", "properties": {"layer": "building", "distance_m": 197.3, "source": "Google Open Buildings", "in_industrial_zone": false, "ghsl_2018": 1}, "geometry": {"type": "Polygon", "coordinates": [[[72.8856661, 20.364416000000002], [72.885836, 20.364450099999996], [72.8858037, 20.3645926], [72.8856339, 20.364558499999998], [72.8856661, 20.364416000000002]]]}}, {"type": "Feature", "properties": {"layer": "building", "distance_m": 199.6, "source": "Google Open Buildings", "in_industrial_zone": false, "ghsl_2018": 0}, "geometry": {"type": "Polygon", "coordinates": [[[72.8855862, 20.364336599999998], [72.8856267, 20.364341300000003], [72.8856061, 20.364496900000002], [72.8855657, 20.3644921], [72.8855862, 20.364336599999998]]]}}, {"type": "Feature", "properties": {"layer": "building", "distance_m": 267.5, "source": "Google Open Buildings", "in_industrial_zone": false, "ghsl_2018": 0}, "geometry": {"type": "Polygon", "coordinates": [[[72.8855461, 20.3636328], [72.8855548, 20.363748899999997], [72.885448, 20.363756100000003], [72.8854392, 20.3636399], [72.8855461, 20.3636328]]]}}, {"type": "Feature", "properties": {"layer": "building", "distance_m": 148.3, "source": "Google Open Buildings", "in_industrial_zone": false, "ghsl_2018": 1}, "geometry": {"type": "Polygon", "coordinates": [[[72.885823, 20.365154800000003], [72.8859546, 20.3652052], [72.8859114, 20.365305600000003], [72.8857798, 20.3652552], [72.885823, 20.365154800000003]]]}}, {"type": "Feature", "properties": {"layer": "building", "distance_m": 147.2, "source": "Google Open Buildings", "in_industrial_zone": false, "ghsl_2018": 1}, "geometry": {"type": "Polygon", "coordinates": [[[72.8858127, 20.365267800000005], [72.8859114, 20.365305600000003], [72.8858993, 20.365333800000002], [72.88580060000001, 20.365296], [72.8858127, 20.365267800000005]]]}}, {"type": "Feature", "properties": {"layer": "building", "distance_m": 144.2, "source": "Google Open Buildings", "in_industrial_zone": false, "ghsl_2018": 1}, "geometry": {"type": "Polygon", "coordinates": [[[72.8858261, 20.36530580000001], [72.8858993, 20.365333800000002], [72.8858802, 20.365378100000008], [72.8858071, 20.3653501], [72.8858261, 20.36530580000001]]]}}, {"type": "Feature", "properties": {"layer": "building", "distance_m": 160.3, "source": "Google Open Buildings", "in_industrial_zone": false, "ghsl_2018": 1}, "geometry": {"type": "Polygon", "coordinates": [[[72.8858617, 20.3651366], [72.885938, 20.365153700000004], [72.8859297, 20.365186700000002], [72.8858534, 20.365169600000005], [72.8858617, 20.3651366]]]}}, {"type": "Feature", "properties": {"layer": "building", "distance_m": 212.5, "source": "Google Open Buildings", "in_industrial_zone": false, "ghsl_2018": 1}, "geometry": {"type": "Polygon", "coordinates": [[[72.8864519, 20.36505970000001], [72.8865203, 20.365093900000005], [72.88649180000002, 20.365144500000003], [72.88642350000002, 20.365110299999998], [72.8864519, 20.36505970000001]]]}}, {"type": "Feature", "properties": {"layer": "building", "distance_m": 264.3, "source": "Google Open Buildings", "in_industrial_zone": false, "ghsl_2018": 0}, "geometry": {"type": "Polygon", "coordinates": [[[72.8865528, 20.364460599999997], [72.8865834, 20.364474999999995], [72.8865708, 20.364498900000005], [72.8865402, 20.3644844], [72.8865528, 20.364460599999997]]]}}, {"type": "Feature", "properties": {"layer": "building", "distance_m": 222.0, "source": "Google Open Buildings", "in_industrial_zone": false, "ghsl_2018": 1}, "geometry": {"type": "Polygon", "coordinates": [[[72.88661630000001, 20.36517149999999], [72.88674060000001, 20.365177800000005], [72.8867356, 20.365265799999996], [72.8866113, 20.3652595], [72.88661630000001, 20.36517149999999]]]}}, {"type": "Feature", "properties": {"layer": "building", "distance_m": 237.7, "source": "Google Open Buildings", "in_industrial_zone": false, "ghsl_2018": 1}, "geometry": {"type": "Polygon", "coordinates": [[[72.8868926, 20.365193999999995], [72.8868804, 20.3653078], [72.8867938, 20.3652996], [72.8868035, 20.365208899999995], [72.88684750000002, 20.3652131], [72.8868499, 20.36519], [72.8868926, 20.365193999999995]]]}}, {"type": "Feature", "properties": {"layer": "building", "distance_m": 473.9, "source": "Google Open Buildings", "in_industrial_zone": false, "ghsl_2018": 1}, "geometry": {"type": "Polygon", "coordinates": [[[72.8892337, 20.3656444], [72.88927129999999, 20.36565880000001], [72.8892467, 20.365715800000004], [72.8892092, 20.3657014], [72.8892337, 20.3656444]]]}}, {"type": "Feature", "properties": {"layer": "building", "distance_m": 478.0, "source": "Google Open Buildings", "in_industrial_zone": false, "ghsl_2018": 1}, "geometry": {"type": "Polygon", "coordinates": [[[72.88924890000001, 20.365618199999997], [72.8892817, 20.3656299], [72.88926990000002, 20.365659499999996], [72.88923709999999, 20.365647800000005], [72.88924890000001, 20.365618199999997]]]}}, {"type": "Feature", "properties": {"layer": "building", "distance_m": 476.4, "source": "Google Open Buildings", "in_industrial_zone": false, "ghsl_2018": 1}, "geometry": {"type": "Polygon", "coordinates": [[[72.8892412, 20.3655463], [72.88930590000001, 20.365569300000004], [72.8892817, 20.3656299], [72.889217, 20.36560689999999], [72.8892412, 20.3655463]]]}}, {"type": "Feature", "properties": {"layer": "building", "distance_m": 468.0, "source": "Google Open Buildings", "in_industrial_zone": false, "ghsl_2018": 1}, "geometry": {"type": "Polygon", "coordinates": [[[72.8892158, 20.365776500000003], [72.8893138, 20.3657972], [72.8892935, 20.3658822], [72.8891955, 20.365861499999998], [72.8892158, 20.365776500000003]]]}}, {"type": "Feature", "properties": {"layer": "building", "distance_m": 480.2, "source": "Google Open Buildings", "in_industrial_zone": false, "ghsl_2018": 1}, "geometry": {"type": "Polygon", "coordinates": [[[72.88926850000001, 20.3652926], [72.8894223, 20.365363], [72.889374, 20.365456899999995], [72.88922019999998, 20.365386500000003], [72.88926850000001, 20.3652926]]]}}, {"type": "Feature", "properties": {"layer": "building", "distance_m": 479.0, "source": "Google Open Buildings", "in_industrial_zone": false, "ghsl_2018": 1}, "geometry": {"type": "Polygon", "coordinates": [[[72.88932960000001, 20.365797], [72.8894341, 20.365821799999996], [72.88940670000001, 20.365924499999995], [72.88936450000003, 20.3659145], [72.88937010000001, 20.365893300000003], [72.88930790000002, 20.365878500000004], [72.88932960000001, 20.365797]]]}}, {"type": "Feature", "properties": {"layer": "building", "distance_m": 489.9, "source": "Google Open Buildings", "in_industrial_zone": false, "ghsl_2018": 1}, "geometry": {"type": "Polygon", "coordinates": [[[72.88938659999998, 20.3656166], [72.8894476, 20.365641800000002], [72.88942109999999, 20.365698799999997], [72.8893601, 20.3656737], [72.88938659999998, 20.3656166]]]}}, {"type": "Feature", "properties": {"layer": "building", "distance_m": 460.9, "source": "Google Open Buildings", "in_industrial_zone": false, "ghsl_2018": 1}, "geometry": {"type": "Polygon", "coordinates": [[[72.8891668, 20.3657255], [72.8892318, 20.3657504], [72.8891836, 20.365862299999996], [72.88911860000002, 20.365837300000003], [72.8891668, 20.3657255]]]}}, {"type": "Feature", "properties": {"layer": "building", "distance_m": 465.5, "source": "Google Open Buildings", "in_industrial_zone": false, "ghsl_2018": 1}, "geometry": {"type": "Polygon", "coordinates": [[[72.8891616, 20.365527599999997], [72.8892389, 20.3655562], [72.88920770000001, 20.365631099999998], [72.8892353, 20.3656413], [72.88922020000001, 20.3656774], [72.8891154, 20.3656387], [72.8891616, 20.365527599999997]]]}}, {"type": "Feature", "properties": {"layer": "building", "distance_m": 462.4, "source": "Google Open Buildings", "in_industrial_zone": false, "ghsl_2018": 1}, "geometry": {"type": "Polygon", "coordinates": [[[72.8891466, 20.365657099999996], [72.8891907, 20.365672800000002], [72.88915330000002, 20.365766500000003], [72.8891092, 20.365750899999995], [72.8891466, 20.365657099999996]]]}}, {"type": "Feature", "properties": {"layer": "building", "distance_m": 460.2, "source": "Google Open Buildings", "in_industrial_zone": false, "ghsl_2018": 1}, "geometry": {"type": "Polygon", "coordinates": [[[72.8891027, 20.365698], [72.88912689999998, 20.365706600000003], [72.8891092, 20.365750899999995], [72.889085, 20.3657423], [72.8891027, 20.365698]]]}}, {"type": "Feature", "properties": {"layer": "building", "distance_m": 455.3, "source": "Google Open Buildings", "in_industrial_zone": false, "ghsl_2018": 1}, "geometry": {"type": "Polygon", "coordinates": [[[72.8890311, 20.365502999999993], [72.88908040000001, 20.365520899999996], [72.8890561, 20.365580499999997], [72.8890069, 20.365562600000004], [72.8890311, 20.365502999999993]]]}}, {"type": "Feature", "properties": {"layer": "building", "distance_m": 423.2, "source": "Google Open Buildings", "in_industrial_zone": false, "ghsl_2018": 1}, "geometry": {"type": "Polygon", "coordinates": [[[72.88882230000002, 20.365946999999995], [72.8892464, 20.3660661], [72.8892203, 20.366148799999998], [72.8887962, 20.3660297], [72.88882230000002, 20.365946999999995]]]}}, {"type": "Feature", "properties": {"layer": "building", "distance_m": 450.1, "source": "Google Open Buildings", "in_industrial_zone": false, "ghsl_2018": 1}, "geometry": {"type": "Polygon", "coordinates": [[[72.8890069, 20.365562600000004], [72.8890561, 20.365580499999997], [72.88901850000002, 20.3656728], [72.8889693, 20.365655000000004], [72.8890069, 20.365562600000004]]]}}, {"type": "Feature", "properties": {"layer": "building", "distance_m": 421.1, "source": "Google Open Buildings", "in_industrial_zone": false, "ghsl_2018": 1}, "geometry": {"type": "Polygon", "coordinates": [[[72.88870810000002, 20.365450899999995], [72.88882780000002, 20.365467900000002], [72.88881270000002, 20.3655618], [72.8887801, 20.365557199999998], [72.8887703, 20.365617799999995], [72.8886833, 20.365605399999993], [72.88870810000002, 20.365450899999995]]]}}, {"type": "Feature", "properties": {"layer": "building", "distance_m": 453.3, "source": "Google Open Buildings", "in_industrial_zone": false, "ghsl_2018": 0}, "geometry": {"type": "Polygon", "coordinates": [[[72.8888734, 20.364951800000004], [72.88891370000002, 20.3649596], [72.8889038, 20.365005199999995], [72.8888634, 20.364997399999996], [72.8888734, 20.364951800000004]]]}}, {"type": "Feature", "properties": {"layer": "building", "distance_m": 437.3, "source": "Google Open Buildings", "in_industrial_zone": false, "ghsl_2018": 1}, "geometry": {"type": "Polygon", "coordinates": [[[72.88876370000001, 20.364980099999997], [72.888878, 20.365026999999998], [72.88883860000001, 20.365112199999995], [72.8887244, 20.365065299999998], [72.88876370000001, 20.364980099999997]]]}}, {"type": "Feature", "properties": {"layer": "building", "distance_m": 408.2, "source": "Google Open Buildings", "in_industrial_zone": false, "ghsl_2018": 1}, "geometry": {"type": "Polygon", "coordinates": [[[72.8885324, 20.365096400000002], [72.88850690000001, 20.365204899999988], [72.8884734, 20.3651979], [72.8884989, 20.3650894], [72.8885324, 20.365096400000002]]]}}, {"type": "Feature", "properties": {"layer": "building", "distance_m": 410.1, "source": "Google Open Buildings", "in_industrial_zone": false, "ghsl_2018": 1}, "geometry": {"type": "Polygon", "coordinates": [[[72.888538, 20.3651182], [72.8886253, 20.365136199999995], [72.8886141, 20.365184600000003], [72.8886591, 20.365193900000005], [72.88864250000003, 20.365265399999995], [72.88857800000001, 20.365252099999996], [72.8885746, 20.3652668], [72.8885068, 20.365252800000004], [72.888538, 20.3651182]]]}}, {"type": "Feature", "properties": {"layer": "building", "distance_m": 423.3, "source": "Google Open Buildings", "in_industrial_zone": false, "ghsl_2018": 1}, "geometry": {"type": "Polygon", "coordinates": [[[72.88862740000002, 20.365124100000003], [72.88867430000002, 20.365134899999994], [72.88866210000002, 20.365182000000004], [72.8886152, 20.3651712], [72.88862740000002, 20.365124100000003]]]}}, {"type": "Feature", "properties": {"layer": "building", "distance_m": 413.5, "source": "Google Open Buildings", "in_industrial_zone": false, "ghsl_2018": 1}, "geometry": {"type": "Polygon", "coordinates": [[[72.88862240000002, 20.365438600000004], [72.88870810000002, 20.365450899999995], [72.88868839999999, 20.3655737], [72.8886027, 20.365561499999995], [72.88862240000002, 20.365438600000004]]]}}, {"type": "Feature", "properties": {"layer": "building", "distance_m": 409.3, "source": "Google Open Buildings", "in_industrial_zone": false, "ghsl_2018": 1}, "geometry": {"type": "Polygon", "coordinates": [[[72.88870140000002, 20.365936999999995], [72.8887522, 20.365962599999996], [72.88870750000001, 20.366041699999997], [72.8886566, 20.366016099999996], [72.88870140000002, 20.365936999999995]]]}}, {"type": "Feature", "properties": {"layer": "building", "distance_m": 329.1, "source": "Google Open Buildings", "in_industrial_zone": false, "ghsl_2018": 1}, "geometry": {"type": "Polygon", "coordinates": [[[72.88795959999999, 20.366012299999998], [72.88827390000002, 20.366131100000008], [72.888215, 20.3662695], [72.8879008, 20.366150700000002], [72.88795959999999, 20.366012299999998]]]}}, {"type": "Feature", "properties": {"layer": "building", "distance_m": 312.7, "source": "Google Open Buildings", "in_industrial_zone": false, "ghsl_2018": 1}, "geometry": {"type": "Polygon", "coordinates": [[[72.88786100000002, 20.3663269], [72.88817640000002, 20.366443200000003], [72.88812010000001, 20.3665788], [72.8878047, 20.3664624], [72.88786100000002, 20.3663269]]]}}, {"type": "Feature", "properties": {"layer": "building", "distance_m": 333.9, "source": "Google Open Buildings", "in_industrial_zone": false, "ghsl_2018": 1}, "geometry": {"type": "Polygon", "coordinates": [[[72.8879961, 20.366376700000004], [72.8880548, 20.366235200000002], [72.8882351, 20.366301699999998], [72.88817640000002, 20.366443200000003], [72.8879961, 20.366376700000004]]]}}, {"type": "Feature", "properties": {"layer": "building", "distance_m": 488.2, "source": "OpenStreetMap", "in_industrial_zone": false, "ghsl_2018": 1}, "geometry": {"type": "Polygon", "coordinates": [[[72.88841330000001, 20.363386799999997], [72.8883423, 20.363361299999998], [72.8883738, 20.3632844], [72.88844480000002, 20.36330999999999], [72.88841330000001, 20.363386799999997]]]}}, {"type": "Feature", "properties": {"layer": "building", "distance_m": 330.1, "source": "Google Open Buildings", "in_industrial_zone": false, "ghsl_2018": 0}, "geometry": {"type": "Polygon", "coordinates": [[[72.8878011, 20.3651513], [72.8877895, 20.365221199999993], [72.88776, 20.365216899999993], [72.88775739999998, 20.365232500000005], [72.88770479999998, 20.365224800000004], [72.88771900000002, 20.36513920000001], [72.8878011, 20.3651513]]]}}, {"type": "Feature", "properties": {"layer": "building", "distance_m": 320.9, "source": "Google Open Buildings", "in_industrial_zone": false, "ghsl_2018": 1}, "geometry": {"type": "Polygon", "coordinates": [[[72.88791970000001, 20.3661854], [72.88802590000002, 20.3662246], [72.8879672, 20.3663661], [72.88786100000002, 20.3663269], [72.88791970000001, 20.3661854]]]}}, {"type": "Feature", "properties": {"layer": "building", "distance_m": 304.5, "source": "Google Open Buildings", "in_industrial_zone": false, "ghsl_2018": 1}, "geometry": {"type": "Polygon", "coordinates": [[[72.8877982, 20.366478699999995], [72.88810360000001, 20.366593699999996], [72.8880491, 20.366722399999993], [72.8877437, 20.366607400000003], [72.8877982, 20.366478699999995]]]}}, {"type": "Feature", "properties": {"layer": "building", "distance_m": 313.7, "source": "Google Open Buildings", "in_industrial_zone": false, "ghsl_2018": 0}, "geometry": {"type": "Polygon", "coordinates": [[[72.8878666, 20.3670572], [72.8878973, 20.3670639], [72.88787690000001, 20.367146100000003], [72.8878462, 20.3671393], [72.8878666, 20.3670572]]]}}, {"type": "Feature", "properties": {"layer": "building", "distance_m": 305.6, "source": "Google Open Buildings", "in_industrial_zone": false, "ghsl_2018": 0}, "geometry": {"type": "Polygon", "coordinates": [[[72.8877765, 20.3670643], [72.88782899999998, 20.36707270000001], [72.8878243, 20.367098700000003], [72.88777179999998, 20.3670903], [72.8877765, 20.3670643]]]}}, {"type": "Feature", "properties": {"layer": "building", "distance_m": 441.7, "source": "Google Open Buildings", "in_industrial_zone": false, "ghsl_2018": 0}, "geometry": {"type": "Polygon", "coordinates": [[[72.88750060000001, 20.3702871], [72.88763570000002, 20.3703228], [72.8875496, 20.370612699999995], [72.88741440000001, 20.3705769], [72.88750060000001, 20.3702871]]]}}, {"type": "Feature", "properties": {"layer": "building", "distance_m": 473.9, "source": "Google Open Buildings", "in_industrial_zone": false, "ghsl_2018": 0}, "geometry": {"type": "Polygon", "coordinates": [[[72.88758330000002, 20.3706345], [72.88772170000001, 20.370670800000003], [72.88763610000001, 20.3709609], [72.88749770000001, 20.370924599999995], [72.88758330000002, 20.3706345]]]}}, {"type": "Feature", "properties": {"layer": "building", "distance_m": 402.9, "source": "Google Open Buildings", "in_industrial_zone": false, "ghsl_2018": 1}, "geometry": {"type": "Polygon", "coordinates": [[[72.88761570000001, 20.369644800000003], [72.8878911, 20.3697308], [72.8878427, 20.369868599999993], [72.88759200000001, 20.369790300000005], [72.8876089, 20.369742100000003], [72.88758430000001, 20.3697344], [72.88761570000001, 20.369644800000003]]]}}, {"type": "Feature", "properties": {"layer": "building", "distance_m": 391.9, "source": "Google Open Buildings", "in_industrial_zone": false, "ghsl_2018": 1}, "geometry": {"type": "Polygon", "coordinates": [[[72.88763580000001, 20.369471099999995], [72.8879552, 20.369567699999998], [72.88790890000001, 20.369703800000007], [72.8875895, 20.3696072], [72.88763580000001, 20.369471099999995]]]}}, {"type": "Feature", "properties": {"layer": "building", "distance_m": 381.2, "source": "Google Open Buildings", "in_industrial_zone": false, "ghsl_2018": 1}, "geometry": {"type": "Polygon", "coordinates": [[[72.8876788, 20.369262600000003], [72.8880098, 20.369360299999997], [72.88796300000001, 20.369501299999992], [72.88763200000001, 20.369403599999995], [72.8876788, 20.369262600000003]]]}}, {"type": "Feature", "properties": {"layer": "building", "distance_m": 372.8, "source": "Google Open Buildings", "in_industrial_zone": false, "ghsl_2018": 1}, "geometry": {"type": "Polygon", "coordinates": [[[72.8877078, 20.3690936], [72.8880708, 20.369208799999996], [72.888023, 20.369342500000002], [72.8876601, 20.3692273], [72.8877078, 20.3690936]]]}}, {"type": "Feature", "properties": {"layer": "building", "distance_m": 427.4, "source": "Google Open Buildings", "in_industrial_zone": false, "ghsl_2018": 1}, "geometry": {"type": "Polygon", "coordinates": [[[72.887984, 20.369573699999997], [72.88813010000001, 20.3696245], [72.88801240000001, 20.369924999999995], [72.88786630000001, 20.369874200000005], [72.887984, 20.369573699999997]]]}}, {"type": "Feature", "properties": {"layer": "building", "distance_m": 414.9, "source": "Google Open Buildings", "in_industrial_zone": false, "ghsl_2018": 1}, "geometry": {"type": "Polygon", "coordinates": [[[72.88810000000001, 20.369221999999997], [72.88824020000001, 20.3692716], [72.8881761, 20.369432899999996], [72.8881121, 20.369410199999997], [72.88810520000001, 20.36942760000001], [72.88813000000002, 20.3694363], [72.8881209, 20.369459099999993], [72.8881601, 20.369473000000006], [72.88813090000001, 20.3695465], [72.8879907, 20.369496900000005], [72.88810000000001, 20.369221999999997]]]}}, {"type": "Feature", "properties": {"layer": "building", "distance_m": 446.0, "source": "Google Open Buildings", "in_industrial_zone": false, "ghsl_2018": 1}, "geometry": {"type": "Polygon", "coordinates": [[[72.8881683, 20.3696235], [72.8883109, 20.36967479999999], [72.8881926, 20.369967599999995], [72.88805000000002, 20.369916299999993], [72.8881683, 20.3696235]]]}}, {"type": "Feature", "properties": {"layer": "building", "distance_m": 464.5, "source": "Google Open Buildings", "in_industrial_zone": false, "ghsl_2018": 0}, "geometry": {"type": "Polygon", "coordinates": [[[72.88834479999998, 20.3696784], [72.88848820000001, 20.369731199999993], [72.88837010000002, 20.370016900000007], [72.88822670000002, 20.3699642], [72.88834479999998, 20.3696784]]]}}, {"type": "Feature", "properties": {"layer": "building", "distance_m": 494.4, "source": "Google Open Buildings", "in_industrial_zone": false, "ghsl_2018": 0}, "geometry": {"type": "Polygon", "coordinates": [[[72.88877260000001, 20.369562200000004], [72.8888252, 20.3695645], [72.8888238, 20.369591899999993], [72.88877120000001, 20.3695896], [72.88877260000001, 20.369562200000004]]]}}, {"type": "Feature", "properties": {"layer": "building", "distance_m": 499.3, "source": "Google Open Buildings", "in_industrial_zone": false, "ghsl_2018": 1}, "geometry": {"type": "Polygon", "coordinates": [[[72.8895593, 20.365884500000003], [72.88965720000002, 20.365908200000003], [72.8896363, 20.3659852], [72.8896146, 20.365980000000004], [72.8896078, 20.3660052], [72.8895315, 20.365986700000004], [72.8895593, 20.365884500000003]]]}}, {"type": "Feature", "properties": {"layer": "flood_100yr"}, "geometry": {"type": "MultiPolygon", "coordinates": [[[[72.89458480243918, 20.357900000008765], [72.89375146910355, 20.35790000000877], [72.89375146910355, 20.358733333342098], [72.89541813577482, 20.358733333342098], [72.89541813577482, 20.35706666667544], [72.89458480243918, 20.35706666667544], [72.89458480243918, 20.357900000008765]]], [[[72.89375146910355, 20.361233333342103], [72.89458480243918, 20.361233333342103], [72.89458480243918, 20.360400000008763], [72.89375146910355, 20.360400000008767], [72.89375146910355, 20.361233333342103]]], [[[72.89208480243228, 20.362900000008764], [72.89291813576791, 20.362900000008764], [72.89291813576791, 20.361233333342103], [72.89208480243228, 20.361233333342106], [72.89208480243228, 20.362900000008764]]], [[[72.87541813571958, 20.376233333342086], [72.87541813571958, 20.37706666667542], [72.87125146904141, 20.377066666675418], [72.87125146904141, 20.37790000000875], [72.86791813569887, 20.377900000008758], [72.86791813569889, 20.378733333342087], [72.86708480236324, 20.378733333342083], [72.86708480236324, 20.379566666675416], [72.8662514690276, 20.379566666675416], [72.8662514690276, 20.38040000000875], [72.86541813569197, 20.380400000008745], [72.86541813569197, 20.381233333342077], [72.86458480235633, 20.381233333342074], [72.86458480235645, 20.381306257216014], [72.8650931556104, 20.3819463992709], [72.86625146902786, 20.383132777727706], [72.8662514690276, 20.38290000000874], [72.86708480236324, 20.382900000008743], [72.86708480236324, 20.38206666667541], [72.86791813569887, 20.38206666667541], [72.86791813569887, 20.381233333342077], [72.8687514690345, 20.381233333342077], [72.86875146903452, 20.379566666675416], [72.86958480237014, 20.379566666675416], [72.86958480237014, 20.37873333334208], [72.87291813571268, 20.37873333334208], [72.87291813571268, 20.379566666675416], [72.87375146904832, 20.379566666675412], [72.87375146904832, 20.378733333342087], [72.87708480239087, 20.378733333342087], [72.87708480239087, 20.37706666667542], [72.87875146906212, 20.377066666675425], [72.87875146906212, 20.376233333342086], [72.8804181357334, 20.37623333334209], [72.8804181357334, 20.374566666675424], [72.88125146906903, 20.374566666675417], [72.88125146906903, 20.373733333342088], [72.88208480240465, 20.373733333342095], [72.88208480240465, 20.372900000008755], [72.88375146907593, 20.372900000008755], [72.88375146907593, 20.37206666667543], [72.88625146908285, 20.37206666667543], [72.88625146908284, 20.37456666667542], [72.88708480241847, 20.37456666667542], [72.88708480241849, 20.372066666675426], [72.88791813575412, 20.372066666675423], [72.8879181357541, 20.37123333334208], [72.88625146908284, 20.371233333342083], [72.88625146908285, 20.368733333342096], [72.8854181357472, 20.368733333342096], [72.8854181357472, 20.369566666675425], [72.88375146907593, 20.36956666667542], [72.88375146907593, 20.368733333342092], [72.88458480241157, 20.368733333342096], [72.88458480241157, 20.367066666675427], [72.88375146907593, 20.367066666675424], [72.88375146907593, 20.366233333342095], [72.88458480241157, 20.366233333342088], [72.88458480241157, 20.362066666675435], [72.88375146907593, 20.362066666675425], [72.88375146907593, 20.35540000000877], [72.88458480241158, 20.35540000000877], [72.88458480241158, 20.35206666667544], [72.8854181357472, 20.352066666675437], [72.8854181357472, 20.34873333334211], [72.88708480241847, 20.348733333342118], [72.88708480241847, 20.347900000008778], [72.88625146908284, 20.347900000008778], [72.88625146908284, 20.34706666667545], [72.8854181357472, 20.34706666667545], [72.8854181357472, 20.34623333334212], [72.88625146908284, 20.346233333342113], [72.88625146908284, 20.34540000000878], [72.88708480241847, 20.34540000000878], [72.88708480241847, 20.344566666675444], [72.8879181357541, 20.344566666675444], [72.8879181357541, 20.343733333342115], [72.88825952026943, 20.343733333823028], [72.8875738982258, 20.343618662622877], [72.88523841969014, 20.343447313120123], [72.88291813574037, 20.343491601537888], [72.8829181357403, 20.344566666675444], [72.88208480240466, 20.344566666675448], [72.88208480240466, 20.346233333342116], [72.8829181357403, 20.34623333334212], [72.8829181357403, 20.347066666675445], [72.88208480240466, 20.34706666667545], [72.88208480240466, 20.350400000008783], [72.8804181357334, 20.35040000000878], [72.8804181357334, 20.352900000008766], [72.88125146906903, 20.35290000000878], [72.88125146906903, 20.35373333334211], [72.8804181357334, 20.35373333334211], [72.8804181357334, 20.36623333334209], [72.87958480239776, 20.36623333334209], [72.87958480239776, 20.368733333342092], [72.87875146906212, 20.36873333334209], [72.87875146906212, 20.370400000008758], [72.8779181357265, 20.370400000008758], [72.87791813572646, 20.371233333342094], [72.87541813571958, 20.371233333342087], [72.87541813571957, 20.37206666667543], [72.87458480238395, 20.37206666667543], [72.87458480238395, 20.372900000008755], [72.87375146904832, 20.372900000008755], [72.87375146904832, 20.37456666667542], [72.87291813571268, 20.374566666675417], [72.87291813571268, 20.372900000008755], [72.87208480237705, 20.372900000008755], [72.87208480237705, 20.373733333342088], [72.87125146904141, 20.373733333342095], [72.87125146904141, 20.372900000008755], [72.87041813570578, 20.372900000008755], [72.87041813570578, 20.37373333334209], [72.86958480237014, 20.373733333342088], [72.86958480237014, 20.374566666675417], [72.86791813569887, 20.37456666667542], [72.86791813569887, 20.373733333342088], [72.86708480236324, 20.373733333342088], [72.86708480236324, 20.37540000000875], [72.8662514690276, 20.37540000000875], [72.8662514690276, 20.376233333342086], [72.8637514690207, 20.376233333342082], [72.8637514690207, 20.37706666667542], [72.86458480235633, 20.377066666675425], [72.86458480235633, 20.377900000008754], [72.86291813568506, 20.37790000000875], [72.86291813568506, 20.37873333334208], [72.86275777375799, 20.37873333518236], [72.86363898152858, 20.380115217538744], [72.86375146902088, 20.380256870407987], [72.8637514690207, 20.379566666675416], [72.86458480235633, 20.379566666675416], [72.86458480235635, 20.378733333342083], [72.86541813569197, 20.37873333334208], [72.86541813569198, 20.37790000000875], [72.86708480236324, 20.377900000008754], [72.86708480236324, 20.37706666667542], [72.8687514690345, 20.377066666675425], [72.8687514690345, 20.376233333342086], [72.87375146904832, 20.376233333342082], [72.87375146904832, 20.375400000008753], [72.87625146905522, 20.375400000008753], [72.87625146905522, 20.374566666675417], [72.87791813572649, 20.37456666667542], [72.87791813572649, 20.37540000000875], [72.87708480239087, 20.375400000008757], [72.87708480239087, 20.376233333342086], [72.87541813571958, 20.376233333342086]], [[72.87791813572649, 20.37290000000875], [72.87958480239776, 20.37290000000875], [72.87958480239776, 20.373733333342088], [72.87875146906212, 20.373733333342088], [72.87875146906212, 20.37456666667542], [72.87791813572649, 20.37456666667542], [72.87791813572649, 20.37290000000875]]], [[[72.86041813567816, 20.369566666675425], [72.86041813567816, 20.36873333334209], [72.85960425178479, 20.368733333387436], [72.85961373644697, 20.369144669871506], [72.85967300270954, 20.36956667219917], [72.86041813567816, 20.369566666675425]]], [[[72.89291813576791, 20.372066666675426], [72.89208480243228, 20.37206666667543], [72.89208480243228, 20.371233333342087], [72.89041813576102, 20.371233333342083], [72.89041813576101, 20.373733333342088], [72.89208480243228, 20.373733333342088], [72.89208480243228, 20.374566666675417], [72.89375146910355, 20.374566666675424], [72.89375146910356, 20.37290000000876], [72.89291813576791, 20.372900000008755], [72.89291813576791, 20.372066666675426]]], [[[72.87791813572649, 20.384566666675404], [72.87791813572649, 20.382900000008743], [72.87708480239087, 20.382900000008746], [72.87708480239087, 20.384566666675404], [72.87791813572649, 20.384566666675404]]], [[[72.88875146908974, 20.38956666667541], [72.8879181357541, 20.389566666675407], [72.88791813575405, 20.389974539407483], [72.88875146908966, 20.389853715406165], [72.88875146908974, 20.38956666667541]]]]}}, {"type": "Feature", "properties": {"layer": "permanent_water_jrc"}, "geometry": {"type": "MultiPolygon", "coordinates": [[[[72.86791813569887, 20.377900000008758], [72.86708480236324, 20.377900000008754], [72.86708480236324, 20.378733333342083], [72.86791813569889, 20.378733333342087], [72.86791813569887, 20.377900000008758]]], [[[72.86708480236324, 20.379566666675416], [72.86708480236324, 20.378733333342083], [72.8662514690276, 20.37873333334208], [72.8662514690276, 20.379566666675416], [72.86708480236324, 20.379566666675416]]], [[[72.86291813568506, 20.37873333334208], [72.86291813568539, 20.37898481189961], [72.86363898152858, 20.380115217538744], [72.86375146902088, 20.380256870407987], [72.8637514690207, 20.379566666675416], [72.86458480235633, 20.379566666675416], [72.86458480235635, 20.378733333342083], [72.86541813569197, 20.37873333334208], [72.86541813569198, 20.37790000000875], [72.8637514690207, 20.37790000000875], [72.8637514690207, 20.378733333342083], [72.86291813568506, 20.37873333334208]]], [[[72.8662514690276, 20.38040000000875], [72.8662514690276, 20.379566666675416], [72.86458480235633, 20.379566666675416], [72.86458480235633, 20.380400000008752], [72.8662514690276, 20.38040000000875]]], [[[72.86458480235633, 20.381233333342074], [72.86458480235633, 20.380400000008752], [72.86386512965043, 20.38040000024306], [72.86452689207948, 20.381233333470703], [72.86458480235633, 20.381233333342074]]], [[[72.89375146910355, 20.358733333342098], [72.89541813577482, 20.358733333342098], [72.89541813577482, 20.35706666667544], [72.89458480243918, 20.35706666667544], [72.89458480243918, 20.357900000008765], [72.89375146910355, 20.35790000000877], [72.89375146910355, 20.358733333342098]]], [[[72.87541813571958, 20.376233333342086], [72.87541813571958, 20.37706666667542], [72.87708480239087, 20.37706666667542], [72.87708480239087, 20.376233333342086], [72.87791813572649, 20.37623333334209], [72.87791813572649, 20.37456666667542], [72.87958480239776, 20.37456666667542], [72.87958480239776, 20.373733333342088], [72.8804181357334, 20.373733333342088], [72.88041813573338, 20.372066666675423], [72.88208480240466, 20.372066666675426], [72.88208480240466, 20.369566666675425], [72.8829181357403, 20.36956666667543], [72.8829181357403, 20.367900000008756], [72.88375146907593, 20.367900000008763], [72.88375146907593, 20.362900000008768], [72.8829181357403, 20.362900000008764], [72.8829181357403, 20.35540000000877], [72.88375146907593, 20.35540000000877], [72.88375146907592, 20.352066666675444], [72.88458480241158, 20.35206666667544], [72.88458480241157, 20.345400000008773], [72.8854181357472, 20.34540000000878], [72.88541813574706, 20.343460499659468], [72.88523841969014, 20.343447313120123], [72.88375146907597, 20.343475698839786], [72.88375146907593, 20.34540000000878], [72.8829181357403, 20.345400000008784], [72.8829181357403, 20.350400000008783], [72.88208480240466, 20.350400000008783], [72.88208480240466, 20.355400000008764], [72.8804181357334, 20.35540000000877], [72.8804181357334, 20.358733333342098], [72.88208480240466, 20.358733333342098], [72.88208480240466, 20.36540000000876], [72.8804181357334, 20.365400000008762], [72.8804181357334, 20.368733333342096], [72.87958480239776, 20.368733333342092], [72.87958480239776, 20.36956666667543], [72.87875146906212, 20.369566666675425], [72.87875146906212, 20.37206666667543], [72.87791813572649, 20.372066666675426], [72.87791813572649, 20.37290000000875], [72.87708480239087, 20.37290000000875], [72.87708480239087, 20.373733333342088], [72.87625146905522, 20.373733333342088], [72.87625146905522, 20.374566666675417], [72.87375146904832, 20.37456666667542], [72.87375146904832, 20.375400000008753], [72.87458480238395, 20.37540000000875], [72.87458480238395, 20.376233333342086], [72.87541813571958, 20.376233333342086]], [[72.87875146906212, 20.372900000008755], [72.87875146906212, 20.373733333342088], [72.87791813572649, 20.373733333342088], [72.87791813572649, 20.37290000000875], [72.87875146906212, 20.372900000008755]], [[72.87708480239087, 20.37456666667542], [72.87708480239087, 20.375400000008757], [72.87625146905522, 20.375400000008753], [72.87625146905522, 20.374566666675417], [72.87708480239087, 20.37456666667542]]], [[[72.89458480243918, 20.360400000008763], [72.89375146910355, 20.360400000008767], [72.89375146910355, 20.361233333342103], [72.89458480243918, 20.361233333342103], [72.89458480243918, 20.360400000008763]]], [[[72.89291813576791, 20.361233333342103], [72.89208480243228, 20.361233333342106], [72.89208480243228, 20.362900000008764], [72.89291813576791, 20.362900000008764], [72.89291813576791, 20.361233333342103]]], [[[72.89208480243228, 20.371233333342087], [72.89041813576102, 20.371233333342083], [72.89041813576101, 20.373733333342088], [72.89208480243228, 20.373733333342088], [72.89208480243228, 20.374566666675417], [72.89375146910355, 20.374566666675424], [72.89375146910356, 20.37290000000876], [72.89291813576791, 20.372900000008755], [72.89291813576791, 20.372066666675426], [72.89208480243228, 20.37206666667543], [72.89208480243228, 20.371233333342087]]], [[[72.86791813569887, 20.377900000008758], [72.87458480238395, 20.377900000008754], [72.87458480238395, 20.376233333342086], [72.87125146904141, 20.376233333342086], [72.87125146904141, 20.377066666675418], [72.86791813569887, 20.377066666675425], [72.86791813569887, 20.377900000008758]]], [[[72.87791813572649, 20.382900000008743], [72.87708480239087, 20.382900000008746], [72.87708480239087, 20.384566666675404], [72.87791813572649, 20.384566666675404], [72.87791813572649, 20.382900000008743]]], [[[72.88875146908974, 20.38956666667541], [72.8879181357541, 20.389566666675407], [72.88791813575405, 20.389974539407483], [72.88875146908966, 20.389853715406165], [72.88875146908974, 20.38956666667541]]]]}}, {"type": "Feature", "properties": {"layer": "airport", "name": "Daman Airport", "icao": "VADN", "distance_m": 7727.2}, "geometry": {"type": "Polygon", "coordinates": [[[72.8350884, 20.435214799999997], [72.835499, 20.436035499999996], [72.843214, 20.4355061], [72.8451352, 20.439367499999996], [72.8463765, 20.438795900000002], [72.8446736, 20.435422599999995], [72.8446917, 20.435388300000003], [72.8465666, 20.435279100000002], [72.8466847, 20.435180100000004], [72.8461008, 20.434479500000002], [72.8469211, 20.4338559], [72.8469258, 20.433724000000005], [72.845316, 20.431565699999997], [72.8450673, 20.431707299999996], [72.845117, 20.431992200000007], [72.8443067, 20.4322142], [72.8443477, 20.432378100000008], [72.84327630000001, 20.4325784], [72.8384487, 20.422889], [72.8374103, 20.423375900000007], [72.8374137, 20.423825900000004], [72.8426259, 20.4347002], [72.8350884, 20.435214799999997]]]}}, {"type": "Feature", "properties": {"layer": "airport_reference_point", "name": "Daman Airport", "icao": "VADN", "distance_m": 8517.0}, "geometry": {"type": "Point", "coordinates": [72.843201, 20.434401000000005]}}]}