{"type": "FeatureCollection", "features": [{"type": "Feature", "properties": {"layer": "outline_2026", "site": "RAJ-01"}, "geometry": {"type": "Polygon", "coordinates": [[[70.86261528195038, 22.37304583657458], [70.86279410450047, 22.373380374700083], [70.86111989778021, 22.374444826271485], [70.86105031314617, 22.374383830867778], [70.86079791893961, 22.374520889803343], [70.8608584204613, 22.374598233726072], [70.86070299738144, 22.374694894672754], [70.86143521436063, 22.37637687679932], [70.85944118684014, 22.377368994028604], [70.85936666820834, 22.377419198613726], [70.85904855943613, 22.377550411714285], [70.85890942191307, 22.37734471048752], [70.85876644356681, 22.377335759318562], [70.85861384794318, 22.37732974395606], [70.85845632926146, 22.37727634065689], [70.85842579035166, 22.377223332307704], [70.85832112895366, 22.377273590477092], [70.8582091442565, 22.377385827912796], [70.85813743974143, 22.377523377423202], [70.85802964861294, 22.37752507390457], [70.85822615608475, 22.37668296613003], [70.85812258467274, 22.37644507021664], [70.85780643851152, 22.37643835360654], [70.85719159007523, 22.37629044653967], [70.85672989295541, 22.376420106776372], [70.85673292910715, 22.37677474602336], [70.85682929812342, 22.37693753596453], [70.85684851002064, 22.37711417546459], [70.85669635810854, 22.37804963137184], [70.8560879647067, 22.377767616599634], [70.85581875916091, 22.3774115622863], [70.85549844608143, 22.377063383742684], [70.85533111644456, 22.37662829294834], [70.85580841660651, 22.376123237594054], [70.856532888531, 22.375413496063736], [70.8570977562557, 22.374841344900073], [70.85676896593829, 22.374387082091875], [70.85966868738336, 22.371875262590635], [70.86028827651477, 22.371317188238546], [70.86142820752126, 22.37170229865115], [70.86211291482809, 22.371374304258875], [70.86299536790477, 22.372821653890053], [70.86261528195038, 22.37304583657458]]]}}, {"type": "Feature", "properties": {"layer": "union_2016_2026", "site": "RAJ-01"}, "geometry": {"type": "Polygon", "coordinates": [[[70.86299536790477, 22.372821653890053], [70.86278776609494, 22.37245320221956], [70.8625979167715, 22.372070160777703], [70.8622117406806, 22.371253997510422], [70.86212962605195, 22.371367262449652], [70.8621133588943, 22.37137503259853], [70.86211291482809, 22.371374304258875], [70.86142820752126, 22.37170229865115], [70.86028827651477, 22.371317188238546], [70.85966868738336, 22.371875262590635], [70.8587874520374, 22.37263862991898], [70.8587677533572, 22.37262294977313], [70.85676896593829, 22.374387082091875], [70.85678054474283, 22.374403079636462], [70.8567590028205, 22.374421846403425], [70.85681755407882, 22.374454212566278], [70.8570977562557, 22.374841344900073], [70.856532888531, 22.375413496063736], [70.85580841660651, 22.376123237594054], [70.85533111644456, 22.37662829294834], [70.85549844608143, 22.377063383742684], [70.85581875916091, 22.3774115622863], [70.8560879647067, 22.377767616599634], [70.85669635810854, 22.37804963137184], [70.85684851002064, 22.37711417546459], [70.85682929812342, 22.37693753596453], [70.85676783805137, 22.376833715485567], [70.85673255983266, 22.37673161183954], [70.85673068960469, 22.376513158190832], [70.85673231085472, 22.376419427752374], [70.85718549205106, 22.37629215908271], [70.8572000216387, 22.37629404207805], [70.85721414554745, 22.37629587249722], [70.85780643851152, 22.37643835360654], [70.85810156916929, 22.376444623755827], [70.85815532528308, 22.376534364412397], [70.85817778073046, 22.37657185158667], [70.85819856877755, 22.37661960018287], [70.85812256156849, 22.377023838429682], [70.8580149149154, 22.377419350793215], [70.85802177442342, 22.37756179759286], [70.85808130254479, 22.377524260953077], [70.85813743974143, 22.377523377423202], [70.85816424309434, 22.377471961064938], [70.85846812654324, 22.3772803402763], [70.85861384794318, 22.37732974395606], [70.85861456534941, 22.377329772236763], [70.85862401839879, 22.37733501316314], [70.85867651424887, 22.377332214296935], [70.85871173154145, 22.377333602571664], [70.8587824778784, 22.377374707186405], [70.8588850617431, 22.377360742186585], [70.85897855842958, 22.3775470663558], [70.85904593480937, 22.37754951746835], [70.85904746516904, 22.377548793949778], [70.85904855943613, 22.377550411714285], [70.85936666820834, 22.377419198613726], [70.85944118684014, 22.377368994028604], [70.86143521436063, 22.37637687679932], [70.86141851725473, 22.37633852211573], [70.86221388125149, 22.375925272493685], [70.86153340674512, 22.374597691319632], [70.86168424867309, 22.37408693556917], [70.86179982914277, 22.374013638149457], [70.86179937976279, 22.37401281971732], [70.86279410450047, 22.373380374700083], [70.86261528195038, 22.37304583657458], [70.86299536790477, 22.372821653890053]]]}}, {"type": "Feature", "properties": {"layer": "buffer_100m", "site": "RAJ-01"}, "geometry": {"type": "Polygon", "coordinates": [[[70.85582313463499, 22.37479719194743], [70.85510422132177, 22.375501484430917], [70.85507909340477, 22.375527066618258], [70.85460179264449, 22.376032119858714], [70.8545432657718, 22.376100450094434], [70.85449211186685, 22.376173720113062], [70.85444880965714, 22.376251244228822], [70.85441376439337, 22.376332296943502], [70.8543873040567, 22.376416119735705], [70.85436967628873, 22.37650192815934], [70.8543610460736, 22.3765889191845], [70.85436149419328, 22.376676278712587], [70.854371016471, 22.376763189194897], [70.85438952380974, 22.376848837283585], [70.85441684302536, 22.37693242144342], [70.85458417018376, 22.37736751316659], [70.85461769394092, 22.377443573569636], [70.85465851563451, 22.377516483745552], [70.85470629702573, 22.37758563955825], [70.85476064220573, 22.377650467979525], [70.85505098448203, 22.37796607031251], [70.85529367217647, 22.378287054101985], [70.85535283582864, 22.37835760009482], [70.8554192149646, 22.37842235530866], [70.85549215806469, 22.378480684153725], [70.85557094917947, 22.378532014115997], [70.8556548149569, 22.37857584137692], [70.85626321099893, 22.37885785774944], [70.85635132470821, 22.3788937504197], [70.85644282473626, 22.37892135861527], [70.85653681306057, 22.378940411376448], [70.85663236723599, 22.378950721710456], [70.85672854944843, 22.378952188426798], [70.85682441571967, 22.378944797130416], [70.85691902517242, 22.378928620363], [70.85701144926506, 22.37890381689099], [70.85710078090544, 22.378870630147244], [70.85718614335379, 22.37882938584185], [70.85726669882783, 22.378780488765123], [70.85734165672552, 22.378724418814762], [70.85741028138445, 22.378661726285607], [70.857471899302, 22.378593026468607], [70.85752590574536, 22.378518993611827], [70.85757177068639, 22.378440354302892], [70.8576090440032, 22.378357880337706], [70.85761484453968, 22.378340365760025], [70.85766642208335, 22.378362564879815], [70.85775821160229, 22.37839212557829], [70.85785271757973, 22.378413009198766], [70.8579489942296, 22.37842500674439], [70.85804607804441, 22.37842799814737], [70.85815386986803, 22.378426301655264], [70.85825092698613, 22.378420241849057], [70.85834684511673, 22.378405180993997], [70.8584406616012, 22.378381270244684], [70.85853143487473, 22.378348749575384], [70.85856497843072, 22.378332984400604], [70.85863621325922, 22.378367993847036], [70.85872156649627, 22.37840071904596], [70.85880987578918, 22.378425757459794], [70.85890034281235, 22.378442882738256], [70.85899214973298, 22.37845194006669], [70.85908446660474, 22.378452847565686], [70.85917645887099, 22.378445597031345], [70.85926729490973, 22.378430254009416], [70.85935615355199, 22.378406957202753], [70.85944223150574, 22.378375917217312], [70.85976034178502, 22.37824470335632], [70.85985098063097, 22.378201903105747], [70.8599363114921, 22.378150524645754], [70.85995739771604, 22.37813631843489], [70.86189325572224, 22.377173141099483], [70.86197451947248, 22.37712783208093], [70.86205064813312, 22.377075372793005], [70.86212091683812, 22.377016262735733], [70.86218465652051, 22.37695106473493], [70.86224126028293, 22.376880399582916], [70.8622901891762, 22.37680494012733], [70.86233097733076, 22.376725404864295], [70.8623632363921, 22.376642551097014], [70.86238665921812, 22.376557167724794], [70.86240102280303, 22.376470067731383], [70.86240619040018, 22.37638208044393], [70.86240211282347, 22.3762940436365], [70.86238882891493, 22.37620679555307], [70.86236646517439, 22.37612116692628], [70.86233523455415, 22.376037973067593], [70.86190154552558, 22.37504176214232], [70.86334207825692, 22.374125875012492], [70.8634160155434, 22.374073880569455], [70.86348428499504, 22.374015565879713], [70.86354626444077, 22.373951462398292], [70.86360138903612, 22.37388215433601], [70.86364915641101, 22.373808273335044], [70.86368913124785, 22.373730492712255], [70.86372094924845, 22.373649521322722], [70.86374432045372, 22.373566097099374], [70.86375903188573, 22.373480980327727], [70.86376494948813, 22.373394946716985], [70.86376414796464, 22.373371376398378], [70.86379680155106, 22.373331477518427], [70.86384818817625, 22.373253381886375], [70.86389080812427, 22.373170848299647], [70.863924223294, 22.373084725172156], [70.86394809020805, 22.372995897815343], [70.86396216354281, 22.37290527933737], [70.86396629864961, 22.372813801256648], [70.86396045304093, 22.37272240392609], [70.86394468682626, 22.37263202686676], [70.86391916209344, 22.372543599110042], [70.86388414124174, 22.372458029647756], [70.8638399842838, 22.372376198088315], [70.86295752528363, 22.370928852983116], [70.86290791732102, 22.370855858655418], [70.86285103996873, 22.370787604972847], [70.862787413315, 22.370724716037042], [70.86271761916036, 22.370667766894396], [70.86264229569757, 22.370617278278104], [70.86256213167607, 22.370573711846927], [70.86247786010439, 22.370537465964002], [70.86239025154774, 22.370508872054508], [70.86230010708235, 22.370488191575305], [70.86220825097108, 22.370475613624368], [70.86211552312675, 22.37047125321182], [70.8620227714327, 22.370475150208325], [70.86193084399034, 22.370487268980607], [70.8618405813647, 22.370507498717163], [70.86175280889897, 22.370535654441518], [70.86166832916811, 22.370571478703507], [70.86136086346029, 22.370718763915946], [70.86061977616441, 22.370468396523272], [70.86052548826197, 22.370441498543723], [70.86042875302044, 22.37042363526373], [70.86033056846823, 22.370414990980684], [70.86023194758563, 22.370415654878578], [70.86013390785433, 22.37042562010791], [70.86003746076057, 22.370444783856346], [70.85994360136009, 22.370472948409393], [70.85985329801265, 22.370509823190122], [70.85976748239176, 22.370555027756954], [70.85968703987285, 22.37060809572846], [70.8596128003991, 22.37066847959487], [70.85900000418194, 22.37122043313753], [70.85610720411647, 22.373726246921084], [70.85603896123516, 22.37379164249356], [70.85597815245745, 22.373863101875045], [70.85592539705024, 22.37393989734838], [70.85588123227039, 22.374021246854273], [70.85584610789319, 22.374106321955352], [70.85582038163136, 22.37419425627245], [70.85580431549177, 22.37428415430736], [70.85579807310643, 22.374375100562254], [70.85580171806542, 22.37446616886274], [70.85581521326847, 22.374556431789756], [70.85583842130208, 22.37464497012425], [70.85587110583808, 22.374730882208368], [70.85587704611513, 22.37474258589038], [70.85582313463499, 22.37479719194743]], [[70.86279410450047, 22.373380374700083], [70.86111989778021, 22.374444826271485], [70.86105031314617, 22.374383830867778], [70.86079791893961, 22.374520889803343], [70.8608584204613, 22.374598233726072], [70.86070299738144, 22.374694894672754], [70.86143521436063, 22.37637687679932], [70.85944118684014, 22.377368994028604], [70.85936666820834, 22.377419198613726], [70.85904855943613, 22.377550411714285], [70.85890942191307, 22.37734471048752], [70.85876644356681, 22.377335759318562], [70.85861384794318, 22.37732974395606], [70.85845632926146, 22.37727634065689], [70.85842579035166, 22.377223332307704], [70.85832112895366, 22.377273590477092], [70.8582091442565, 22.377385827912796], [70.85813743974143, 22.377523377423202], [70.85802964861294, 22.37752507390457], [70.85822615608475, 22.37668296613003], [70.85812258467274, 22.37644507021664], [70.85780643851152, 22.37643835360654], [70.85719159007523, 22.37629044653967], [70.85672989295541, 22.376420106776372], [70.85673292910715, 22.37677474602336], [70.85682929812342, 22.37693753596453], [70.85684851002064, 22.37711417546459], [70.85669635810854, 22.37804963137184], [70.8560879647067, 22.377767616599634], [70.85581875916091, 22.3774115622863], [70.85549844608143, 22.377063383742684], [70.85533111644456, 22.37662829294834], [70.85580841660651, 22.376123237594054], [70.856532888531, 22.375413496063736], [70.8570977562557, 22.374841344900073], [70.85676896593829, 22.374387082091875], [70.85966868738336, 22.371875262590635], [70.86028827651477, 22.371317188238546], [70.86142820752126, 22.37170229865115], [70.86211291482809, 22.371374304258875], [70.86299536790477, 22.372821653890053], [70.86261528195038, 22.37304583657458], [70.86279410450047, 22.373380374700083]]]}}, {"type": "Feature", "properties": {"layer": "buffer_200m", "site": "RAJ-01"}, "geometry": {"type": "Polygon", "coordinates": [[[70.85440003229225, 22.374879728156262], [70.85434977641494, 22.374930892312204], [70.85387247505639, 22.37543594343887], [70.85375542104049, 22.3755726033711], [70.85365311273816, 22.375719142903005], [70.85356650762274, 22.37587419068188], [70.85349641622174, 22.37603629572818], [70.85344349452998, 22.376203941013493], [70.8534082378688, 22.376375557656722], [70.85339097624842, 22.376549539605744], [70.85339187127725, 22.376724258667124], [70.85341091464697, 22.37689807974323], [70.85344792820779, 22.377069376134244], [70.85350256563312, 22.377236544761722], [70.85366989031301, 22.37767163741368], [70.85373693701574, 22.377823758585127], [70.8538185797496, 22.377969579363445], [70.85391414205853, 22.37810789146233], [70.85402283214054, 22.37823754880978], [70.85428320371962, 22.378520574657916], [70.85449937375063, 22.37880648767223], [70.85461770075295, 22.378947580207353], [70.8547504589656, 22.379077091200916], [70.85489634535156, 22.379193749451165], [70.85505392800466, 22.379296409908182], [70.85522166020424, 22.37938406491394], [70.8558300588865, 22.379666082886835], [70.8560062871457, 22.37973786864375], [70.85618928820541, 22.379793085367513], [70.85637726598137, 22.37983119112567], [70.85656837553903, 22.379851811923448], [70.85676074120308, 22.379854745374743], [70.85695247496842, 22.379839962688727], [70.85714169503261, 22.379807608952436], [70.85732654426714, 22.379758001706616], [70.8575052084465, 22.379691627828876], [70.85767593405598, 22.379609138754567], [70.85783704550316, 22.379511344082555], [70.85798696156436, 22.379399203628505], [70.85806172981911, 22.379330898320145], [70.8580625076876, 22.379330922287807], [70.8581703002064, 22.37932922578496], [70.85836441568502, 22.379317106095993], [70.8585338180698, 22.379290506914636], [70.85857118915668, 22.379301102758603], [70.8587521242983, 22.379335353528084], [70.85893573930309, 22.379353468299033], [70.85912037423633, 22.379355283308527], [70.85930435994183, 22.37934078214834], [70.85948603313325, 22.37931009591329], [70.85966375143254, 22.379263502015963], [70.85983590821898, 22.379201421678545], [70.86015402000538, 22.379070207057072], [70.86033529847022, 22.378984606072695], [70.86045146376578, 22.378914661813344], [70.86235130229545, 22.377969404024782], [70.86251383037134, 22.377878785495493], [70.86266608804813, 22.377773866385812], [70.86280662558025, 22.377655645716082], [70.86293410482911, 22.377525249159024], [70.86304731200441, 22.377383918320355], [70.86314516922111, 22.37723299891569], [70.86322674476169, 22.37707392795604], [70.86329126194636, 22.37690822006426], [70.86333810652651, 22.37673745305254], [70.86336683253138, 22.376563252898546], [70.8633771665119, 22.37638727826293], [70.86336901014194, 22.376211204696094], [70.86334244115189, 22.376036708684204], [70.8632977125858, 22.375865451686625], [70.86323525038966, 22.375699064316585], [70.86309498864382, 22.375376880717656], [70.8638900578502, 22.374871373400573], [70.86403793274857, 22.37476738398924], [70.86417447175322, 22.374650754065836], [70.86429843051818, 22.374522546560165], [70.86440867935919, 22.37438392991362], [70.86450421354883, 22.374236167429558], [70.86458416247223, 22.374080605759243], [70.86464779756034, 22.373918662628224], [70.86469453892819, 22.3737518139152], [70.8647086110308, 22.373670392979975], [70.86478625281093, 22.37352003773955], [70.8648530821742, 22.373347791114476], [70.86490081488293, 22.373170136128238], [70.86492896033583, 22.37298889900835], [70.8649372292855, 22.372805942798315], [70.8649255368087, 22.372623148205996], [70.86489400317602, 22.372442394270696], [70.86484295261255, 22.372265539047643], [70.86477290996184, 22.37209440050857], [70.86468459528808, 22.371930737854484], [70.86380213036477, 22.370483397275304], [70.8637029139263, 22.370337409113823], [70.86358915892335, 22.37020090227819], [70.86346190554328, 22.370075124952333], [70.86332231738976, 22.369961227209124], [70.86317167084262, 22.36986025049522], [70.86301134338702, 22.369773118109165], [70.8628428010185, 22.369700626759894], [70.86266758483919, 22.36964343928253], [70.86248729696757, 22.36960207857834], [70.86230358589059, 22.369576922834007], [70.86211813139218, 22.36956820206402], [70.86193262919555, 22.369575996007704], [70.86174877546001, 22.36960023340027], [70.86156825127374, 22.369640692624312], [70.86139270728425, 22.36969700373595], [70.8612985547016, 22.36973692982936], [70.86095127179483, 22.369619604040082], [70.86076269704205, 22.369565808406573], [70.86056922773317, 22.3695300820684], [70.86037285987676, 22.36951279361126], [70.86017561938203, 22.369514121398637], [70.85997954116002, 22.369534051731865], [70.85978664813216, 22.369572378991435], [70.85959893036221, 22.369628707758153], [70.85941832452724, 22.369702456892135], [70.85924669393886, 22.369792865527764], [70.85908580932109, 22.369899000922725], [70.85893733054296, 22.37001976808004], [70.85833132723558, 22.370565600868723], [70.85544544854207, 22.37306540899068], [70.85530896274177, 22.373196199558915], [70.8551873448964, 22.37333911776035], [70.85508183355145, 22.37349270818343], [70.85499350324227, 22.373655406730897], [70.85492325354977, 22.37382555654684], [70.85487179993767, 22.374001424888615], [70.85483966646382, 22.374181220771746], [70.85482718044082, 22.374363113208098], [70.85483096026324, 22.374457567430568], [70.85440003229225, 22.374879728156262]], [[70.86279410450047, 22.373380374700083], [70.86111989778021, 22.374444826271485], [70.86105031314617, 22.374383830867778], [70.86079791893961, 22.374520889803343], [70.8608584204613, 22.374598233726072], [70.86070299738144, 22.374694894672754], [70.86143521436063, 22.37637687679932], [70.85944118684014, 22.377368994028604], [70.85936666820834, 22.377419198613726], [70.85904855943613, 22.377550411714285], [70.85890942191307, 22.37734471048752], [70.85876644356681, 22.377335759318562], [70.85861384794318, 22.37732974395606], [70.85845632926146, 22.37727634065689], [70.85842579035166, 22.377223332307704], [70.85832112895366, 22.377273590477092], [70.8582091442565, 22.377385827912796], [70.85813743974143, 22.377523377423202], [70.85802964861294, 22.37752507390457], [70.85822615608475, 22.37668296613003], [70.85812258467274, 22.37644507021664], [70.85780643851152, 22.37643835360654], [70.85719159007523, 22.37629044653967], [70.85672989295541, 22.376420106776372], [70.85673292910715, 22.37677474602336], [70.85682929812342, 22.37693753596453], [70.85684851002064, 22.37711417546459], [70.85669635810854, 22.37804963137184], [70.8560879647067, 22.377767616599634], [70.85581875916091, 22.3774115622863], [70.85549844608143, 22.377063383742684], [70.85533111644456, 22.37662829294834], [70.85580841660651, 22.376123237594054], [70.856532888531, 22.375413496063736], [70.8570977562557, 22.374841344900073], [70.85676896593829, 22.374387082091875], [70.85966868738336, 22.371875262590635], [70.86028827651477, 22.371317188238546], [70.86142820752126, 22.37170229865115], [70.86211291482809, 22.371374304258875], [70.86299536790477, 22.372821653890053], [70.86261528195038, 22.37304583657458], [70.86279410450047, 22.373380374700083]]]}}, {"type": "Feature", "properties": {"layer": "pond", "name": "", "osm": "way/1536313315", "distance_m": 572.1}, "geometry": {"type": "Polygon", "coordinates": [[[70.8639274, 22.365046999999997], [70.8639071, 22.365092999999995], [70.8639022, 22.3651582], [70.8638847, 22.365215499999994], [70.8638761, 22.365254299999997], [70.8638212, 22.36530859999999], [70.8638115, 22.365345800000004], [70.8638212, 22.365367799999998], [70.8638456, 22.3653785], [70.8638779, 22.365369500000003], [70.8639038, 22.365348000000004], [70.8639135, 22.365382199999996], [70.8639082, 22.3654086], [70.8638768, 22.365446000000002], [70.8638448, 22.3654842], [70.8638496, 22.365510899999993], [70.8638545, 22.365534600000004], [70.8638197, 22.365562100000005], [70.8637372, 22.365605999999996], [70.8637462, 22.365632099999996], [70.8637913, 22.365637400000004], [70.8638597, 22.3656254], [70.8639279, 22.3655993], [70.8639883, 22.3655871], [70.8640464, 22.365571], [70.8640982, 22.365561899999996], [70.8641431, 22.365544499999995], [70.864169, 22.365508100000003], [70.8641895, 22.365466199999997], [70.8642471, 22.3654779], [70.8643014, 22.365475499999995], [70.8643492, 22.365474799999998], [70.8644034, 22.3654987], [70.8644746, 22.365536000000002], [70.8644883, 22.365558300000004], [70.8645485, 22.365593199999996], [70.8645931, 22.3656314], [70.8646326, 22.365694899999998], [70.8646687, 22.365747300000002], [70.864691, 22.365795], [70.864691, 22.365853799999993], [70.864691, 22.3658935], [70.8646687, 22.3659396], [70.8646567, 22.365982499999998], [70.8646447, 22.3660158], [70.8645742, 22.366084200000003], [70.8645193, 22.3661191], [70.8644711, 22.366122299999997], [70.8644213, 22.366141300000002], [70.8643664, 22.366154099999996], [70.8643114, 22.3661747], [70.86428900000001, 22.366200100000007], [70.86426330000002, 22.366242999999997], [70.864253, 22.366276399999993], [70.8642839, 22.3662859], [70.8643183, 22.36625890000001], [70.864356, 22.366224000000003], [70.8644643, 22.366206499999997], [70.8645261, 22.366206499999997], [70.8645691, 22.3662033], [70.8646069, 22.36618740000001], [70.8646464, 22.366150899999997], [70.8646962, 22.3661112], [70.8647288, 22.3660873], [70.8647615, 22.366100000000007], [70.8647872, 22.36609049999999], [70.8648199, 22.366085700000003], [70.8648474, 22.3661032], [70.8648336, 22.366130200000004], [70.8648233, 22.366144499999997], [70.8647993, 22.366179500000005], [70.8647598, 22.3662176], [70.8647151, 22.3662621], [70.8647134, 22.366311299999996], [70.8647202, 22.3663383], [70.864746, 22.3663765], [70.8647718, 22.366425700000004], [70.8648061, 22.366467000000004], [70.8648388, 22.366487700000004], [70.8648663, 22.366519500000006], [70.8648972, 22.3665417], [70.8649401, 22.3665671], [70.8649642, 22.366584599999996], [70.86500030000002, 22.366613200000003], [70.8650381, 22.3666545], [70.865069, 22.3666815], [70.8650724, 22.3667244], [70.86510680000002, 22.366751399999995], [70.865136, 22.366765700000006], [70.8651875, 22.3667768], [70.8652305, 22.3668007], [70.8652528, 22.3668261], [70.8652339, 22.366884899999995], [70.8652336, 22.3669482], [70.8651895, 22.3669966], [70.8651872, 22.3670422], [70.8652104, 22.367067800000004], [70.8652269, 22.367090699999995], [70.8652508, 22.367110700000005], [70.8652785, 22.367113499999995], [70.8653106, 22.367106599999996], [70.8653353, 22.3670955], [70.8654288, 22.367129399999993], [70.86544, 22.367111399999995], [70.8654534, 22.367085799999998], [70.8654549, 22.367027699999994], [70.8654684, 22.366998699999996], [70.8654841, 22.3669427], [70.8654931, 22.3669192], [70.8654938, 22.3668784], [70.8654676, 22.366805100000008], [70.8654841, 22.3667553], [70.86546240000001, 22.366697900000005], [70.8653712, 22.3666585], [70.8652837, 22.366606599999994], [70.8652291, 22.366553299999996], [70.8651925, 22.366497299999995], [70.8651611, 22.366442699999997], [70.8651199, 22.366405399999998], [70.8651199, 22.3663563], [70.86513490000002, 22.366302300000005], [70.8651394, 22.366234499999997], [70.8651611, 22.366214500000005], [70.86517750000002, 22.366207599999996], [70.8652441, 22.366173], [70.86539209999998, 22.3661765], [70.8654811, 22.3661654], [70.8655821, 22.366146], [70.865612, 22.366131499999998], [70.8656404, 22.366107999999997], [70.8656823, 22.366099200000004], [70.8656374, 22.366066], [70.8655865, 22.366074300000005], [70.8654669, 22.366074299999998], [70.8653203, 22.366068799999997], [70.8652575, 22.366049399999998], [70.8652515, 22.366019], [70.8652575, 22.365949799999992], [70.8652575, 22.365905600000005], [70.8652276, 22.3658917], [70.8651947, 22.3658917], [70.8651468, 22.365897300000004], [70.8651319, 22.36585850000001], [70.8651289, 22.365803200000002], [70.8650422, 22.3657838], [70.8649883, 22.365742399999995], [70.8649494, 22.3657064], [70.8649435, 22.365637200000005], [70.8649494, 22.365587500000004], [70.8649494, 22.365523800000002], [70.8649614, 22.3654464], [70.8649644, 22.3654021], [70.8649435, 22.365357900000003], [70.8649076, 22.365332999999993], [70.8648208, 22.3652832], [70.8646593, 22.365244500000003], [70.8645367, 22.365191900000003], [70.8644828, 22.3651587], [70.8644021, 22.3651504], [70.8643542, 22.365122700000004], [70.8642974, 22.365073], [70.8642346, 22.3650453], [70.8641478, 22.365037000000008], [70.864097, 22.365003799999993], [70.8640581, 22.3649844], [70.8639923, 22.364984400000008], [70.8639274, 22.365046999999997]]]}}, {"type": "Feature", "properties": {"layer": "residential", "name": "", "osm": "way/72702523", "distance_m": 1940.9}, "geometry": {"type": "Polygon", "coordinates": [[[70.8750625, 22.3556673], [70.87492300000001, 22.3565206], [70.8748447, 22.356578300000002], [70.8743866, 22.356977000000004], [70.8746119, 22.358256999999995], [70.8759959, 22.3578006], [70.8764465, 22.358068499999998], [70.8774657, 22.357979199999996], [70.8772512, 22.3566198], [70.8767576, 22.3556871], [70.8750625, 22.3556673]]]}}, {"type": "Feature", "properties": {"layer": "residential", "name": "", "osm": "way/456682332", "distance_m": 1704.2}, "geometry": {"type": "Polygon", "coordinates": [[[70.8616994, 22.353144200000003], [70.8614463, 22.353385099999993], [70.8613411, 22.3533542], [70.8608032, 22.3532716], [70.8607903, 22.3534235], [70.8607435, 22.353728700000005], [70.8606527, 22.354441200000004], [70.860801, 22.3548998], [70.8608998, 22.355089600000003], [70.8609325, 22.3551523], [70.8610204, 22.355340999999996], [70.8612698, 22.355718199999995], [70.8616501, 22.355647399999995], [70.8618805, 22.355812100000005], [70.86212220000002, 22.355984799999995], [70.8633989, 22.3557367], [70.8631419, 22.354577699999997], [70.8629698, 22.353801800000003], [70.8629391, 22.3536287], [70.8629173, 22.3533955], [70.8628518, 22.352898900000007], [70.8619291, 22.352898900000007], [70.8616994, 22.353144200000003]]]}}, {"type": "Feature", "properties": {"layer": "stream_canal", "name": "", "osm": "way/72696255", "distance_m": 1352.2}, "geometry": {"type": "LineString", "coordinates": [[70.8769441, 22.358192499999994], [70.8765418, 22.358500100000004], [70.8765257, 22.3589168], [70.87608040000002, 22.359244299999993], [70.8757156, 22.359155], [70.8749807, 22.359016], [70.8745462, 22.3591847], [70.8740688, 22.359621300000008], [70.8737844, 22.3602464], [70.8735806, 22.360747499999995], [70.8732426, 22.360886399999995], [70.872556, 22.360975699999997], [70.8719123, 22.360901300000002], [70.8713383, 22.361005400000003], [70.870775, 22.361387400000005], [70.8705819, 22.361630499999997], [70.870362, 22.3616355], [70.87019160000001, 22.3615115], [70.8697946, 22.361184000000005], [70.8690972, 22.360866499999993], [70.8683248, 22.360281100000012], [70.8676059, 22.3598049], [70.8669944, 22.3595072], [70.8667369, 22.359169800000004], [70.8664472, 22.358316499999997], [70.8660073, 22.357572399999995], [70.8652992, 22.3568976], [70.8645589, 22.3564511], [70.8639367, 22.3564511], [70.8633359, 22.356748799999995], [70.8624132, 22.3579296], [70.8620484, 22.3580982], [70.8612437, 22.358644], [70.8606322, 22.358634000000002], [70.860364, 22.358911899999995], [70.8602567, 22.3589912], [70.8595593, 22.359125199999998], [70.8589961, 22.358961400000002], [70.8582933, 22.3586489], [70.8564372, 22.358832400000004], [70.8551927, 22.358663800000002], [70.854329, 22.358321400000005], [70.8539446, 22.358136400000003], [70.8518453, 22.359169800000004], [70.8507831, 22.358946600000003], [70.8501823, 22.3587878], [70.8490987, 22.359085500000003], [70.84851940000001, 22.359030899999997], [70.8478971, 22.358758], [70.8477201, 22.3583463], [70.8476932, 22.357497899999995], [70.8475108, 22.356798400000006], [70.8471139, 22.3567934], [70.84693690000002, 22.3570712], [70.8465989, 22.357344100000006], [70.8463146, 22.357329200000006], [70.8462878, 22.356962099999997], [70.8461536, 22.3565652], [70.8449842, 22.3556474], [70.8436592, 22.354942900000005], [70.8436044185197, 22.354935005035856]]}}, {"type": "Feature", "properties": {"layer": "stream_canal", "name": "", "osm": "way/72698781", "distance_m": 2066.3}, "geometry": {"type": "LineString", "coordinates": [[70.88322709999998, 22.384746999999997], [70.8829589, 22.3849553], [70.8826478, 22.3852529], [70.8823259, 22.3854116], [70.88178950000001, 22.3855108], [70.8815427, 22.385649699999995], [70.88110280000001, 22.386215200000006], [70.8809097, 22.3863541], [70.8806307, 22.386354099999995], [70.88050200000002, 22.386423500000003], [70.880266, 22.3866517], [70.8799012, 22.387237000000002], [70.8792896, 22.387842100000004], [70.87884980000001, 22.3880008], [70.87877470000001, 22.3881298], [70.87862440000002, 22.388407500000003], [70.8778949, 22.388556300000005], [70.8775945, 22.388814300000007], [70.8770902, 22.3889531], [70.8766182, 22.389350000000004], [70.875953, 22.389508699999993], [70.8755989, 22.389647599999996], [70.8752878, 22.3898757], [70.8748479, 22.390758600000005], [70.87460109999999, 22.390947099999998], [70.8743651, 22.391105799999995], [70.8740647, 22.3914728], [70.8737857, 22.391661299999996], [70.8735283, 22.391780300000004], [70.8732815, 22.3917307], [70.8729167, 22.3918696], [70.8726056, 22.3925541], [70.87230520000001, 22.3927525], [70.87198330000001, 22.393228599999997], [70.8720584, 22.393625399999998], [70.871876, 22.3939429], [70.871522, 22.394052]]}}, {"type": "Feature", "properties": {"layer": "stream_canal", "name": "", "osm": "way/72699063", "distance_m": 2050.0}, "geometry": {"type": "LineString", "coordinates": [[70.8704813, 22.392871500000002], [70.8706207, 22.393099699999997], [70.8710606, 22.393129399999996], [70.8712967, 22.393317900000003], [70.871522, 22.394052], [70.8714361, 22.394627299999996], [70.8712645, 22.395242299999992], [70.8710177, 22.395549900000002], [70.870889, 22.395916900000003]]}}, {"type": "Feature", "properties": {"layer": "stream_canal", "name": "", "osm": "way/72702741", "distance_m": 2053.2}, "geometry": {"type": "LineString", "coordinates": [[70.86955971275681, 22.349906223479085], [70.8694406, 22.3499816], [70.868947, 22.350140299999993], [70.8686144, 22.350378499999998], [70.868357, 22.350378499999998], [70.8680136, 22.3504777], [70.8679063, 22.350289199999995], [70.8675523, 22.350160200000012], [70.8671661, 22.350209800000002], [70.8667798, 22.350090699999996], [70.8664057, 22.3500113], [70.8662018, 22.350135399999996], [70.8658424, 22.3501751], [70.8654616, 22.350031199999993], [70.8651236, 22.3501949], [70.8646515, 22.3508895], [70.8638093, 22.351440199999992], [70.8633265, 22.351961199999995], [70.86294560000002, 22.3525664], [70.8626452, 22.352625999999997], [70.8620873, 22.352566400000008], [70.86117540000001, 22.352725199999995], [70.8605048, 22.352764899999997], [70.85965190000002, 22.3527847], [70.8591315, 22.352774800000002], [70.8587453, 22.3524722], [70.8581472, 22.352258800000005], [70.8578575, 22.35192150000001], [70.8574283, 22.351465099999995], [70.8569803, 22.3511639], [70.8568738, 22.351132100000004], [70.8567347, 22.351107799999994], [70.8562964, 22.351048299999995], [70.8558203, 22.350995599999997], [70.8557093, 22.3509342], [70.8556362, 22.350848699999997], [70.8553201, 22.3502941], [70.8552128, 22.349986500000004], [70.8549446, 22.349495299999997], [70.85495698013757, 22.34932052978365]]}}, {"type": "Feature", "properties": {"layer": "stream_canal", "name": "", "osm": "way/227972082", "distance_m": 2073.4}, "geometry": {"type": "LineString", "coordinates": [[70.8612973, 22.396277699999995], [70.8614264, 22.396470599999997], [70.8616945, 22.396629699999995], [70.8619295, 22.3967674], [70.862138, 22.397088800000002], [70.8623035, 22.397309099999998], [70.8624326, 22.3974774], [70.8625452, 22.397670199999993], [70.8625981, 22.398153800000003], [70.8626081, 22.3989097], [70.86270890000002, 22.399756900000003], [70.8626604758944, 22.39991780286547]]}}, {"type": "Feature", "properties": {"layer": "building", "distance_m": 496.3, "source": "Microsoft ML Buildings", "in_industrial_zone": false, "ghsl_2018": 0}, "geometry": {"type": "Polygon", "coordinates": [[[70.8576756, 22.3675179], [70.8576889, 22.3674824], [70.85772479999999, 22.3674939], [70.85771159999999, 22.3675294], [70.8576756, 22.3675179]]]}}, {"type": "Feature", "properties": {"layer": "building", "distance_m": 489.9, "source": "Google Open Buildings", "in_industrial_zone": false, "ghsl_2018": 0}, "geometry": {"type": "Polygon", "coordinates": [[[70.85776009999998, 22.3675112], [70.85779599999998, 22.367519700000003], [70.85778629999999, 22.3675548], [70.85775049999998, 22.3675463], [70.85776009999998, 22.3675112]]]}}, {"type": "Feature", "properties": {"layer": "building", "distance_m": 453.4, "source": "Google Open Buildings", "in_industrial_zone": false, "ghsl_2018": 0}, "geometry": {"type": "Polygon", "coordinates": [[[70.85808279999999, 22.367672], [70.85812469999999, 22.367683499999995], [70.85809889999999, 22.3677649], [70.858057, 22.367753400000005], [70.85808279999999, 22.367672]]]}}, {"type": "Feature", "properties": {"layer": "building", "distance_m": 459.7, "source": "Microsoft ML Buildings", "in_industrial_zone": false, "ghsl_2018": 0}, "geometry": {"type": "Polygon", "coordinates": [[[70.85798209999999, 22.3677262], [70.85800869999998, 22.3676403], [70.85805329999998, 22.3676522], [70.85802669999998, 22.367738], [70.85798209999999, 22.3677262]]]}}, {"type": "Feature", "properties": {"layer": "building", "distance_m": 203.0, "source": "Google Open Buildings", "in_industrial_zone": false, "ghsl_2018": 0}, "geometry": {"type": "Polygon", "coordinates": [[[70.8577815, 22.370904], [70.8578406, 22.370894699999997], [70.8578499, 22.370945700000004], [70.8577908, 22.370955], [70.8577815, 22.370904]]]}}, {"type": "Feature", "properties": {"layer": "building", "distance_m": 217.1, "source": "Microsoft ML Buildings", "in_industrial_zone": false, "ghsl_2018": 0}, "geometry": {"type": "Polygon", "coordinates": [[[70.8577638, 22.3708461], [70.85772729999998, 22.370851999999996], [70.857718, 22.370802700000002], [70.8577545, 22.370796799999994], [70.8577638, 22.3708461]]]}}, {"type": "Feature", "properties": {"layer": "building", "distance_m": 210.4, "source": "Google Open Buildings", "in_industrial_zone": false, "ghsl_2018": 0}, "geometry": {"type": "Polygon", "coordinates": [[[70.8577891, 22.370830500000004], [70.857823, 22.37082669999999], [70.8578289, 22.370872600000002], [70.8577949, 22.370876299999992], [70.8577891, 22.370830500000004]]]}}, {"type": "Feature", "properties": {"layer": "building", "distance_m": 263.3, "source": "Google Open Buildings", "in_industrial_zone": false, "ghsl_2018": 0}, "geometry": {"type": "Polygon", "coordinates": [[[70.8572731, 22.370541300000006], [70.857354, 22.3705824], [70.8572962, 22.3706809], [70.8572153, 22.3706397], [70.8572731, 22.370541300000006]]]}}, {"type": "Feature", "properties": {"layer": "building", "distance_m": 449.5, "source": "Google Open Buildings", "in_industrial_zone": false, "ghsl_2018": 0}, "geometry": {"type": "Polygon", "coordinates": [[[70.85594599999999, 22.369483800000005], [70.85598009999998, 22.369483900000002], [70.8559798, 22.369524000000002], [70.85594579999999, 22.369523799999996], [70.85594599999999, 22.369483800000005]]]}}, {"type": "Feature", "properties": {"layer": "building", "distance_m": 374.8, "source": "Google Open Buildings", "in_industrial_zone": false, "ghsl_2018": 0}, "geometry": {"type": "Polygon", "coordinates": [[[70.8534529, 22.372896500000007], [70.853483, 22.372894500000005], [70.85348559999998, 22.372928099999996], [70.8534555, 22.372930199999995], [70.8534529, 22.372896500000007]]]}}, {"type": "Feature", "properties": {"layer": "building", "distance_m": 390.9, "source": "Microsoft ML Buildings", "in_industrial_zone": false, "ghsl_2018": 0}, "geometry": {"type": "Polygon", "coordinates": [[[70.85389959999999, 22.3720752], [70.85384040000001, 22.372141800000005], [70.85378530000001, 22.372099899999995], [70.85384459999997, 22.3720333], [70.85389959999999, 22.3720752]]]}}, {"type": "Feature", "properties": {"layer": "building", "distance_m": 399.1, "source": "Microsoft ML Buildings", "in_industrial_zone": false, "ghsl_2018": 0}, "geometry": {"type": "Polygon", "coordinates": [[[70.854028, 22.3718049], [70.8539761, 22.371889099999997], [70.8539153, 22.371857100000003], [70.8539673, 22.3717729], [70.854028, 22.3718049]]]}}, {"type": "Feature", "properties": {"layer": "building", "distance_m": 392.9, "source": "Google Open Buildings", "in_industrial_zone": false, "ghsl_2018": 0}, "geometry": {"type": "Polygon", "coordinates": [[[70.8540386, 22.37180670000001], [70.854101, 22.371838500000003], [70.85408549999998, 22.3718647], [70.8540232, 22.371832800000004], [70.8540386, 22.37180670000001]]]}}, {"type": "Feature", "properties": {"layer": "building", "distance_m": 392.0, "source": "Google Open Buildings", "in_industrial_zone": false, "ghsl_2018": 0}, "geometry": {"type": "Polygon", "coordinates": [[[70.8540145, 22.3718362], [70.8540732, 22.371860500000004], [70.8540487, 22.37191150000001], [70.85399009999999, 22.371887199999996], [70.8540145, 22.3718362]]]}}, {"type": "Feature", "properties": {"layer": "building", "distance_m": 381.1, "source": "Microsoft ML Buildings", "in_industrial_zone": false, "ghsl_2018": 0}, "geometry": {"type": "Polygon", "coordinates": [[[70.85416479999999, 22.3719124], [70.85414859999999, 22.371957], [70.85410179999998, 22.371942499999992], [70.854118, 22.371897900000004], [70.85416479999999, 22.3719124]]]}}, {"type": "Feature", "properties": {"layer": "building", "distance_m": 373.6, "source": "Google Open Buildings", "in_industrial_zone": false, "ghsl_2018": 0}, "geometry": {"type": "Polygon", "coordinates": [[[70.85419089999999, 22.371934999999997], [70.8542333, 22.371944799999998], [70.8542227, 22.371984200000004], [70.8541803, 22.3719744], [70.85419089999999, 22.371934999999997]]]}}, {"type": "Feature", "properties": {"layer": "building", "distance_m": 352.3, "source": "Microsoft ML Buildings", "in_industrial_zone": false, "ghsl_2018": 0}, "geometry": {"type": "Polygon", "coordinates": [[[70.8542455, 22.372235899999996], [70.85422549999998, 22.3722599], [70.85418849999999, 22.37223349999999], [70.85420849999998, 22.3722095], [70.8542455, 22.372235899999996]]]}}, {"type": "Feature", "properties": {"layer": "building", "distance_m": 344.4, "source": "Google Open Buildings", "in_industrial_zone": false, "ghsl_2018": 0}, "geometry": {"type": "Polygon", "coordinates": [[[70.85427559999998, 22.372245199999995], [70.8543147, 22.3722601], [70.8543033, 22.372286100000007], [70.8542642, 22.372271200000004], [70.85427559999998, 22.372245199999995]]]}}, {"type": "Feature", "properties": {"layer": "building", "distance_m": 334.1, "source": "Microsoft ML Buildings", "in_industrial_zone": false, "ghsl_2018": 0}, "geometry": {"type": "Polygon", "coordinates": [[[70.8543054, 22.3723554], [70.85434059999999, 22.372274099999995], [70.8543891, 22.372292100000003], [70.8543539, 22.372373299999996], [70.8543054, 22.3723554]]]}}, {"type": "Feature", "properties": {"layer": "building", "distance_m": 325.7, "source": "Google Open Buildings", "in_industrial_zone": false, "ghsl_2018": 0}, "geometry": {"type": "Polygon", "coordinates": [[[70.8543949, 22.372316899999994], [70.85446369999998, 22.3723509], [70.8544325, 22.372405400000005], [70.8543637, 22.3723714], [70.8543949, 22.372316899999994]]]}}, {"type": "Feature", "properties": {"layer": "building", "distance_m": 329.2, "source": "Google Open Buildings", "in_industrial_zone": false, "ghsl_2018": 0}, "geometry": {"type": "Polygon", "coordinates": [[[70.85442039999998, 22.3723047], [70.8544581, 22.372325400000005], [70.8544455, 22.372345199999998], [70.85440780000002, 22.3723245], [70.85442039999998, 22.3723047]]]}}, {"type": "Feature", "properties": {"layer": "building", "distance_m": 309.1, "source": "Microsoft ML Buildings", "in_industrial_zone": false, "ghsl_2018": 0}, "geometry": {"type": "Polygon", "coordinates": [[[70.8545037, 22.3725059], [70.8545561, 22.372418600000003], [70.85458800000002, 22.372435], [70.85453569999999, 22.372522299999996], [70.8545037, 22.3725059]]]}}, {"type": "Feature", "properties": {"layer": "building", "distance_m": 299.8, "source": "Google Open Buildings", "in_industrial_zone": false, "ghsl_2018": 0}, "geometry": {"type": "Polygon", "coordinates": [[[70.85460069999999, 22.372479899999995], [70.854623, 22.372495500000003], [70.8546077, 22.372514399999996], [70.85463979999999, 22.372536899999997], [70.8546218, 22.3725592], [70.8545673, 22.37252110000001], [70.85460069999999, 22.372479899999995]]]}}, {"type": "Feature", "properties": {"layer": "building", "distance_m": 303.0, "source": "Google Open Buildings", "in_industrial_zone": false, "ghsl_2018": 0}, "geometry": {"type": "Polygon", "coordinates": [[[70.8546235, 22.372447599999997], [70.85465749999999, 22.3724594], [70.8546428, 22.3724962], [70.8546089, 22.372484500000002], [70.8546235, 22.372447599999997]]]}}, {"type": "Feature", "properties": {"layer": "building", "distance_m": 292.8, "source": "Google Open Buildings", "in_industrial_zone": false, "ghsl_2018": 0}, "geometry": {"type": "Polygon", "coordinates": [[[70.854645, 22.3725568], [70.85468509999998, 22.372570399999997], [70.8546732, 22.372600800000004], [70.8546331, 22.372587200000005], [70.854645, 22.3725568]]]}}, {"type": "Feature", "properties": {"layer": "building", "distance_m": 331.6, "source": "Microsoft ML Buildings", "in_industrial_zone": false, "ghsl_2018": 0}, "geometry": {"type": "Polygon", "coordinates": [[[70.8550218, 22.3717591], [70.85503909999998, 22.3716869], [70.85508509999998, 22.371696299999993], [70.8550679, 22.371768499999998], [70.8550218, 22.3717591]]]}}, {"type": "Feature", "properties": {"layer": "building", "distance_m": 324.0, "source": "Google Open Buildings", "in_industrial_zone": false, "ghsl_2018": 0}, "geometry": {"type": "Polygon", "coordinates": [[[70.85512089999999, 22.371724499999996], [70.8551607, 22.371736300000002], [70.85513809999999, 22.3718019], [70.8550983, 22.3717901], [70.85512089999999, 22.371724499999996]]]}}, {"type": "Feature", "properties": {"layer": "building", "distance_m": 335.4, "source": "Google Open Buildings", "in_industrial_zone": false, "ghsl_2018": 0}, "geometry": {"type": "Polygon", "coordinates": [[[70.8553443, 22.37135640000001], [70.8554072, 22.37137699999999], [70.8553786, 22.371452599999998], [70.85531569999999, 22.371431999999995], [70.8553443, 22.37135640000001]]]}}, {"type": "Feature", "properties": {"layer": "building", "distance_m": 345.5, "source": "Microsoft ML Buildings", "in_industrial_zone": false, "ghsl_2018": 0}, "geometry": {"type": "Polygon", "coordinates": [[[70.85524779999999, 22.37137450000001], [70.8552821, 22.371330099999998], [70.85532579999999, 22.371359000000005], [70.8552916, 22.3714033], [70.85524779999999, 22.37137450000001]]]}}, {"type": "Feature", "properties": {"layer": "building", "distance_m": 355.0, "source": "Microsoft ML Buildings", "in_industrial_zone": false, "ghsl_2018": 0}, "geometry": {"type": "Polygon", "coordinates": [[[70.85536369999998, 22.371174599999986], [70.8553482, 22.371236899999992], [70.8553135, 22.3712295], [70.85532909999999, 22.3711671], [70.85536369999998, 22.371174599999986]]]}}, {"type": "Feature", "properties": {"layer": "building", "distance_m": 337.9, "source": "Google Open Buildings", "in_industrial_zone": false, "ghsl_2018": 0}, "geometry": {"type": "Polygon", "coordinates": [[[70.8554004, 22.3713173], [70.8554575, 22.371325], [70.8554613, 22.371349800000008], [70.85540649999999, 22.3713571], [70.8554004, 22.3713173]]]}}, {"type": "Feature", "properties": {"layer": "building", "distance_m": 348.2, "source": "Google Open Buildings", "in_industrial_zone": false, "ghsl_2018": 0}, "geometry": {"type": "Polygon", "coordinates": [[[70.8554353, 22.371205600000003], [70.85541179999998, 22.3712659], [70.8553832, 22.37125620000001], [70.85540669999999, 22.371196], [70.8554353, 22.371205600000003]]]}}, {"type": "Feature", "properties": {"layer": "building", "distance_m": 303.2, "source": "Google Open Buildings", "in_industrial_zone": false, "ghsl_2018": 0}, "geometry": {"type": "Polygon", "coordinates": [[[70.8554661, 22.3715676], [70.8555851, 22.371613399999998], [70.8555438, 22.371706300000003], [70.8554248, 22.371660500000004], [70.8554661, 22.3715676]]]}}, {"type": "Feature", "properties": {"layer": "building", "distance_m": 200.3, "source": "Google Open Buildings", "in_industrial_zone": false, "ghsl_2018": 0}, "geometry": {"type": "Polygon", "coordinates": [[[70.8556126, 22.37290719999999], [70.85557969999999, 22.3729458], [70.8555538, 22.372926700000004], [70.85558659999998, 22.3728881], [70.8556126, 22.37290719999999]]]}}, {"type": "Feature", "properties": {"layer": "building", "distance_m": 207.3, "source": "Microsoft ML Buildings", "in_industrial_zone": false, "ghsl_2018": 0}, "geometry": {"type": "Polygon", "coordinates": [[[70.8554799, 22.372902599999993], [70.85550589999998, 22.372860599999996], [70.85553620000002, 22.372876599999998], [70.8555102, 22.3729187], [70.8554799, 22.372902599999993]]]}}, {"type": "Feature", "properties": {"layer": "building", "distance_m": 189.0, "source": "Google Open Buildings", "in_industrial_zone": false, "ghsl_2018": 0}, "geometry": {"type": "Polygon", "coordinates": [[[70.8549124, 22.3741638], [70.85494800000001, 22.3741727], [70.8549382, 22.3742066], [70.8549026, 22.3741976], [70.8549124, 22.3741638]]]}}, {"type": "Feature", "properties": {"layer": "building", "distance_m": 468.8, "source": "Google Open Buildings", "in_industrial_zone": false, "ghsl_2018": 0}, "geometry": {"type": "Polygon", "coordinates": [[[70.8529571, 22.380841099999998], [70.8529389, 22.380906299999992], [70.8528696, 22.380889500000002], [70.8528878, 22.3808244], [70.8529571, 22.380841099999998]]]}}, {"type": "Feature", "properties": {"layer": "building", "distance_m": 471.8, "source": "Google Open Buildings", "in_industrial_zone": false, "ghsl_2018": 0}, "geometry": {"type": "Polygon", "coordinates": [[[70.8532798, 22.381158900000003], [70.8533169, 22.381160099999995], [70.8533154, 22.3811987], [70.8532783, 22.38119740000001], [70.8532798, 22.381158900000003]]]}}, {"type": "Feature", "properties": {"layer": "building", "distance_m": 473.7, "source": "Microsoft ML Buildings", "in_industrial_zone": false, "ghsl_2018": 0}, "geometry": {"type": "Polygon", "coordinates": [[[70.8532363, 22.3811636], [70.8531997, 22.381158300000003], [70.8532055, 22.381123399999996], [70.8532422, 22.3811287], [70.8532363, 22.3811636]]]}}, {"type": "Feature", "properties": {"layer": "building", "distance_m": 477.5, "source": "Google Open Buildings", "in_industrial_zone": false, "ghsl_2018": 0}, "geometry": {"type": "Polygon", "coordinates": [[[70.8532406, 22.3811946], [70.8532777, 22.381197300000007], [70.8532751, 22.3812281], [70.85323800000002, 22.381225400000005], [70.8532406, 22.3811946]]]}}, {"type": "Feature", "properties": {"layer": "building", "distance_m": 53.8, "source": "Google Open Buildings", "in_industrial_zone": false, "ghsl_2018": 1}, "geometry": {"type": "Polygon", "coordinates": [[[70.8577823, 22.3779528], [70.8577957, 22.377989699999997], [70.8577535, 22.37800299999999], [70.85774, 22.377966100000002], [70.8577823, 22.3779528]]]}}, {"type": "Feature", "properties": {"layer": "building", "distance_m": 55.1, "source": "Microsoft ML Buildings", "in_industrial_zone": false, "ghsl_2018": 1}, "geometry": {"type": "Polygon", "coordinates": [[[70.8577307, 22.377964], [70.8576868, 22.377980200000003], [70.8576711, 22.3779438], [70.857715, 22.377927599999996], [70.8577307, 22.377964]]]}}, {"type": "Feature", "properties": {"layer": "building", "distance_m": 56.5, "source": "Google Open Buildings", "in_industrial_zone": false, "ghsl_2018": 1}, "geometry": {"type": "Polygon", "coordinates": [[[70.8573504, 22.377786299999997], [70.85737559999998, 22.3778322], [70.85731490000002, 22.377860999999996], [70.8572897, 22.3778152], [70.8573504, 22.377786299999997]]]}}, {"type": "Feature", "properties": {"layer": "building", "distance_m": 48.2, "source": "Microsoft ML Buildings", "in_industrial_zone": false, "ghsl_2018": 1}, "geometry": {"type": "Polygon", "coordinates": [[[70.8573024, 22.37780100000001], [70.8572399, 22.377831999999998], [70.8572131, 22.3777858], [70.8572755, 22.377754799999998], [70.8573024, 22.37780100000001]]]}}, {"type": "Feature", "properties": {"layer": "building", "distance_m": 255.2, "source": "Google Open Buildings", "in_industrial_zone": false, "ghsl_2018": 0}, "geometry": {"type": "Polygon", "coordinates": [[[70.8555851, 22.371613399999998], [70.8560123, 22.3717775], [70.8559292, 22.371964600000002], [70.855502, 22.3718004], [70.8555851, 22.371613399999998]]]}}, {"type": "Feature", "properties": {"layer": "building", "distance_m": 351.8, "source": "Google Open Buildings", "in_industrial_zone": false, "ghsl_2018": 0}, "geometry": {"type": "Polygon", "coordinates": [[[70.86376690000002, 22.378736900000003], [70.8637705, 22.378787999999997], [70.86372270000001, 22.3787909], [70.8637191, 22.378739799999998], [70.86376690000002, 22.378736900000003]]]}}, {"type": "Feature", "properties": {"layer": "building", "distance_m": 416.2, "source": "Microsoft ML Buildings", "in_industrial_zone": false, "ghsl_2018": 0}, "geometry": {"type": "Polygon", "coordinates": [[[70.86426, 22.3791295], [70.86425810000001, 22.379161700000004], [70.86418860000002, 22.3791582], [70.86419040000001, 22.3791261], [70.86426, 22.3791295]]]}}, {"type": "Feature", "properties": {"layer": "building", "distance_m": 422.5, "source": "Google Open Buildings", "in_industrial_zone": false, "ghsl_2018": 0}, "geometry": {"type": "Polygon", "coordinates": [[[70.86425950000002, 22.379144299999997], [70.86432430000002, 22.379148300000008], [70.8643213, 22.379189799999995], [70.86425650000001, 22.3791858], [70.86425950000002, 22.379144299999997]]]}}, {"type": "Feature", "properties": {"layer": "building", "distance_m": 427.2, "source": "Google Open Buildings", "in_industrial_zone": false, "ghsl_2018": 0}, "geometry": {"type": "Polygon", "coordinates": [[[70.8643488, 22.379123300000003], [70.8644448, 22.3791292], [70.86443910000001, 22.3792089], [70.8643432, 22.379202999999997], [70.8643488, 22.379123300000003]]]}}, {"type": "Feature", "properties": {"layer": "building", "distance_m": 344.7, "source": "Microsoft ML Buildings", "in_industrial_zone": false, "ghsl_2018": 0}, "geometry": {"type": "Polygon", "coordinates": [[[70.86369320000001, 22.378761799999996], [70.86364660000001, 22.3787609], [70.86364780000001, 22.378712299999993], [70.86369440000001, 22.378713300000005], [70.86369320000001, 22.378761799999996]]]}}, {"type": "Feature", "properties": {"layer": "building", "distance_m": 169.0, "source": "Google Open Buildings", "in_industrial_zone": false, "ghsl_2018": 0}, "geometry": {"type": "Polygon", "coordinates": [[[70.8628281, 22.3753675], [70.86283360000002, 22.3754121], [70.86278789999997, 22.375416899999998], [70.8627825, 22.375372299999995], [70.8628281, 22.3753675]]]}}, {"type": "Feature", "properties": {"layer": "building", "distance_m": 166.1, "source": "Google Open Buildings", "in_industrial_zone": false, "ghsl_2018": 0}, "geometry": {"type": "Polygon", "coordinates": [[[70.8627856, 22.3754534], [70.8628267, 22.375448299999995], [70.8628326, 22.375489899999998], [70.8627915, 22.375495], [70.8627856, 22.3754534]]]}}, {"type": "Feature", "properties": {"layer": "building", "distance_m": 157.0, "source": "Google Open Buildings", "in_industrial_zone": false, "ghsl_2018": 0}, "geometry": {"type": "Polygon", "coordinates": [[[70.86283990000001, 22.375826000000004], [70.86287530000001, 22.375810900000005], [70.8628968, 22.375854399999998], [70.8628614, 22.375869599999994], [70.86283990000001, 22.375826000000004]]]}}, {"type": "Feature", "properties": {"layer": "building", "distance_m": 152.5, "source": "Google Open Buildings", "in_industrial_zone": false, "ghsl_2018": 0}, "geometry": {"type": "Polygon", "coordinates": [[[70.86281589999999, 22.375873300000002], [70.86285219999999, 22.3758632], [70.86286240000001, 22.3758947], [70.862826, 22.375904799999997], [70.86281589999999, 22.375873300000002]]]}}, {"type": "Feature", "properties": {"layer": "building", "distance_m": 150.7, "source": "Microsoft ML Buildings", "in_industrial_zone": false, "ghsl_2018": 0}, "geometry": {"type": "Polygon", "coordinates": [[[70.8628279, 22.3758357], [70.8627806, 22.3758419], [70.86277310000001, 22.375793299999998], [70.86282040000002, 22.375787099999997], [70.8628279, 22.3758357]]]}}, {"type": "Feature", "properties": {"layer": "building", "distance_m": 146.7, "source": "Microsoft ML Buildings", "in_industrial_zone": false, "ghsl_2018": 0}, "geometry": {"type": "Polygon", "coordinates": [[[70.8627555, 22.375878699999998], [70.86274139999999, 22.375846799999998], [70.86277589999999, 22.375833799999995], [70.86279, 22.3758657], [70.8627555, 22.375878699999998]]]}}, {"type": "Feature", "properties": {"layer": "building", "distance_m": 142.5, "source": "Google Open Buildings", "in_industrial_zone": false, "ghsl_2018": 0}, "geometry": {"type": "Polygon", "coordinates": [[[70.86268640000002, 22.375810899999998], [70.8627267, 22.3758006], [70.8627364, 22.375832999999997], [70.86269610000001, 22.3758434], [70.86268640000002, 22.375810899999998]]]}}, {"type": "Feature", "properties": {"layer": "building", "distance_m": 136.7, "source": "Microsoft ML Buildings", "in_industrial_zone": false, "ghsl_2018": 0}, "geometry": {"type": "Polygon", "coordinates": [[[70.862626, 22.3758162], [70.86260929999999, 22.375783899999995], [70.8626487, 22.375766499999997], [70.8626653, 22.375798900000007], [70.862626, 22.3758162]]]}}, {"type": "Feature", "properties": {"layer": "building", "distance_m": 145.3, "source": "Google Open Buildings", "in_industrial_zone": false, "ghsl_2018": 0}, "geometry": {"type": "Polygon", "coordinates": [[[70.8626308, 22.3755883], [70.8626717, 22.375590399999997], [70.86266970000003, 22.375625300000003], [70.8626287, 22.375623199999993], [70.8626308, 22.3755883]]]}}, {"type": "Feature", "properties": {"layer": "building", "distance_m": 162.9, "source": "Microsoft ML Buildings", "in_industrial_zone": false, "ghsl_2018": 0}, "geometry": {"type": "Polygon", "coordinates": [[[70.86270970000001, 22.375383399999997], [70.86270920000001, 22.3753412], [70.8627521, 22.375340700000006], [70.8627526, 22.3753829], [70.86270970000001, 22.375383399999997]]]}}, {"type": "Feature", "properties": {"layer": "building", "distance_m": 160.4, "source": "Microsoft ML Buildings", "in_industrial_zone": false, "ghsl_2018": 0}, "geometry": {"type": "Polygon", "coordinates": [[[70.8627128, 22.375424999999996], [70.86274830000002, 22.3754205], [70.8627542, 22.3754604], [70.8627187, 22.3754649], [70.8627128, 22.375424999999996]]]}}, {"type": "Feature", "properties": {"layer": "building", "distance_m": 107.4, "source": "Microsoft ML Buildings", "in_industrial_zone": false, "ghsl_2018": 0}, "geometry": {"type": "Polygon", "coordinates": [[[70.8622951, 22.3749141], [70.86229159999999, 22.3750181], [70.86222870000002, 22.375016299999995], [70.8622321, 22.3749123], [70.8622951, 22.3749141]]]}}, {"type": "Feature", "properties": {"layer": "building", "distance_m": 118.9, "source": "Google Open Buildings", "in_industrial_zone": false, "ghsl_2018": 0}, "geometry": {"type": "Polygon", "coordinates": [[[70.8622948, 22.374998300000005], [70.862352, 22.374993900000007], [70.8623555, 22.375033699999996], [70.8622984, 22.375038100000005], [70.8622948, 22.374998300000005]]]}}, {"type": "Feature", "properties": {"layer": "building", "distance_m": 115.3, "source": "Google Open Buildings", "in_industrial_zone": false, "ghsl_2018": 0}, "geometry": {"type": "Polygon", "coordinates": [[[70.8623174, 22.374945200000003], [70.8623743, 22.374946499999997], [70.862373, 22.374993500000002], [70.8623161, 22.3749922], [70.8623174, 22.374945200000003]]]}}, {"type": "Feature", "properties": {"layer": "building", "distance_m": 133.6, "source": "Google Open Buildings", "in_industrial_zone": false, "ghsl_2018": 0}, "geometry": {"type": "Polygon", "coordinates": [[[70.8624565, 22.3753599], [70.86250509999999, 22.375359399999997], [70.8625071, 22.375512900000007], [70.86245860000001, 22.375513399999996], [70.8624565, 22.3753599]]]}}, {"type": "Feature", "properties": {"layer": "building", "distance_m": 127.7, "source": "Microsoft ML Buildings", "in_industrial_zone": false, "ghsl_2018": 0}, "geometry": {"type": "Polygon", "coordinates": [[[70.8623776, 22.375329899999997], [70.8624312, 22.3753284], [70.8624361, 22.3754786], [70.86238249999998, 22.375480099999997], [70.8623776, 22.375329899999997]]]}}, {"type": "Feature", "properties": {"layer": "building", "distance_m": 20.3, "source": "Microsoft ML Buildings", "in_industrial_zone": false, "ghsl_2018": 0}, "geometry": {"type": "Polygon", "coordinates": [[[70.862949, 22.373117], [70.8629258, 22.373079800000003], [70.8629702, 22.373056199999997], [70.86299329999999, 22.373093500000003], [70.862949, 22.373117]]]}}, {"type": "Feature", "properties": {"layer": "building", "distance_m": 27.8, "source": "Google Open Buildings", "in_industrial_zone": false, "ghsl_2018": 0}, "geometry": {"type": "Polygon", "coordinates": [[[70.86305099999998, 22.3730975], [70.86306199999999, 22.373129900000002], [70.8630227, 22.373141399999994], [70.8630118, 22.373108899999995], [70.86305099999998, 22.3730975]]]}}, {"type": "Feature", "properties": {"layer": "building", "distance_m": 29.0, "source": "Google Open Buildings", "in_industrial_zone": false, "ghsl_2018": 0}, "geometry": {"type": "Polygon", "coordinates": [[[70.8631631, 22.3731727], [70.8630457, 22.373251300000003], [70.86302559999999, 22.373225399999995], [70.8631431, 22.373146799999997], [70.8631631, 22.3731727]]]}}, {"type": "Feature", "properties": {"layer": "building", "distance_m": 46.4, "source": "Microsoft ML Buildings", "in_industrial_zone": false, "ghsl_2018": 0}, "geometry": {"type": "Polygon", "coordinates": [[[70.86332240000002, 22.37359], [70.8632817, 22.373603199999998], [70.86323320000001, 22.373475000000003], [70.86327390000001, 22.3734618], [70.86332240000002, 22.37359]]]}}, {"type": "Feature", "properties": {"layer": "building", "distance_m": 171.4, "source": "Microsoft ML Buildings", "in_industrial_zone": false, "ghsl_2018": 0}, "geometry": {"type": "Polygon", "coordinates": [[[70.86312009999999, 22.375075499999998], [70.8631229, 22.375144799999998], [70.8630773, 22.375146400000006], [70.8630746, 22.375077], [70.86312009999999, 22.375075499999998]]]}}, {"type": "Feature", "properties": {"layer": "building", "distance_m": 183.9, "source": "Microsoft ML Buildings", "in_industrial_zone": false, "ghsl_2018": 0}, "geometry": {"type": "Polygon", "coordinates": [[[70.8631241, 22.375213400000003], [70.86312050000001, 22.375284200000003], [70.863075, 22.375282200000004], [70.86307860000001, 22.375211400000005], [70.8631241, 22.375213400000003]]]}}, {"type": "Feature", "properties": {"layer": "building", "distance_m": 181.8, "source": "Google Open Buildings", "in_industrial_zone": false, "ghsl_2018": 0}, "geometry": {"type": "Polygon", "coordinates": [[[70.8629846, 22.3752481], [70.8630477, 22.3752486], [70.8630474, 22.3752812], [70.8629843, 22.375280700000005], [70.8629846, 22.3752481]]]}}, {"type": "Feature", "properties": {"layer": "building", "distance_m": 190.7, "source": "Google Open Buildings", "in_industrial_zone": false, "ghsl_2018": 0}, "geometry": {"type": "Polygon", "coordinates": [[[70.863153, 22.3752385], [70.8632019, 22.3752423], [70.86319529999999, 22.375315099999998], [70.86314640000002, 22.375311300000003], [70.863153, 22.3752385]]]}}, {"type": "Feature", "properties": {"layer": "building", "distance_m": 178.4, "source": "Google Open Buildings", "in_industrial_zone": false, "ghsl_2018": 0}, "geometry": {"type": "Polygon", "coordinates": [[[70.863153, 22.375104099999998], [70.8631965, 22.3751044], [70.86319580000001, 22.375175800000008], [70.86315239999999, 22.3751754], [70.863153, 22.375104099999998]]]}}, {"type": "Feature", "properties": {"layer": "building", "distance_m": 164.7, "source": "Google Open Buildings", "in_industrial_zone": false, "ghsl_2018": 0}, "geometry": {"type": "Polygon", "coordinates": [[[70.8635825, 22.3746805], [70.8636549, 22.3746762], [70.8636583, 22.374726699999997], [70.863586, 22.374731000000004], [70.8635825, 22.3746805]]]}}, {"type": "Feature", "properties": {"layer": "building", "distance_m": 157.3, "source": "Microsoft ML Buildings", "in_industrial_zone": false, "ghsl_2018": 0}, "geometry": {"type": "Polygon", "coordinates": [[[70.8635078, 22.374647000000007], [70.8635775, 22.37464569999999], [70.8635787, 22.374699200000002], [70.863509, 22.374700599999997], [70.8635078, 22.374647000000007]]]}}, {"type": "Feature", "properties": {"layer": "building", "distance_m": 56.3, "source": "Google Open Buildings", "in_industrial_zone": false, "ghsl_2018": 0}, "geometry": {"type": "Polygon", "coordinates": [[[70.86332019999999, 22.373518200000003], [70.8633498, 22.373504500000003], [70.8633925, 22.373584300000008], [70.86336290000001, 22.373597999999998], [70.86332019999999, 22.373518200000003]]]}}, {"type": "Feature", "properties": {"layer": "building", "distance_m": 63.8, "source": "Google Open Buildings", "in_industrial_zone": false, "ghsl_2018": 0}, "geometry": {"type": "Polygon", "coordinates": [[[70.86339270000002, 22.373590100000005], [70.8634073, 22.373625700000005], [70.86338160000001, 22.3736349], [70.863367, 22.373599199999997], [70.86339270000002, 22.373590100000005]]]}}, {"type": "Feature", "properties": {"layer": "building", "distance_m": 71.5, "source": "Google Open Buildings", "in_industrial_zone": false, "ghsl_2018": 0}, "geometry": {"type": "Polygon", "coordinates": [[[70.86340810000003, 22.373682199999994], [70.86343759999998, 22.3736684], [70.86351610000001, 22.3738148], [70.8634865, 22.373828500000005], [70.86340810000003, 22.373682199999994]]]}}, {"type": "Feature", "properties": {"layer": "building", "distance_m": 98.2, "source": "Microsoft ML Buildings", "in_industrial_zone": false, "ghsl_2018": 0}, "geometry": {"type": "Polygon", "coordinates": [[[70.8635434, 22.37404440000001], [70.8635048, 22.373971], [70.8635417, 22.3739544], [70.8635803, 22.374027799999997], [70.8635434, 22.37404440000001]]]}}, {"type": "Feature", "properties": {"layer": "building", "distance_m": 107.6, "source": "Google Open Buildings", "in_industrial_zone": false, "ghsl_2018": 0}, "geometry": {"type": "Polygon", "coordinates": [[[70.86362479999998, 22.373994299999996], [70.86365910000002, 22.374060299999996], [70.86362499999998, 22.3740756], [70.86359079999998, 22.3740095], [70.86362479999998, 22.373994299999996]]]}}, {"type": "Feature", "properties": {"layer": "building", "distance_m": 169.2, "source": "Microsoft ML Buildings", "in_industrial_zone": false, "ghsl_2018": 0}, "geometry": {"type": "Polygon", "coordinates": [[[70.8637796, 22.374701800000004], [70.863702, 22.37470460000001], [70.8636999, 22.374654999999994], [70.8637776, 22.3746523], [70.8637796, 22.374701800000004]]]}}, {"type": "Feature", "properties": {"layer": "building", "distance_m": 254.4, "source": "Google Open Buildings", "in_industrial_zone": false, "ghsl_2018": 0}, "geometry": {"type": "Polygon", "coordinates": [[[70.8590051, 22.3692908], [70.8590519, 22.369302800000003], [70.8590428, 22.369333699999995], [70.8589959, 22.369321699999997], [70.8590051, 22.3692908]]]}}, {"type": "Feature", "properties": {"layer": "building", "distance_m": 450.6, "source": "Microsoft ML Buildings", "in_industrial_zone": false, "ghsl_2018": 1}, "geometry": {"type": "Polygon", "coordinates": [[[70.8592689, 22.367246299999998], [70.8593241, 22.367247099999993], [70.8593224, 22.367348799999995], [70.8592673, 22.367348], [70.8592689, 22.367246299999998]]]}}, {"type": "Feature", "properties": {"layer": "building", "distance_m": 453.9, "source": "Google Open Buildings", "in_industrial_zone": false, "ghsl_2018": 1}, "geometry": {"type": "Polygon", "coordinates": [[[70.8595552, 22.3672219], [70.8596217, 22.367226800000005], [70.8596184, 22.3672655], [70.8595519, 22.3672606], [70.8595552, 22.3672219]]]}}, {"type": "Feature", "properties": {"layer": "building", "distance_m": 446.7, "source": "Google Open Buildings", "in_industrial_zone": false, "ghsl_2018": 1}, "geometry": {"type": "Polygon", "coordinates": [[[70.8595104, 22.367297199999996], [70.8595689, 22.367301999999995], [70.8595653, 22.3673397], [70.8595068, 22.367334900000007], [70.8595104, 22.367297199999996]]]}}, {"type": "Feature", "properties": {"layer": "building", "distance_m": 447.5, "source": "Google Open Buildings", "in_industrial_zone": false, "ghsl_2018": 1}, "geometry": {"type": "Polygon", "coordinates": [[[70.8594671, 22.367302399999996], [70.8595176, 22.367305500000004], [70.8595151, 22.3673407], [70.8594646, 22.367337599999995], [70.8594671, 22.367302399999996]]]}}, {"type": "Feature", "properties": {"layer": "building", "distance_m": 457.5, "source": "Microsoft ML Buildings", "in_industrial_zone": false, "ghsl_2018": 1}, "geometry": {"type": "Polygon", "coordinates": [[[70.8595552, 22.367200500000006], [70.8595473, 22.3672439], [70.8594847, 22.3672343], [70.8594925, 22.367190799999992], [70.8595552, 22.367200500000006]]]}}, {"type": "Feature", "properties": {"layer": "building", "distance_m": 451.2, "source": "Microsoft ML Buildings", "in_industrial_zone": false, "ghsl_2018": 1}, "geometry": {"type": "Polygon", "coordinates": [[[70.8594451, 22.367277499999993], [70.8594431, 22.3673196], [70.859395, 22.367317700000005], [70.8593969, 22.367275599999996], [70.8594451, 22.367277499999993]]]}}, {"type": "Feature", "properties": {"layer": "building", "distance_m": 374.9, "source": "Microsoft ML Buildings", "in_industrial_zone": false, "ghsl_2018": 1}, "geometry": {"type": "Polygon", "coordinates": [[[70.864659, 22.3781306], [70.86460960000001, 22.378122500000003], [70.86463439999999, 22.377992599999992], [70.86468380000001, 22.378000699999998], [70.864659, 22.3781306]]]}}, {"type": "Feature", "properties": {"layer": "building", "distance_m": 384.3, "source": "Google Open Buildings", "in_industrial_zone": false, "ghsl_2018": 1}, "geometry": {"type": "Polygon", "coordinates": [[[70.86471980000002, 22.378023699999996], [70.8647731, 22.378038099999998], [70.8647339, 22.378163600000008], [70.86468060000001, 22.37814919999999], [70.86471980000002, 22.378023699999996]]]}}, {"type": "Feature", "properties": {"layer": "building", "distance_m": 487.1, "source": "Google Open Buildings", "in_industrial_zone": false, "ghsl_2018": 0}, "geometry": {"type": "Polygon", "coordinates": [[[70.865619, 22.378429399999995], [70.86565850000002, 22.378433400000002], [70.86565439999998, 22.378468099999996], [70.8656149, 22.3784641], [70.865619, 22.378429399999995]]]}}, {"type": "Feature", "properties": {"layer": "flood_100yr"}, "geometry": {"type": "Polygon", "coordinates": [[[70.83791813009266, 22.388733333340255], [70.83875146342828, 22.38873333334026], [70.8387514634283, 22.38790000000692], [70.83791813009266, 22.387900000006923], [70.83791813009266, 22.388733333340255]]]}}, {"type": "Feature", "properties": {"layer": "permanent_water_jrc"}, "geometry": {"type": "Polygon", "coordinates": [[[70.83791813009266, 22.388733333340255], [70.83875146342828, 22.38873333334026], [70.8387514634283, 22.38790000000692], [70.83791813009266, 22.387900000006923], [70.83791813009266, 22.388733333340255]]]}}, {"type": "Feature", "properties": {"layer": "airport", "name": "Rajkot Airport", "icao": "VARK", "distance_m": 9610.0}, "geometry": {"type": "Polygon", "coordinates": [[[70.7857983, 22.313449799999997], [70.7849559, 22.3127041], [70.7858786, 22.3119233], [70.785772, 22.310602199999995], [70.7856796, 22.30993429999999], [70.7848936, 22.3074445], [70.7826298, 22.3080202], [70.7816535, 22.306759700000008], [70.77934679999998, 22.307613300000003], [70.7793146, 22.307861400000004], [70.77809680000001, 22.306860500000006], [70.77718049999999, 22.306066900000005], [70.7769972, 22.3058465], [70.7720726, 22.3015683], [70.7708471, 22.3028483], [70.7726677, 22.304464600000003], [70.7745092, 22.306024700000002], [70.7780483, 22.309118100000003], [70.7758981, 22.3096899], [70.7754284, 22.312751000000006], [70.7742982, 22.3142539], [70.7753855, 22.315246199999997], [70.7783735, 22.314580199999998], [70.77944330000001, 22.3139359], [70.78319190000002, 22.313796100000012], [70.78565059999998, 22.315974699999998], [70.7867197, 22.316876700000005], [70.78821100000002, 22.315530700000007], [70.7857983, 22.313449799999997]]]}}, {"type": "Feature", "properties": {"layer": "airport_reference_point", "name": "Rajkot Airport", "icao": "VARK", "distance_m": 10745.2}, "geometry": {"type": "Point", "coordinates": [70.779503, 22.3092]}}, {"type": "Feature", "properties": {"layer": "airport", "name": "Rajkot International Airport", "icao": "VAHS", "distance_m": 16383.5}, "geometry": {"type": "Polygon", "coordinates": [[[71.0244441, 22.3756844], [71.0258281, 22.374097000000006], [71.0220623, 22.3710809], [71.0223198, 22.3704856], [71.0226309, 22.370307100000005], [71.0236287, 22.369314899999992], [71.0240042, 22.3684021], [71.0259998, 22.3663384], [71.0266006, 22.3662095], [71.026783, 22.366249100000005], [71.0290789, 22.3681045], [71.0295296, 22.3678763], [71.0303128, 22.367628300000007], [71.0308063, 22.3673901], [71.0328448, 22.367568700000003], [71.036042, 22.369096599999995], [71.0374456, 22.370251900000003], [71.0391641, 22.3716663], [71.0423827, 22.374345000000005], [71.0464704, 22.377876900000004], [71.0439706, 22.379742], [71.0439384, 22.379890799999995], [71.0488951, 22.383943400000003], [71.056555, 22.390439899999997], [71.0568271, 22.390916299999997], [71.0572137, 22.3911673], [71.0575174, 22.3912437], [71.0578537, 22.391517399999998], [71.057843, 22.392271400000002], [71.0578447, 22.3923509], [71.0575449, 22.392851899999997], [71.0574996, 22.394721499999996], [71.0553324, 22.397201399999997], [71.049512, 22.3923408], [71.048702, 22.391676200000003], [71.0479081, 22.3909818], [71.0466045, 22.3904312], [71.0467386, 22.3899451], [71.0456765, 22.3892755], [71.0454512, 22.389191199999996], [71.0451776, 22.3889531], [71.0441691, 22.388720000000003], [71.0435897, 22.388695200000004], [71.0420233, 22.3888142], [71.0411811, 22.388933299999998], [71.0402906, 22.388849000000004], [71.040076, 22.3887795], [71.0399872, 22.3887024], [71.0373348, 22.3863987], [71.0357308, 22.389573099999993], [71.032834, 22.387003799999995], [71.0312569, 22.3862796], [71.0292184, 22.384449299999996], [71.0278237, 22.383705300000003], [71.03072050000002, 22.380952300000004], [71.0244441, 22.3756844]]]}}, {"type": "Feature", "properties": {"layer": "airport_reference_point", "name": "Rajkot International Airport", "icao": "VAHS", "distance_m": 18178.8}, "geometry": {"type": "Point", "coordinates": [71.039391, 22.378824000000005]}}]}